,postalCode,name,distance,categories,lat,lng,id,City,Neighborhood
0,7974,Vishoek Beach,8074,Beach,-34.140835516408664,18.664044233870648,4d0db0447d28721e138efa20,Cape Town,False Bay
1,7975,Seal Island,9758,Scenic Lookout,-34.13757875690272,18.58264446258545,4c95007a209fef3b6b688e91,Cape Town,False Bay
0,7530,M-Kem,531,Pharmacy,-33.88830814540221,18.635206236908818,4ba20672f964a520ffd637e3,Cape Town,Bellville
1,,Vida E Caffè,424,Café,-33.8800206224521,18.63583157110421,53884c6d498e39acdc8e2ea0,Cape Town,Bellville
2,,Orms Pro Photo Warehouse North,161,Electronics Store,-33.882375076737276,18.63626648785036,4c9757097605199caf20c8a3,Cape Town,Bellville
3,,Ou Meul Bakkery,1590,Café,-33.87021614866072,18.631309514987937,535e1616498e6c5d20a1a50d,Cape Town,Bellville
4,,Boston Coffee,1767,Coffee Shop,-33.89318606691485,18.62150184480991,54926e1f498e89679bdd2a49,Cape Town,Bellville
5,7530,Food Lover's Market,1888,Supermarket,-33.86715641,18.63250875,4b920d17f964a52018e533e3,Cape Town,Bellville
6,7530,Virgin Active Health Club,800,Gym,-33.87719041759904,18.63327861060014,4c41a7cb3735be9a23b218a4,Cape Town,Bellville
7,,Jerry's Burger Bar,1439,Burger Joint,-33.8714383391959,18.632033320080712,56740de3498e17815dc6b777,Cape Town,Bellville
8,,Woolworths,937,Department Store,-33.87543188038071,18.635184907982232,4c7e63d1b53db1f7b1ce9f11,Cape Town,Bellville
9,,Limnos Bakery,178,Bakery,-33.88292471301843,18.635199240909177,4ba85f7bf964a52079d839e3,Cape Town,Bellville
10,8001,Col'Cacchio,1583,Pizza Place,-33.8702433912994,18.631449919945567,4dcd25eb3151a1df1e492bb8,Cape Town,Bellville
11,7530,The Hussar Grill,1443,Steakhouse,-33.871559155849695,18.631494164475622,4c14b2afa1010f4796d54c18,Cape Town,Bellville
12,,Woolworths Food Welgemoed Forum,2028,Food & Drink Shop,-33.873952901088266,18.618354055896813,4c9a3b579c663704afe456fd,Cape Town,Bellville
13,,Yuz Sushi,420,Sushi Restaurant,-33.88008035580786,18.635715593392188,4dc19693b0fb1c18ee67094d,Cape Town,Bellville
14,,Barnyard Theatre,1647,Theater,-33.869612720588414,18.631518900102332,4bf2dd43e5eba593a9e51d90,Cape Town,Bellville
15,,Vida E Caffe,1024,Coffee Shop,-33.87467483208203,18.634894570475733,4f45ee72e4b07d8af2efc171,Cape Town,Bellville
16,7530,Vida e Caffè,1587,Coffee Shop,-33.87021238718739,18.631425073283964,4b73c2acf964a520eaba2de3,Cape Town,Bellville
17,7530,Mugg & Bean,1224,Coffee Shop,-33.872795,18.635484,4ba7a4cef964a52081a539e3,Cape Town,Bellville
18,,Willowbridge Shopping Centre,1548,Shopping Mall,-33.87052642449106,18.63159260952991,4b827722f964a52008d430e3,Cape Town,Bellville
19,7530,Exclusive Books,1270,Bookstore,-33.872596249011494,18.633854984543508,4cd6908f122ba1431d7e33a1,Cape Town,Bellville
20,7536,Cattle Baron Grill House,736,Steakhouse,-33.87873,18.63165,4daf12894df0f639f2595242,Cape Town,Bellville
21,,Dutch Haven,1759,Bistro,-33.86820249934682,18.64043011687884,5395908a498edbdef876c6f3,Cape Town,Bellville
22,7357,SPAR Vredekloof,5024,Convenience Store,-33.85910914,18.68242682,4e873445b634c60eee3f5178,Cape Town,Bellville
23,7530,Tyger Waterfront,1043,Office,-33.876702988162556,18.629400662289278,4bcc70a80687ef3b5433dfcc,Cape Town,Bellville
24,7530,Burger Fair,2486,Fast Food Restaurant,-33.90377171056637,18.648757309119112,4c599205d3aee21ebf7d6855,Cape Town,Bellville
25,7550,The Vineyard Deli,2404,Deli / Bodega,-33.86229975596597,18.63363076849041,4c7b79422d3ba143031394d0,Cape Town,Bellville
26,,Arugula Bistro & Bread,2019,Restaurant,-33.8739241137782,18.61848919084369,4f7ea198e4b077c1807d3e4f,Cape Town,Bellville
27,,Glen Garry Shopping Centre,4423,Shopping Mall,-33.856768467010056,18.672027477890293,4d7e10fe9df3f04d7b61bd94,Cape Town,Bellville
28,7500,Pick 'n Pay,6279,Supermarket,-33.86557648309723,18.572547316620064,4c5c22a19b28d13aaedd5570,Cape Town,Bellville
29,,De Oude Welgemoed Restaurant,2469,Pizza Place,-33.87043028504159,18.615483843164842,4e7d7dd69a521ffdaa4e03ea,Cape Town,Bellville
30,,The Olive Bistro,6009,Gastropub,-33.83118824137428,18.651800219788324,509631b1e4b0cb1b32536eb7,Cape Town,Bellville
31,,Bossa Social Cafe & Bar,1211,Cocktail Bar,-33.875031632145934,18.628989754192688,514de7ace4b08621ab8d3b9f,Cape Town,Bellville
32,7500,SPAR,5503,Grocery Store,-33.873954,18.578498,4c5c37b7fff99c74ea2f33d3,Cape Town,Bellville
33,,Copper Club Eatery,996,Burger Joint,-33.876739501953125,18.6301326751709,564dfed8498ee48b0efd5236,Cape Town,Bellville
34,7530,Tyger Valley Centre,1255,Shopping Mall,-33.8726891648905,18.634115104706325,4b45b6a9f964a5207f0f26e3,Cape Town,Bellville
35,,Tygerberg hill,2501,Scenic Lookout,-33.889035792645,18.610560895385028,4f2252cbe4b083187463a574,Cape Town,Bellville
36,,Woolworths Food,4441,Grocery Store,-33.856709034831155,18.67222186215664,4cd039c648b837047a1cf1de,Cape Town,Bellville
37,,Virgin Active Health Club,6457,Gym,-33.84982643441175,18.69355802745639,4c5459c71b46c9b65be171ce,Cape Town,Bellville
38,,Yummy zone,823,Sushi Restaurant,-33.87633671030918,18.636945057877476,4f47cbeae4b0683d4ec88271,Cape Town,Bellville
39,,IMAX,6574,Multiplex,-33.85234358648886,18.697125080276752,5497085c498e9c88a8273b51,Cape Town,Bellville
40,7550,Cattle Baron,6125,Steakhouse,-33.83008157677166,18.651610845286047,4c1de818b306c928534866b7,Cape Town,Bellville
41,7530,Silver Spur,1156,Breakfast Spot,-33.8923636547782,18.629902200687045,4d4c48201ae437042ceef260,Cape Town,Bellville
42,7560,Woolworths Cape Gate,6482,Department Store,-33.85282412048405,18.696314967231444,4bd68b36cfa7b71326c827da,Cape Town,Bellville
43,,Pick 'n Pay,1174,Grocery Store,-33.873319535551154,18.63482902784354,4d5944ebfe7c224b902276b5,Cape Town,Bellville
44,,Pick n Pay Hypermarket,4611,Shopping Mall,-33.883470291100515,18.68676670197481,4cbab08ebac93704636fed7c,Cape Town,Bellville
45,7551,Eat@Altydgedacht,4202,Restaurant,-33.847325908631674,18.624847393741074,4d1dc5e4f7a9a143cc2a139f,Cape Town,Bellville
46,,Ke Monate Restaurant,7455,Tapas Restaurant,-33.82026274508434,18.61112289388409,4df3b5bed22d8c5470ded047,Cape Town,Bellville
47,,Alberto's Restaurant and Pub,6466,Restaurant,-33.82647111693134,18.64860625666377,4be9a0a8a9900f479f8d1540,Cape Town,Bellville
48,,Die Boer,6093,Music Venue,-33.830183572547405,18.6505284571695,4c1b5218013795210ddb46f3,Cape Town,Bellville
49,,Checkers,1842,Grocery Store,-33.86784230906674,18.631309359614175,4c7cf12faa3ba093c0faab74,Cape Town,Bellville
50,,Greens,6320,Italian Restaurant,-33.86508531544863,18.57228084634829,4cd514f794848cfa1810e4b1,Cape Town,Bellville
51,,D'Aria Wine Farm,5343,Winery,-33.841377373098695,18.609662131179853,4c5ff1df12e5c92872fd1d4c,Cape Town,Bellville
52,7560,Panda's Chinese Restaurant & Takeaway,7072,Chinese Restaurant,-33.883005376249976,18.71339979497272,4c56f7827329c928f1bd8d80,Cape Town,Bellville
53,,Yang yangs,2409,Chinese Restaurant,-33.882451720499006,18.662901767670377,4dd69e367d8b322663db5ac3,Cape Town,Bellville
54,,Ocean Basket Glen Garry,4310,Seafood Restaurant,-33.857484402592135,18.671161490355473,4d0f8b9bd467236a46bdbe4a,Cape Town,Bellville
55,,Burger King,1274,Fast Food Restaurant,-33.8725596386889,18.633881763727175,51bb5519498e92fc734b7166,Cape Town,Bellville
56,,Durbanville Hills Wine Estate,9316,Vineyard,-33.824714047473826,18.565417553766203,4be7bfe7e1b39521f22121c1,Cape Town,Bellville
57,,D's Speakeasy,5813,Pub,-33.83209368358392,18.646245724366526,4f0d6c0de4b01660dc7720d1,Cape Town,Bellville
58,7550,Sonstraal Spar,6360,Department Store,-33.83644834721606,18.67549288424508,4ba266dcf964a5203ff537e3,Cape Town,Bellville
59,,Stodels Nursery,2862,Flower Shop,-33.87330488198107,18.665180904242263,4bb89d56b35776b0c709c901,Cape Town,Bellville
60,,Plattekloof Hill,4870,Scenic Lookout,-33.88478598775065,18.584178742919338,4c4c6a7f712ac92874a64d6e,Cape Town,Bellville
61,7460,Texas Spur,7183,Steakhouse,-33.891906277329525,18.559759997712167,4d11d2d6f6f3721e71ac96e9,Cape Town,Bellville
62,7550,Vida e café,6007,Café,-33.83064109948833,18.6485429499513,54a8ff61498ea66986616438,Cape Town,Bellville
63,7551,Meerendal Wine Estate,9508,Vineyard,-33.79892468879846,18.6246427901898,4cd54631122ba143e5d32aa1,Cape Town,Bellville
64,,Woolworths Palm Grove,5652,Grocery Store,-33.83378313206032,18.647833639496014,4be1a45542e8c928fa783406,Cape Town,Bellville
65,7460,Fruit & Veg City Food Lover's Market,7501,Fruit & Vegetable Store,-33.89172124,18.55626222,4d3173dc98336dcbbc5118f0,Cape Town,Bellville
66,7500,Nando's,6395,Portuguese Restaurant,-33.8653561,18.5713068,4e08c3b114959022c89e7f19,Cape Town,Bellville
67,7500,Cattle Baron Grill House,5505,Steakhouse,-33.87438415378863,18.578369278223168,4c9b9f1e78ffa0933acf7675,Cape Town,Bellville
68,7551,SPAR,5617,Supermarket,-33.83348749,18.63121193,4c7bb25097028cfab98be1fe,Cape Town,Bellville
69,7550,"Ruslamere Guest House, Spa and Conference Centre",6517,Bed & Breakfast,-33.82957873326731,18.663676520312194,4bd74d5b304fce720d5833ab,Cape Town,Bellville
70,7580,Zevenwacht Wine Estate,9828,Winery,-33.93019289414788,18.72733421495576,4b739659f964a52013b52de3,Cape Town,Bellville
71,,Sir Loin,6429,Steakhouse,-33.85073803372924,18.69395837879709,54bf7da7498ec4a8eb923636,Cape Town,Bellville
72,,The Hussar Grill,9017,Steakhouse,-33.91821399638579,18.548555093962158,567192bd498e3c1adca10f4c,Cape Town,Bellville
73,,Bossa Nova,6152,American Restaurant,-33.82946538513488,18.64949452333092,4d6bccaa87b9548100cdc5dd,Cape Town,Bellville
74,,Makro,6597,Warehouse Store,-33.84838903943432,18.694167944790212,4fc8b163e4b03a05d4a5d3b7,Cape Town,Bellville
75,,Bunker Bar & Restaurant,9007,Bar,-33.84267461097129,18.552899779345044,4c94e032f7cfa1cdd3c0b715,Cape Town,Bellville
76,,Ashley's,8430,Diner,-33.91162392300551,18.552042018294113,4bf90e4c5ec320a1aea789d3,Cape Town,Bellville
77,,Cape Gate Spar,6381,Supermarket,-33.85084756588376,18.693422068737316,4cebd46ff8653704e8fcc4c4,Cape Town,Bellville
78,7550,Silver Creek Spur,5768,Breakfast Spot,-33.83266883428387,18.6474581940829,4c45cc57f799e21eaab0afa2,Cape Town,Bellville
79,,Soet,6010,Café,-33.83061660787478,18.648525552691485,4f87eaa7e4b05ae887639584,Cape Town,Bellville
80,7550,Durbanville Golf Course,5817,Golf Course,-33.83495857600362,18.659472011023176,4b8d6233f964a5207cf832e3,Cape Town,Bellville
81,7560,Capegate Shopping Centre,6454,Shopping Mall,-33.85126197,18.69472219,4dae8c71cda1ea0bb0406103,Cape Town,Bellville
82,7551,Tables At Nitida,6772,Tea Room,-33.83500462160035,18.593007589549188,4d7cc665da568cfab63c6cff,Cape Town,Bellville
83,,"Glenwood Spar, Goodwood",9310,Convenience Store,-33.89672242189908,18.537333067165854,4b5c86adf964a520713429e3,Cape Town,Bellville
84,7538,Tygerberg Nature Reserve,3603,Other Great Outdoors,-33.87621300146079,18.598946713553726,4d0def263bbaa1431efa3fda,Cape Town,Bellville
85,,Woolworths Food,6289,Grocery Store,-33.86590089943587,18.57229471818825,4da9ae7c93a04642f06c0c91,Cape Town,Bellville
86,7463,Cafe Fino,7094,Restaurant,-33.89165199025316,18.56068865282671,4c552bab728920a15cbef083,Cape Town,Bellville
87,,Schoongezicht Restaurant,7236,Restaurant,-33.89551347506501,18.713881203158177,4d7bd13bda568cfa320959ff,Cape Town,Bellville
88,7500,Plattekloof Village,6320,Shopping Mall,-33.86550518109846,18.57210157785989,4bf844d7c07c9c74cccfbbef,Cape Town,Bellville
89,,Checkers,5781,Convenience Store,-33.843976964481364,18.677121952643528,4c9164ccb641236abe4d8179,Cape Town,Bellville
90,,Slug And Lettuce,5722,Steakhouse,-33.83292198978405,18.646268665951144,5256f5a211d2857ca3662556,Cape Town,Bellville
91,7460,Panarottis N1 City,7169,Italian Restaurant,-33.8919174626587,18.559914662670213,4cc1b6171da0a1cd89db9bc6,Cape Town,Bellville
92,7500,Ster Kinekor,4335,Multiplex,-33.906656928348724,18.598932217809185,4d92029656a3f04d580ef041,Cape Town,Bellville
93,,Klein Roosboom,9290,Vineyard,-33.818472283924294,18.574234326409268,4e4100741f6e54050be48b20,Cape Town,Bellville
94,,Woolworths,4146,Grocery Store,-33.904508995805536,18.59962447111579,4d529efb9d493704d45dda39,Cape Town,Bellville
95,,knead,5704,Coffee Shop,-33.87616,18.575821,572c477f498e0122ce87b8bc,Cape Town,Bellville
96,,Checkers,9770,Supermarket,-33.84103854760453,18.544521013495704,4d404c9faae1b1f7d89f85f5,Cape Town,Bellville
97,7550,Virgin Active Health Club,5887,Gym,-33.831549399923496,18.64723235867574,4d13181affa1224b3ff59dad,Cape Town,Bellville
98,,Parow Golf Club,6036,Golf Course,-33.896177373299714,18.573283958702145,4d26b83d342d6dcb5678e6ca,Cape Town,Bellville
99,7475,"City Lodge Hotel GrandWest, Cape Town",9135,Hotel,-33.91952133800158,18.547896915826016,4bc8eeeb762beee17bb73d38,Cape Town,Bellville
0,8000,The Gin Bar,371,Cocktail Bar,-33.92273288691907,18.417150034224644,54d63408498e31d1e8e09e57,Cape Town,City Bowl
1,8001,Fugard Theatre,499,Theater,-33.92717880771957,18.424410697680713,4bcede8d29d4b7132923a9dc,Cape Town,City Bowl
2,8005,Truth Coffee HQ,536,Café,-33.92828568736539,18.4227945872331,4fa0c477e4b0c33ec64258bf,Cape Town,City Bowl
3,8001,City Hall,305,City Hall,-33.92518468373031,18.423782589572202,4b6b08e2f964a5202aee2be3,Cape Town,City Bowl
4,,The Book Lounge,626,Bookstore,-33.92930614229909,18.42168843738291,4b9e4a4cf964a5209dd736e3,Cape Town,City Bowl
5,8001,Skinny laMinx,653,Furniture / Home Store,-33.924987260907464,18.4140944480896,502c9a5d067d5b50e0ba9eb8,Cape Town,City Bowl
6,8001,Aces 'n Spades,273,Bar,-33.92138527642458,18.42000551633646,502e9348e4b047efecff0430,Cape Town,City Bowl
7,8000,Jason Bakery,611,Bakery,-33.92453842563379,18.414449223651683,4d9580ed454edcb39969b76a,Cape Town,City Bowl
8,8000,Yourstruly,370,Coffee Shop,-33.92431943340237,18.417055746248256,4cd50dac8e5b6a317f1b74ac,Cape Town,City Bowl
9,,New York Bagel,573,Bagel Shop,-33.92812216330304,18.42418736238842,54350aca498e511cba960528,Cape Town,City Bowl
10,8000,Artscape Theatre,896,Theater,-33.919537048903365,18.429297381456607,4b5342ebf964a520b69427e3,Cape Town,City Bowl
11,8001,Kloof Street House,960,African Restaurant,-33.92830450158452,18.412193932450084,54a88b5c498e72e47a96233f,Cape Town,City Bowl
12,8001,The Labia Theatre,1060,Movie Theater,-33.93005356692247,18.412439146653224,4b5f1604f964a52054a529e3,Cape Town,City Bowl
13,,Virgin Active Foreshore,1107,Gym / Fitness Center,-33.91784923671407,18.430691895051158,5766b8aecd100453bf08c5ab,Cape Town,City Bowl
14,8001,Unframed Ice Cream,995,Ice Cream Shop,-33.928688015760294,18.41204556956696,57a20081498ee7342127f5a5,Cape Town,City Bowl
15,8005,Pigalle,1237,Seafood Restaurant,-33.913161220900925,18.4167439564029,4bc0aaf8abf495217098bf93,Cape Town,City Bowl
16,8001,Deluxe Coffeeworks,1094,Coffee Shop,-33.933453,18.419453,50123ab3e4b0f8ec77991df4,Cape Town,City Bowl
17,,360 Specialized Training,1876,Gym,-33.93063297914655,18.439516160921674,4d6d2f3bfbf0a093ec91fc8c,Cape Town,City Bowl
18,,Signal Hill,1836,Hill,-33.91790703224613,18.402374981837013,4b5c6f27f964a520a72f29e3,Cape Town,City Bowl
19,8000,The Deli Woodstock,1691,Breakfast Spot,-33.92773321883452,18.43864551481081,4c383fdfdfb0e21ef447aea8,Cape Town,City Bowl
20,8001,De Waal Park,1639,Park,-33.93666648137161,18.41257095336914,4b796650f964a52095f72ee3,Cape Town,City Bowl
21,8001,The Silo Hotel,1697,Hotel,-33.90851199761666,18.42262145365408,582334fb03399c2dc117d903,Cape Town,City Bowl
22,8001,One&Only Cape Town,1725,Resort,-33.908668541891046,18.416461381779996,4b700ea8f964a52041052de3,Cape Town,City Bowl
23,,Watershed,1865,Market,-33.907116168436936,18.41816228150922,54429072498e71ae5f3585e7,Cape Town,City Bowl
24,,Queen Victoria Hotel,1936,Hotel,-33.906414832225394,18.41869917650755,4db467ca6a23c31a0316b57b,Cape Town,City Bowl
25,,Nourishd Juice Bar,2072,Juice Bar,-33.93663,18.40484,589a33bbef787f24a01580ba,Cape Town,City Bowl
26,,Giovanni's Deliworld,2051,Bakery,-33.90782184808231,18.409727517755517,4b51863af964a520ed4e27e3,Cape Town,City Bowl
27,8001,The Kitchen,1628,Deli / Bodega,-33.927670975915085,18.43796609977646,4b694555f964a520549d2be3,Cape Town,City Bowl
28,,Cooked,1863,Coffee Shop,-33.907122797849084,18.41820533520213,566da475498ed2e93de35c6c,Cape Town,City Bowl
29,8000,Victoria Wharf,2236,Shopping Mall,-33.90361868916433,18.42057466506958,518d2e42498e2a0a96297fb0,Cape Town,City Bowl
30,7915,Rosetta Roastery,2324,Coffee Shop,-33.92670585996497,18.445895047082622,4c77b3f16981bfb7de7a66e6,Cape Town,City Bowl
31,8001,V&A Waterfront,2126,Waterfront,-33.90462006045022,18.42003876929211,4b43b4bff964a52014e725e3,Cape Town,City Bowl
32,8051,Jason Bakery,1967,Bakery,-33.90814555679022,18.410891348801574,5a2cf00b35f9833b4ce7d183,Cape Town,City Bowl
33,8005,Spar,966,Supermarket,-33.91537412,18.41805674,4bf7e2078d30d13a70a4ff17,Cape Town,City Bowl
34,,"Food Lovers, The Towers",780,Food Court,-33.91945851147964,18.427718198510565,565c25fa498e1d3da85ed493,Cape Town,City Bowl
35,,Cape Town Waterfront,2353,Waterfront,-33.90256792953086,18.4216046333313,53b95629498e28001d79d8de,Cape Town,City Bowl
36,8002,Nespresso Boutique,2194,Coffee Shop,-33.90400574458095,18.4199671423334,4c3df4c5b8b4be9aab74cbef,Cape Town,City Bowl
37,,The Table Bay Hotel - Lounge,2291,Hotel,-33.903146643778044,18.42228120940016,4d1dffece56f6ea8359d601d,Cape Town,City Bowl
38,,Willoughby & Co,2333,Seafood Restaurant,-33.90274474798387,18.421349961573604,4b4dd523f964a520e4d826e3,Cape Town,City Bowl
39,8051,Green Point Urban Park,2662,Park,-33.90555738278987,18.40221851536896,4d9dc1d6c593a1cdef2b6719,Cape Town,City Bowl
40,,Glen Boutique Hotel,2815,Hotel,-33.916673287075184,18.39171484272647,4ba4bb57f964a52005b038e3,Cape Town,City Bowl
41,,Stardust,1323,Theater,-33.92752625703309,18.434563877424985,529e12d8498e188cc3d3ddea,Cape Town,City Bowl
42,,Lions Head Trail,2822,Trail,-33.93685957443096,18.39487494765333,4bb215f7f964a520a2b73ce3,Cape Town,City Bowl
43,7925,Table Mountain National Park,3186,National Park,-33.948035557863165,18.402806064323944,4efc3aeb823142b925eb319d,Cape Town,City Bowl
44,8001,Coco Safar,2858,Café,-33.910444433451154,18.39448981377906,5a5f2e9bdd70c55eccf59824,Cape Town,City Bowl
45,8005,Sea Point Beach Promenade,3225,Trail,-33.91029694340421,18.390040397644043,4b7657bff964a520ef482ee3,Cape Town,City Bowl
46,,"Seattle Coffee, The Towers",779,Coffee Shop,-33.919565151029474,18.42779236125447,565d37ef498e7ec1b1844dd8,Cape Town,City Bowl
47,7925,Espresso Lab Microroasters,3351,Coffee Shop,-33.92737067543962,18.457009014445408,4ba9e287f964a520183c3ae3,Cape Town,City Bowl
48,8005,Hotel 303,2898,Hotel,-33.912144,18.392876,4d0397fadc45a0932703e5c6,Cape Town,City Bowl
49,8001,Lions Head Peak,3200,Mountain,-33.93501147657133,18.389137585455497,4bfaa0d0508c0f47f5414031,Cape Town,City Bowl
50,8005,La Mouette,3541,French Restaurant,-33.92118767834148,18.382778418449398,4c829880dc018cfa83f3d06c,Cape Town,City Bowl
51,7925,The Pot Luck Club & Gallery,3391,Tapas Restaurant,-33.927463,18.457429,4efe0f19e5faf2869a1156c1,Cape Town,City Bowl
52,,The Test Kitchen,3348,Restaurant,-33.927422678167645,18.45696173744514,4cf68fc8e308236ab6e3e6ac,Cape Town,City Bowl
53,7925,The Old Biscuit Mill,3390,Market,-33.92749713628417,18.457415051797437,4b5a3b1bf964a52013b628e3,Cape Town,City Bowl
54,,The Sidewalk Cafe,1812,Café,-33.93893301476184,18.42794219488249,4b7a67aef964a520f62b2fe3,Cape Town,City Bowl
55,,Salisburys,3057,Deli / Bodega,-33.933360708670065,18.451980701512788,4ff0360ce4b0cf66726cb6cb,Cape Town,City Bowl
56,,Woodstock Foundry,2729,Event Space,-33.92699097754226,18.450274887434205,4fd5dcade4b02bbdc692ed95,Cape Town,City Bowl
57,7925,Woodstock Brewery,3053,Brewery,-33.92729377150171,18.453770970512487,57906662498ed25e200c17fd,Cape Town,City Bowl
58,8000,Top of Table Mountain,4112,Scenic Lookout,-33.957513188002125,18.403037310564745,4bb0fba2f964a5204f703ce3,Cape Town,City Bowl
59,8001,Tribe Coffee,2766,Coffee Shop,-33.92727272520289,18.450634898426785,51695769e4b04fc89096589a,Cape Town,City Bowl
60,,Bantry Bay,3969,Scenic Lookout,-33.92732157912339,18.378245227753318,4c20ca233573c9b608e03515,Cape Town,City Bowl
61,8005,Clifton 1st Beach,4228,Beach,-33.93600136524832,18.37767735320228,4b7824b2f964a5200cb82ee3,Cape Town,City Bowl
62,8005,Clifton 2nd Beach,4315,Beach,-33.93767444013776,18.37740472150441,4c8b7bb56418a143a968e9ce,Cape Town,City Bowl
63,,Neighbourgoods Market,3427,Flea Market,-33.9274569558459,18.457826180599668,4e550332636510eb2e0e0683,Cape Town,City Bowl
64,7925,Saucisse Deli,3349,Deli / Bodega,-33.927383554093446,18.456980966220513,4eae7baa9911d5c951b3cc06,Cape Town,City Bowl
65,,Ocean Jewels,2336,Seafood Restaurant,-33.92697200076062,18.44598148752877,515eb609e4b08388f73c92c7,Cape Town,City Bowl
66,8005,POD Camps Bay,4757,Hotel,-33.94924463089983,18.379686428828617,4c3d7d73b169c9b6211a4768,Cape Town,City Bowl
67,,Glen Beach,4738,Beach,-33.946878157719674,18.377955495720176,4c68ef393bad2d7fd3a1aeee,Cape Town,City Bowl
68,8040,Camps Bay Beach,4992,Beach,-33.950604673489345,18.377745151519775,4c3073957cc0c9b6ae58ed9a,Cape Town,City Bowl
69,8005,Maiden's Cove,4764,Scenic Lookout,-33.945097685595805,18.376314317221297,4e184285183880768f3eb656,Cape Town,City Bowl
70,8005,Atlanticview Cape Town Boutique Hotel,5202,Hotel,-33.96012690220119,18.385684490203857,54d88f1b498eab400b766771,Cape Town,City Bowl
71,,Devil's Peak Brewing Company (The Taproom),3811,Brewery,-33.93408429796424,18.460315591431804,51ebca525019fb668b6311d9,Cape Town,City Bowl
72,8040,Vide E Caffe,4975,Coffee Shop,-33.95100649878029,18.37834274334316,4c6f96eadf6b8cfa3bb2b54d,Cape Town,City Bowl
73,,Raw and Roxy,3243,Vegetarian / Vegan Restaurant,-33.92742942619817,18.455821159554247,53be7f1a498ecfab3dd716f6,Cape Town,City Bowl
74,,"Casa Woodstock, Casa Nostra Bar",3327,Bar,-33.92769135434862,18.456694050665305,4e16dafa8130977157798115,Cape Town,City Bowl
75,,Newlands Forest,5887,Forest,-33.970869424576335,18.449845578052983,4bc1a989461576b04d387c32,Cape Town,City Bowl
76,,Checkers,3496,Grocery Store,-33.92098842095797,18.383280408241074,4bfd2bf9f61dc9b648959ede,Cape Town,City Bowl
77,7925,1890 House Sushi,4791,Sushi Restaurant,-33.93920394799666,18.46938616433879,4b50cf03f964a520563327e3,Cape Town,City Bowl
78,,Spar,1844,Grocery Store,-33.939172045822914,18.428155074247798,4bdc39bf3904a5938a3f4d9e,Cape Town,City Bowl
79,,Gardener's Cottage,6147,Café,-33.97009824275582,18.45709964654482,4ba4d504f964a52020b938e3,Cape Town,City Bowl
80,,Beta Beach,5876,Beach,-33.9601060976156,18.374905067108077,4d04d6677d9ba35d5e226823,Cape Town,City Bowl
81,,Rhodes Memorial,4759,Monument / Landmark,-33.95250203886461,18.459084299518164,4b976addf964a520ef0235e3,Cape Town,City Bowl
82,7700,Vineyard Hotel & Spa,7059,Hotel,-33.97889774917507,18.45864753172221,4b58b75ff964a520296728e3,Cape Town,City Bowl
83,7700,Kirstenbosch Botanical Gardens,7304,Botanical Garden,-33.98845,18.433832,4b5acf4df964a520a7d528e3,Cape Town,City Bowl
84,7700,Baxter Theatre Centre,5872,Theater,-33.95685529195213,18.470461381924636,4b606099f964a5208fe229e3,Cape Town,City Bowl
85,7700,Newlands Rugby Stadium,6815,Stadium,-33.970645947055424,18.468375432867685,4b8003f6f964a520e04a30e3,Cape Town,City Bowl
86,,The Hussar Grill,6049,Steakhouse,-33.95913577409004,18.470667502960097,4baa6dbff964a52040693ae3,Cape Town,City Bowl
87,7700,PPC Newlands Cricket Ground,7103,Cricket Ground,-33.97364000769796,18.468891292223844,4b76e43ff964a520c0672ee3,Cape Town,City Bowl
88,7700,Sports Science Institute of South Africa,6877,Athletics & Sports,-33.9718160897948,18.467723838115923,4b9773b7f964a520460435e3,Cape Town,City Bowl
89,,Fraiche Ayres,5917,Restaurant,-33.951087111351285,18.475908998902728,4d3ead046b3d236ab37d7464,Cape Town,City Bowl
90,,Magica Roma,7325,Italian Restaurant,-33.94014855148352,18.497787490194014,4b97fb2ff964a520e12335e3,Cape Town,City Bowl
91,7725,Rock Sushi Thai,6629,Sushi Restaurant,-33.971419,18.463961,4fff0248e4b02b4ef99aeaf4,Cape Town,City Bowl
92,7700,Common Ground Cafe,7156,Coffee Shop,-33.958918134385584,18.485833059887966,4b613990f964a520680d2ae3,Cape Town,City Bowl
93,7700,Barristers Restaurant,6813,Pub,-33.9760788026674,18.45916801747441,4b6166fbf964a52047122ae3,Cape Town,City Bowl
94,7700,Centenary Tree Canopy Walkway (Boomslang),7398,Scenic Lookout,-33.98971393494955,18.43036590802954,537f466c498ea5ac200c2f3a,Cape Town,City Bowl
95,7700,Myoga Restaurant,7051,Molecular Gastronomy Restaurant,-33.978947398597484,18.45837116337005,4beafcb262c0c928688ce1d4,Cape Town,City Bowl
96,,Starke Ayres Garden Centre,5914,Garden Center,-33.95105627687584,18.475898429193837,4b8a2302f964a520836132e3,Cape Town,City Bowl
97,7700,The Creamery Cafe,6585,Ice Cream Shop,-33.971058874901914,18.463730671075314,5231645e11d22e05eb92a2e8,Cape Town,City Bowl
98,,Woolies/Engen Claremont,7155,Deli / Bodega,-33.976877450133486,18.464527846306005,4e4f62a3b61cf637a4f4ae2b,Cape Town,City Bowl
99,7700,Sushi Box,6788,Sushi Restaurant,-33.97578392951175,18.459242575303588,4fb26e66e4b0f1afb50a79dd,Cape Town,City Bowl
0,,Giovanni's Deliworld,255,Bakery,-33.90782184808231,18.409727517755517,4b51863af964a520ed4e27e3,Cape Town,Atlantic Seaboard
1,8051,Jason Bakery,292,Bakery,-33.90814555679022,18.410891348801574,5a2cf00b35f9833b4ce7d183,Cape Town,Atlantic Seaboard
2,8001,One&Only Cape Town,747,Resort,-33.908668541891046,18.416461381779996,4b700ea8f964a52041052de3,Cape Town,Atlantic Seaboard
3,8051,Green Point Urban Park,753,Park,-33.90555738278987,18.40221851536896,4d9dc1d6c593a1cdef2b6719,Cape Town,Atlantic Seaboard
4,,Watershed,943,Market,-33.907116168436936,18.41816228150922,54429072498e71ae5f3585e7,Cape Town,Atlantic Seaboard
5,,Signal Hill,1058,Hill,-33.91790703224613,18.402374981837013,4b5c6f27f964a520a72f29e3,Cape Town,Atlantic Seaboard
6,8005,Pigalle,844,Seafood Restaurant,-33.913161220900925,18.4167439564029,4bc0aaf8abf495217098bf93,Cape Town,Atlantic Seaboard
7,,Queen Victoria Hotel,1017,Hotel,-33.906414832225394,18.41869917650755,4db467ca6a23c31a0316b57b,Cape Town,Atlantic Seaboard
8,,Cooked,947,Coffee Shop,-33.907122797849084,18.41820533520213,566da475498ed2e93de35c6c,Cape Town,Atlantic Seaboard
9,8001,The Silo Hotel,1313,Hotel,-33.90851199761666,18.42262145365408,582334fb03399c2dc117d903,Cape Town,Atlantic Seaboard
10,8000,Victoria Wharf,1314,Shopping Mall,-33.90361868916433,18.42057466506958,518d2e42498e2a0a96297fb0,Cape Town,Atlantic Seaboard
11,8001,V&A Waterfront,1215,Waterfront,-33.90462006045022,18.42003876929211,4b43b4bff964a52014e725e3,Cape Town,Atlantic Seaboard
12,8001,Coco Safar,1296,Café,-33.910444433451154,18.39448981377906,5a5f2e9bdd70c55eccf59824,Cape Town,Atlantic Seaboard
13,8005,Sea Point Beach Promenade,1706,Trail,-33.91029694340421,18.390040397644043,4b7657bff964a520ef482ee3,Cape Town,Atlantic Seaboard
14,8002,Nespresso Boutique,1244,Coffee Shop,-33.90400574458095,18.4199671423334,4c3df4c5b8b4be9aab74cbef,Cape Town,Atlantic Seaboard
15,8000,The Gin Bar,1638,Cocktail Bar,-33.92273288691907,18.417150034224644,54d63408498e31d1e8e09e57,Cape Town,Atlantic Seaboard
16,,Cape Town Waterfront,1458,Waterfront,-33.90256792953086,18.4216046333313,53b95629498e28001d79d8de,Cape Town,Atlantic Seaboard
17,,Glen Boutique Hotel,1725,Hotel,-33.916673287075184,18.39171484272647,4ba4bb57f964a52005b038e3,Cape Town,Atlantic Seaboard
18,8001,Skinny laMinx,1759,Furniture / Home Store,-33.924987260907464,18.4140944480896,502c9a5d067d5b50e0ba9eb8,Cape Town,Atlantic Seaboard
19,8000,Jason Bakery,1722,Bakery,-33.92453842563379,18.414449223651683,4d9580ed454edcb39969b76a,Cape Town,Atlantic Seaboard
20,,Willoughby & Co,1427,Seafood Restaurant,-33.90274474798387,18.421349961573604,4b4dd523f964a520e4d826e3,Cape Town,Atlantic Seaboard
21,,The Table Bay Hotel - Lounge,1477,Hotel,-33.903146643778044,18.42228120940016,4d1dffece56f6ea8359d601d,Cape Town,Atlantic Seaboard
22,8005,Hotel 303,1465,Hotel,-33.912144,18.392876,4d0397fadc45a0932703e5c6,Cape Town,Atlantic Seaboard
23,8001,Aces 'n Spades,1664,Bar,-33.92138527642458,18.42000551633646,502e9348e4b047efecff0430,Cape Town,Atlantic Seaboard
24,8001,Kloof Street House,2079,African Restaurant,-33.92830450158452,18.412193932450084,54a88b5c498e72e47a96233f,Cape Town,Atlantic Seaboard
25,8000,Yourstruly,1791,Coffee Shop,-33.92431943340237,18.417055746248256,4cd50dac8e5b6a317f1b74ac,Cape Town,Atlantic Seaboard
26,8001,Fugard Theatre,2422,Theater,-33.92717880771957,18.424410697680713,4bcede8d29d4b7132923a9dc,Cape Town,Atlantic Seaboard
27,8005,Truth Coffee HQ,2437,Café,-33.92828568736539,18.4227945872331,4fa0c477e4b0c33ec64258bf,Cape Town,Atlantic Seaboard
28,8000,Artscape Theatre,2201,Theater,-33.919537048903365,18.429297381456607,4b5342ebf964a520b69427e3,Cape Town,Atlantic Seaboard
29,8001,City Hall,2212,City Hall,-33.92518468373031,18.423782589572202,4b6b08e2f964a5202aee2be3,Cape Town,Atlantic Seaboard
30,8001,The Labia Theatre,2275,Movie Theater,-33.93005356692247,18.412439146653224,4b5f1604f964a52054a529e3,Cape Town,Atlantic Seaboard
31,,Virgin Active Foreshore,2233,Gym / Fitness Center,-33.91784923671407,18.430691895051158,5766b8aecd100453bf08c5ab,Cape Town,Atlantic Seaboard
32,,The Book Lounge,2482,Bookstore,-33.92930614229909,18.42168843738291,4b9e4a4cf964a5209dd736e3,Cape Town,Atlantic Seaboard
33,8001,Unframed Ice Cream,2119,Ice Cream Shop,-33.928688015760294,18.41204556956696,57a20081498ee7342127f5a5,Cape Town,Atlantic Seaboard
34,8005,Spar,1074,Supermarket,-33.91537412,18.41805674,4bf7e2078d30d13a70a4ff17,Cape Town,Atlantic Seaboard
35,8005,La Mouette,2689,French Restaurant,-33.92118767834148,18.382778418449398,4c829880dc018cfa83f3d06c,Cape Town,Atlantic Seaboard
36,,New York Bagel,2494,Bagel Shop,-33.92812216330304,18.42418736238842,54350aca498e511cba960528,Cape Town,Atlantic Seaboard
37,,Nourishd Juice Bar,2997,Juice Bar,-33.93663,18.40484,589a33bbef787f24a01580ba,Cape Town,Atlantic Seaboard
38,8001,De Waal Park,3005,Park,-33.93666648137161,18.41257095336914,4b796650f964a52095f72ee3,Cape Town,Atlantic Seaboard
39,8001,Deluxe Coffeeworks,2812,Coffee Shop,-33.933453,18.419453,50123ab3e4b0f8ec77991df4,Cape Town,Atlantic Seaboard
40,,Lions Head Trail,3256,Trail,-33.93685957443096,18.39487494765333,4bb215f7f964a520a2b73ce3,Cape Town,Atlantic Seaboard
41,8000,The Deli Woodstock,3421,Breakfast Spot,-33.92773321883452,18.43864551481081,4c383fdfdfb0e21ef447aea8,Cape Town,Atlantic Seaboard
42,,Bantry Bay,3403,Scenic Lookout,-33.92732157912339,18.378245227753318,4c20ca233573c9b608e03515,Cape Town,Atlantic Seaboard
43,,360 Specialized Training,3680,Gym,-33.93063297914655,18.439516160921674,4d6d2f3bfbf0a093ec91fc8c,Cape Town,Atlantic Seaboard
44,8001,Lions Head Peak,3320,Mountain,-33.93501147657133,18.389137585455497,4bfaa0d0508c0f47f5414031,Cape Town,Atlantic Seaboard
45,,"Food Lovers, The Towers",2070,Food Court,-33.91945851147964,18.427718198510565,565c25fa498e1d3da85ed493,Cape Town,Atlantic Seaboard
46,7915,Rosetta Roastery,3929,Coffee Shop,-33.92670585996497,18.445895047082622,4c77b3f16981bfb7de7a66e6,Cape Town,Atlantic Seaboard
47,8001,The Kitchen,3366,Deli / Bodega,-33.927670975915085,18.43796609977646,4b694555f964a520549d2be3,Cape Town,Atlantic Seaboard
48,8005,Clifton 1st Beach,4070,Beach,-33.93600136524832,18.37767735320228,4b7824b2f964a5200cb82ee3,Cape Town,Atlantic Seaboard
49,7925,Table Mountain National Park,4280,National Park,-33.948035557863165,18.402806064323944,4efc3aeb823142b925eb319d,Cape Town,Atlantic Seaboard
50,8005,Clifton 2nd Beach,4222,Beach,-33.93767444013776,18.37740472150441,4c8b7bb56418a143a968e9ce,Cape Town,Atlantic Seaboard
51,,"Seattle Coffee, The Towers",2082,Coffee Shop,-33.919565151029474,18.42779236125447,565d37ef498e7ec1b1844dd8,Cape Town,Atlantic Seaboard
52,,Stardust,3107,Theater,-33.92752625703309,18.434563877424985,529e12d8498e188cc3d3ddea,Cape Town,Atlantic Seaboard
53,7925,Espresso Lab Microroasters,4885,Coffee Shop,-33.92737067543962,18.457009014445408,4ba9e287f964a520183c3ae3,Cape Town,Atlantic Seaboard
54,7925,The Pot Luck Club & Gallery,4925,Tapas Restaurant,-33.927463,18.457429,4efe0f19e5faf2869a1156c1,Cape Town,Atlantic Seaboard
55,,The Test Kitchen,4883,Restaurant,-33.927422678167645,18.45696173744514,4cf68fc8e308236ab6e3e6ac,Cape Town,Atlantic Seaboard
56,7925,The Old Biscuit Mill,4925,Market,-33.92749713628417,18.457415051797437,4b5a3b1bf964a52013b628e3,Cape Town,Atlantic Seaboard
57,8000,Top of Table Mountain,5326,Scenic Lookout,-33.957513188002125,18.403037310564745,4bb0fba2f964a5204f703ce3,Cape Town,Atlantic Seaboard
58,,Glen Beach,4992,Beach,-33.946878157719674,18.377955495720176,4c68ef393bad2d7fd3a1aeee,Cape Town,Atlantic Seaboard
59,,Checkers,2638,Grocery Store,-33.92098842095797,18.383280408241074,4bfd2bf9f61dc9b648959ede,Cape Town,Atlantic Seaboard
60,8005,Maiden's Cove,4920,Scenic Lookout,-33.945097685595805,18.376314317221297,4e184285183880768f3eb656,Cape Town,Atlantic Seaboard
61,8005,POD Camps Bay,5127,Hotel,-33.94924463089983,18.379686428828617,4c3d7d73b169c9b6211a4768,Cape Town,Atlantic Seaboard
62,8040,Camps Bay Beach,5350,Beach,-33.950604673489345,18.377745151519775,4c3073957cc0c9b6ae58ed9a,Cape Town,Atlantic Seaboard
63,,Woodstock Foundry,4303,Event Space,-33.92699097754226,18.450274887434205,4fd5dcade4b02bbdc692ed95,Cape Town,Atlantic Seaboard
64,7925,Woodstock Brewery,4609,Brewery,-33.92729377150171,18.453770970512487,57906662498ed25e200c17fd,Cape Town,Atlantic Seaboard
65,,Salisburys,4792,Deli / Bodega,-33.933360708670065,18.451980701512788,4ff0360ce4b0cf66726cb6cb,Cape Town,Atlantic Seaboard
66,,The Sidewalk Cafe,3699,Café,-33.93893301476184,18.42794219488249,4b7a67aef964a520f62b2fe3,Cape Town,Atlantic Seaboard
67,8001,Tribe Coffee,4347,Coffee Shop,-33.92727272520289,18.450634898426785,51695769e4b04fc89096589a,Cape Town,Atlantic Seaboard
68,8040,Vide E Caffe,5359,Coffee Shop,-33.95100649878029,18.37834274334316,4c6f96eadf6b8cfa3bb2b54d,Cape Town,Atlantic Seaboard
69,8005,Atlanticview Cape Town Boutique Hotel,5977,Hotel,-33.96012690220119,18.385684490203857,54d88f1b498eab400b766771,Cape Town,Atlantic Seaboard
70,,Neighbourgoods Market,4958,Flea Market,-33.9274569558459,18.457826180599668,4e550332636510eb2e0e0683,Cape Town,Atlantic Seaboard
71,7925,Saucisse Deli,4883,Deli / Bodega,-33.927383554093446,18.456980966220513,4eae7baa9911d5c951b3cc06,Cape Town,Atlantic Seaboard
72,,Ocean Jewels,3950,Seafood Restaurant,-33.92697200076062,18.44598148752877,515eb609e4b08388f73c92c7,Cape Town,Atlantic Seaboard
73,,Devil's Peak Brewing Company (The Taproom),5492,Brewery,-33.93408429796424,18.460315591431804,51ebca525019fb668b6311d9,Cape Town,Atlantic Seaboard
74,,Raw and Roxy,4787,Vegetarian / Vegan Restaurant,-33.92742942619817,18.455821159554247,53be7f1a498ecfab3dd716f6,Cape Town,Atlantic Seaboard
75,,"Casa Woodstock, Casa Nostra Bar",4873,Bar,-33.92769135434862,18.456694050665305,4e16dafa8130977157798115,Cape Town,Atlantic Seaboard
76,,Beta Beach,6394,Beach,-33.9601060976156,18.374905067108077,4d04d6677d9ba35d5e226823,Cape Town,Atlantic Seaboard
77,,Newlands Forest,7789,Forest,-33.970869424576335,18.449845578052983,4bc1a989461576b04d387c32,Cape Town,Atlantic Seaboard
78,7925,1890 House Sushi,6502,Sushi Restaurant,-33.93920394799666,18.46938616433879,4b50cf03f964a520563327e3,Cape Town,Atlantic Seaboard
79,,Spar,3732,Grocery Store,-33.939172045822914,18.428155074247798,4bdc39bf3904a5938a3f4d9e,Cape Town,Atlantic Seaboard
80,,Gardener's Cottage,8067,Café,-33.97009824275582,18.45709964654482,4ba4d504f964a52020b938e3,Cape Town,Atlantic Seaboard
81,,Rhodes Memorial,6658,Monument / Landmark,-33.95250203886461,18.459084299518164,4b976addf964a520ef0235e3,Cape Town,Atlantic Seaboard
82,7700,Kirstenbosch Botanical Gardens,9054,Botanical Garden,-33.98845,18.433832,4b5acf4df964a520a7d528e3,Cape Town,Atlantic Seaboard
83,7700,Vineyard Hotel & Spa,8970,Hotel,-33.97889774917507,18.45864753172221,4b58b75ff964a520296728e3,Cape Town,Atlantic Seaboard
84,,Magica Roma,8909,Italian Restaurant,-33.94014855148352,18.497787490194014,4b97fb2ff964a520e12335e3,Cape Town,Atlantic Seaboard
85,7700,Baxter Theatre Centre,7752,Theater,-33.95685529195213,18.470461381924636,4b606099f964a5208fe229e3,Cape Town,Atlantic Seaboard
86,7700,Newlands Rugby Stadium,8737,Stadium,-33.970645947055424,18.468375432867685,4b8003f6f964a520e04a30e3,Cape Town,Atlantic Seaboard
87,,The Hussar Grill,7939,Steakhouse,-33.95913577409004,18.470667502960097,4baa6dbff964a52040693ae3,Cape Town,Atlantic Seaboard
88,,Fraiche Ayres,7733,Restaurant,-33.951087111351285,18.475908998902728,4d3ead046b3d236ab37d7464,Cape Town,Atlantic Seaboard
89,7700,PPC Newlands Cricket Ground,9026,Cricket Ground,-33.97364000769796,18.468891292223844,4b76e43ff964a520c0672ee3,Cape Town,Atlantic Seaboard
90,7700,Sports Science Institute of South Africa,8800,Athletics & Sports,-33.9718160897948,18.467723838115923,4b9773b7f964a520460435e3,Cape Town,Atlantic Seaboard
91,8005,The Twelve Apostles,9388,Hotel,-33.9835262,18.3589679,4bdd43946c1b95218e34ad0f,Cape Town,Atlantic Seaboard
92,7725,Rock Sushi Thai,8553,Sushi Restaurant,-33.971419,18.463961,4fff0248e4b02b4ef99aeaf4,Cape Town,Atlantic Seaboard
93,7700,Centenary Tree Canopy Walkway (Boomslang),9113,Scenic Lookout,-33.98971393494955,18.43036590802954,537f466c498ea5ac200c2f3a,Cape Town,Atlantic Seaboard
94,7700,Common Ground Cafe,8989,Coffee Shop,-33.958918134385584,18.485833059887966,4b613990f964a520680d2ae3,Cape Town,Atlantic Seaboard
95,7700,Barristers Restaurant,8729,Pub,-33.9760788026674,18.45916801747441,4b6166fbf964a52047122ae3,Cape Town,Atlantic Seaboard
96,7441,Crystal Towers Hotel And Spa,9264,Hotel,-33.89467847050529,18.507091694258406,4c8ad1491797236a5d646588,Cape Town,Atlantic Seaboard
97,7700,Myoga Restaurant,8962,Molecular Gastronomy Restaurant,-33.978947398597484,18.45837116337005,4beafcb262c0c928688ce1d4,Cape Town,Atlantic Seaboard
98,,Starke Ayres Garden Centre,7730,Garden Center,-33.95105627687584,18.475898429193837,4b8a2302f964a520836132e3,Cape Town,Atlantic Seaboard
99,,Milnerton Beach,7933,Beach,-33.881407379610735,18.487219285702455,4d03505a28926ea83fe664c2,Cape Town,Atlantic Seaboard
0,,The Hussar Grill,1286,Steakhouse,-33.91821399638579,18.548555093962158,567192bd498e3c1adca10f4c,Cape Town,Goodwood
1,,Ashley's,612,Diner,-33.91162392300551,18.552042018294113,4bf90e4c5ec320a1aea789d3,Cape Town,Goodwood
2,7441,Crystal Towers Hotel And Spa,4110,Hotel,-33.89467847050529,18.507091694258406,4c8ad1491797236a5d646588,Cape Town,Goodwood
3,7460,Texas Spur,1912,Steakhouse,-33.891906277329525,18.559759997712167,4d11d2d6f6f3721e71ac96e9,Cape Town,Goodwood
4,7441,Canal Walk Shopping Centre,3878,Shopping Mall,-33.89277543,18.5106671,4ca599d2931bb60ceb628be2,Cape Town,Goodwood
5,,"Glenwood Spar, Goodwood",1555,Convenience Store,-33.89672242189908,18.537333067165854,4b5c86adf964a520713429e3,Cape Town,Goodwood
6,7460,Fruit & Veg City Food Lover's Market,1788,Fruit & Vegetable Store,-33.89172124,18.55626222,4d3173dc98336dcbbc5118f0,Cape Town,Goodwood
7,7500,Pick 'n Pay,5058,Supermarket,-33.86557648309723,18.572547316620064,4c5c22a19b28d13aaedd5570,Cape Town,Goodwood
8,7441,Woolworths,3831,Clothing Store,-33.89445445563076,18.510398178868137,4b7c1c94f964a520977d2fe3,Cape Town,Goodwood
9,,Fives Futbol Canal Walk,3550,Soccer Field,-33.89510519018529,18.5133550687057,5274b47911d2619a97936664,Cape Town,Goodwood
10,7441,Virgin Active Health Club,4230,Gym,-33.894919,18.505619,4b4de455f964a52048da26e3,Cape Town,Goodwood
11,7441,Osumo,3887,Snack Place,-33.89402916225741,18.509947030717225,4b5aa96df964a520e1cf28e3,Cape Town,Goodwood
12,7441,Kauai,3849,Juice Bar,-33.89252585405254,18.511141627516945,4b640f83f964a520559d2ae3,Cape Town,Goodwood
13,7500,SPAR,4539,Grocery Store,-33.873954,18.578498,4c5c37b7fff99c74ea2f33d3,Cape Town,Goodwood
14,,Magica Roma,6034,Italian Restaurant,-33.94014855148352,18.497787490194014,4b97fb2ff964a520e12335e3,Cape Town,Goodwood
15,7441,Vida E Caffè,4279,Coffee Shop,-33.89313044054917,18.50581750555227,4e8315b70aaf371d66940735,Cape Town,Goodwood
16,7475,"City Lodge Hotel GrandWest, Cape Town",1435,Hotel,-33.91952133800158,18.547896915826016,4bc8eeeb762beee17bb73d38,Cape Town,Goodwood
17,7460,GrandWest Casino And Entertainment World,1211,Casino,-33.9175125,18.5480329,4b640d79f964a520089d2ae3,Cape Town,Goodwood
18,,Boston Coffee,6849,Coffee Shop,-33.89318606691485,18.62150184480991,54926e1f498e89679bdd2a49,Cape Town,Goodwood
19,7441,"Hirsch's, Milnerton",5948,Furniture / Home Store,-33.86542597855876,18.50822636470787,4f76f436e4b0d69368a4f1fa,Cape Town,Goodwood
20,,Greens,5097,Italian Restaurant,-33.86508531544863,18.57228084634829,4cd514f794848cfa1810e4b1,Cape Town,Goodwood
21,7463,Cafe Fino,1981,Restaurant,-33.89165199025316,18.56068865282671,4c552bab728920a15cbef083,Cape Town,Goodwood
22,7441,Spar,6491,Supermarket,-33.86252636594114,18.50326431433342,4c1215e3b2510f47bbf5c398,Cape Town,Goodwood
23,,Milnerton Beach,6377,Beach,-33.881407379610735,18.487219285702455,4d03505a28926ea83fe664c2,Cape Town,Goodwood
24,7460,Panarottis N1 City,1918,Italian Restaurant,-33.8919174626587,18.559914662670213,4cc1b6171da0a1cd89db9bc6,Cape Town,Goodwood
25,7460,Grand Arena,1046,Concert Hall,-33.91589885532377,18.54702737423955,4bca09a9937ca593bdf0a692,Cape Town,Goodwood
26,7925,Espresso Lab Microroasters,8819,Coffee Shop,-33.92737067543962,18.457009014445408,4ba9e287f964a520183c3ae3,Cape Town,Goodwood
27,7925,The Pot Luck Club & Gallery,8785,Tapas Restaurant,-33.927463,18.457429,4efe0f19e5faf2869a1156c1,Cape Town,Goodwood
28,7441,Milnerton Golf Club,6504,Golf Course,-33.875475232638976,18.489646911621094,4b4e096cf964a52022df26e3,Cape Town,Goodwood
29,7925,The Old Biscuit Mill,8787,Market,-33.92749713628417,18.457415051797437,4b5a3b1bf964a52013b628e3,Cape Town,Goodwood
30,7700,Common Ground Cafe,8249,Coffee Shop,-33.958918134385584,18.485833059887966,4b613990f964a520680d2ae3,Cape Town,Goodwood
31,,The Test Kitchen,8825,Restaurant,-33.927422678167645,18.45696173744514,4cf68fc8e308236ab6e3e6ac,Cape Town,Goodwood
32,,Pet world N1city,1728,Pet Store,-33.89187504482157,18.55485333016368,52cc21f7498e1d117375f115,Cape Town,Goodwood
33,,Ou Meul Bakkery,8607,Café,-33.87021614866072,18.631309514987937,535e1616498e6c5d20a1a50d,Cape Town,Goodwood
34,,Woolworths Food Welgemoed Forum,7357,Food & Drink Shop,-33.873952901088266,18.618354055896813,4c9a3b579c663704afe456fd,Cape Town,Goodwood
35,7441,Mike's Kitchen,5564,Steakhouse,-33.87908356722952,18.498939156201306,4cde713370bba1cd2a5160c4,Cape Town,Goodwood
36,,Plattekloof Hill,4049,Scenic Lookout,-33.88478598775065,18.584178742919338,4c4c6a7f712ac92874a64d6e,Cape Town,Goodwood
37,,Durbanville Hills Wine Estate,9245,Vineyard,-33.824714047473826,18.565417553766203,4be7bfe7e1b39521f22121c1,Cape Town,Goodwood
38,7441,"Sunset Beach, Cape Town, South Africa.",8387,Beach,-33.848755689381015,18.4911000516807,508cc33d8acae8b2f7b39cba,Cape Town,Goodwood
39,7530,Food Lover's Market,8869,Supermarket,-33.86715641,18.63250875,4b920d17f964a52018e533e3,Cape Town,Goodwood
40,7530,M-Kem,8208,Pharmacy,-33.88830814540221,18.635206236908818,4ba20672f964a520ffd637e3,Cape Town,Goodwood
41,7925,1890 House Sushi,8211,Sushi Restaurant,-33.93920394799666,18.46938616433879,4b50cf03f964a520563327e3,Cape Town,Goodwood
42,7915,Rosetta Roastery,9797,Coffee Shop,-33.92670585996497,18.445895047082622,4c77b3f16981bfb7de7a66e6,Cape Town,Goodwood
43,,Jerry's Burger Bar,8603,Burger Joint,-33.8714383391959,18.632033320080712,56740de3498e17815dc6b777,Cape Town,Goodwood
44,,Neighbourgoods Market,8749,Flea Market,-33.9274569558459,18.457826180599668,4e550332636510eb2e0e0683,Cape Town,Goodwood
45,7925,Woodstock Brewery,9106,Brewery,-33.92729377150171,18.453770970512487,57906662498ed25e200c17fd,Cape Town,Goodwood
46,7490,Vida e Caffè,8233,Coffee Shop,-33.96944494488608,18.596296692766956,4d43cea1bf61a1cded2c02ac,Cape Town,Goodwood
47,,Dale's Black Angus,6600,Steakhouse,-33.86181694908843,18.502439674374855,4ba65460f964a520fe4639e3,Cape Town,Goodwood
48,,Fraiche Ayres,8380,Restaurant,-33.951087111351285,18.475908998902728,4d3ead046b3d236ab37d7464,Cape Town,Goodwood
49,,Salisburys,9456,Deli / Bodega,-33.933360708670065,18.451980701512788,4ff0360ce4b0cf66726cb6cb,Cape Town,Goodwood
50,7500,Nando's,5033,Portuguese Restaurant,-33.8653561,18.5713068,4e08c3b114959022c89e7f19,Cape Town,Goodwood
51,,Vida E Caffè,8539,Café,-33.8800206224521,18.63583157110421,53884c6d498e39acdc8e2ea0,Cape Town,Goodwood
52,7925,Saucisse Deli,8822,Deli / Bodega,-33.927383554093446,18.456980966220513,4eae7baa9911d5c951b3cc06,Cape Town,Goodwood
53,7530,Virgin Active Health Club,8436,Gym,-33.87719041759904,18.63327861060014,4c41a7cb3735be9a23b218a4,Cape Town,Goodwood
54,,Devil's Peak Brewing Company (The Taproom),8756,Brewery,-33.93408429796424,18.460315591431804,51ebca525019fb668b6311d9,Cape Town,Goodwood
55,,Bunker Bar & Restaurant,7131,Bar,-33.84267461097129,18.552899779345044,4c94e032f7cfa1cdd3c0b715,Cape Town,Goodwood
56,8001,Col'Cacchio,8617,Pizza Place,-33.8702433912994,18.631449919945567,4dcd25eb3151a1df1e492bb8,Cape Town,Goodwood
57,,Orms Pro Photo Warehouse North,8490,Electronics Store,-33.882375076737276,18.63626648785036,4c9757097605199caf20c8a3,Cape Town,Goodwood
58,,Woodstock Foundry,9411,Event Space,-33.92699097754226,18.450274887434205,4fd5dcade4b02bbdc692ed95,Cape Town,Goodwood
59,,Exclusive Books,8346,Bookstore,-33.96983654996396,18.597848517084948,4d2e764bb97cb1f776d18f48,Cape Town,Goodwood
60,7500,Cattle Baron Grill House,4494,Steakhouse,-33.87438415378863,18.578369278223168,4c9b9f1e78ffa0933acf7675,Cape Town,Goodwood
61,,Woolworths,8675,Department Store,-33.87543188038071,18.635184907982232,4c7e63d1b53db1f7b1ce9f11,Cape Town,Goodwood
62,,Western Province Cricket Club,9649,Athletics & Sports,-33.973314276669406,18.48235027507474,4d048a2a347da1cd317a2c8f,Cape Town,Goodwood
63,8001,Tribe Coffee,9386,Coffee Shop,-33.92727272520289,18.450634898426785,51695769e4b04fc89096589a,Cape Town,Goodwood
64,,Starke Ayres Garden Centre,8379,Garden Center,-33.95105627687584,18.475898429193837,4b8a2302f964a520836132e3,Cape Town,Goodwood
65,7700,Baxter Theatre Centre,9168,Theater,-33.95685529195213,18.470461381924636,4b606099f964a5208fe229e3,Cape Town,Goodwood
66,,Bidvest Car Rental,8212,Rental Car Location,-33.969918910658954,18.594944382355937,5534e7b7498ea763a4acf25f,Cape Town,Goodwood
67,,Golden Dish Halaal Take Aways Gatesville,7033,Fast Food Restaurant,-33.96848524576277,18.533412477379233,4cc2e1aa01fb236a1db6a1ba,Cape Town,Goodwood
68,,The Hussar Grill,9310,Steakhouse,-33.95913577409004,18.470667502960097,4baa6dbff964a52040693ae3,Cape Town,Goodwood
69,7439,Killarney Race Track,9467,Racetrack,-33.823226491519684,18.529344843701054,4b8a6e75f964a520896c32e3,Cape Town,Goodwood
70,,Dunkin',1524,Donut Shop,-33.894818,18.55745,5801c3f1d67ce46c9aeaf7cc,Cape Town,Goodwood
71,7490,Cape Town International Airport (CPT) (Cape Town International Airport),8148,Airport,-33.96831338695452,18.596742153167725,4b43b87bf964a52090e725e3,Cape Town,Goodwood
72,,Tygerberg hill,6002,Scenic Lookout,-33.889035792645,18.610560895385028,4f2252cbe4b083187463a574,Cape Town,Goodwood
73,7530,The Hussar Grill,8552,Steakhouse,-33.871559155849695,18.631494164475622,4c14b2afa1010f4796d54c18,Cape Town,Goodwood
74,,Parow Golf Club,2515,Golf Course,-33.896177373299714,18.573283958702145,4d26b83d342d6dcb5678e6ca,Cape Town,Goodwood
75,,"Casa Woodstock, Casa Nostra Bar",8857,Bar,-33.92769135434862,18.456694050665305,4e16dafa8130977157798115,Cape Town,Goodwood
76,,Raw and Roxy,8927,Vegetarian / Vegan Restaurant,-33.92742942619817,18.455821159554247,53be7f1a498ecfab3dd716f6,Cape Town,Goodwood
77,7441,Cedar SPAR,4610,Convenience Store,-33.86695837429807,18.534968891557945,4da381462939b1f7edb81f57,Cape Town,Goodwood
78,,Limnos Bakery,8377,Bakery,-33.88292471301843,18.635199240909177,4ba85f7bf964a52079d839e3,Cape Town,Goodwood
79,,Arugula Bistro & Bread,7370,Restaurant,-33.8739241137782,18.61848919084369,4f7ea198e4b077c1807d3e4f,Cape Town,Goodwood
80,,Barnyard Theatre,8656,Theater,-33.869612720588414,18.631518900102332,4bf2dd43e5eba593a9e51d90,Cape Town,Goodwood
81,,Grand West Hotel,733,Hotel,-33.91245982452779,18.545374395145846,4cea99ce948f224bc05efc5d,Cape Town,Goodwood
82,,De Oude Welgemoed Restaurant,7336,Pizza Place,-33.87043028504159,18.615483843164842,4e7d7dd69a521ffdaa4e03ea,Cape Town,Goodwood
83,,Mama's Kitchen,2132,Chinese Restaurant,-33.887638646505884,18.551809607999136,4d8b311fd93059410ef0dd69,Cape Town,Goodwood
84,7530,Vida e Caffè,8616,Coffee Shop,-33.87021238718739,18.631425073283964,4b73c2acf964a520eaba2de3,Cape Town,Goodwood
85,,Woolworths Food,5016,Grocery Store,-33.86590089943587,18.57229471818825,4da9ae7c93a04642f06c0c91,Cape Town,Goodwood
86,,Rhodes Memorial,9760,Monument / Landmark,-33.95250203886461,18.459084299518164,4b976addf964a520ef0235e3,Cape Town,Goodwood
87,,Checkers,7318,Supermarket,-33.84103854760453,18.544521013495704,4d404c9faae1b1f7d89f85f5,Cape Town,Goodwood
88,7441,Makro,7050,Warehouse Store,-33.84691203,18.52387319,4c53f8af30f92d7ff40ca9b9,Cape Town,Goodwood
89,7460,The Ice Station,1159,Skating Rink,-33.91697604194543,18.547345529090446,4c096f35ffb8c9b6d7e96961,Cape Town,Goodwood
90,,Willowbridge Shopping Centre,8614,Shopping Mall,-33.87052642449106,18.63159260952991,4b827722f964a52008d430e3,Cape Town,Goodwood
91,,MVG lounge Grand West,1209,Casino,-33.91752779464613,18.54922339966318,4e0f658bd4c0f6d6b403c41f,Cape Town,Goodwood
92,7500,Plattekloof Village,5048,Shopping Mall,-33.86550518109846,18.57210157785989,4bf844d7c07c9c74cccfbbef,Cape Town,Goodwood
93,,Ocean Jewels,9796,Seafood Restaurant,-33.92697200076062,18.44598148752877,515eb609e4b08388f73c92c7,Cape Town,Goodwood
94,7460,Silver Dollar Spur,1121,Breakfast Spot,-33.916542058020305,18.546739832157595,4da872fe81541df437bd1d8b,Cape Town,Goodwood
95,,Yuz Sushi,8527,Sushi Restaurant,-33.88008035580786,18.635715593392188,4dc19693b0fb1c18ee67094d,Cape Town,Goodwood
96,,Vida E Caffe,8685,Coffee Shop,-33.87467483208203,18.634894570475733,4f45ee72e4b07d8af2efc171,Cape Town,Goodwood
97,7530,Mugg & Bean,8822,Coffee Shop,-33.872795,18.635484,4ba7a4cef964a52081a539e3,Cape Town,Goodwood
98,8001,Hotel Verde,8441,Hotel,-33.97363377690457,18.592063833655832,50ffb5f9e4b063786621a304,Cape Town,Goodwood
99,,knead,4195,Coffee Shop,-33.87616,18.575821,572c477f498e0122ce87b8bc,Cape Town,Goodwood
0,7560,Panda's Chinese Restaurant & Takeaway,1238,Chinese Restaurant,-33.883005376249976,18.71339979497272,4c56f7827329c928f1bd8d80,Cape Town,Brackenfell
1,7357,SPAR Vredekloof,3121,Convenience Store,-33.85910914,18.68242682,4e873445b634c60eee3f5178,Cape Town,Brackenfell
2,,IMAX,3429,Multiplex,-33.85234358648886,18.697125080276752,5497085c498e9c88a8273b51,Cape Town,Brackenfell
3,,Virgin Active Health Club,3746,Gym,-33.84982643441175,18.69355802745639,4c5459c71b46c9b65be171ce,Cape Town,Brackenfell
4,,Pick n Pay Hypermarket,1223,Shopping Mall,-33.883470291100515,18.68676670197481,4cbab08ebac93704636fed7c,Cape Town,Brackenfell
5,7560,Woolworths Cape Gate,3382,Department Store,-33.85282412048405,18.696314967231444,4bd68b36cfa7b71326c827da,Cape Town,Brackenfell
6,,Glen Garry Shopping Centre,3904,Shopping Mall,-33.856768467010056,18.672027477890293,4d7e10fe9df3f04d7b61bd94,Cape Town,Brackenfell
7,,Woolworths Food,3897,Grocery Store,-33.856709034831155,18.67222186215664,4cd039c648b837047a1cf1de,Cape Town,Brackenfell
8,,Ou Meul Bakkery,6507,Café,-33.87021614866072,18.631309514987937,535e1616498e6c5d20a1a50d,Cape Town,Brackenfell
9,7530,Food Lover's Market,6483,Supermarket,-33.86715641,18.63250875,4b920d17f964a52018e533e3,Cape Town,Brackenfell
10,7530,M-Kem,6016,Pharmacy,-33.88830814540221,18.635206236908818,4ba20672f964a520ffd637e3,Cape Town,Brackenfell
11,,Vida E Caffè,5939,Café,-33.8800206224521,18.63583157110421,53884c6d498e39acdc8e2ea0,Cape Town,Brackenfell
12,,Jerry's Burger Bar,6413,Burger Joint,-33.8714383391959,18.632033320080712,56740de3498e17815dc6b777,Cape Town,Brackenfell
13,,Orms Pro Photo Warehouse North,5890,Electronics Store,-33.882375076737276,18.63626648785036,4c9757097605199caf20c8a3,Cape Town,Brackenfell
14,7580,Zevenwacht Wine Estate,5823,Winery,-33.93019289414788,18.72733421495576,4b739659f964a52013b52de3,Cape Town,Brackenfell
15,,Boston Coffee,7341,Coffee Shop,-33.89318606691485,18.62150184480991,54926e1f498e89679bdd2a49,Cape Town,Brackenfell
16,,Woolworths,6049,Department Store,-33.87543188038071,18.635184907982232,4c7e63d1b53db1f7b1ce9f11,Cape Town,Brackenfell
17,7530,Virgin Active Health Club,6200,Gym,-33.87719041759904,18.63327861060014,4c41a7cb3735be9a23b218a4,Cape Town,Brackenfell
18,,Jordan Restaurant,7892,Restaurant,-33.94307577021469,18.7454866992263,4fca0767e4b010c6fca5961c,Cape Town,Brackenfell
19,,Schoongezicht Restaurant,1889,Restaurant,-33.89551347506501,18.713881203158177,4d7bd13bda568cfa320959ff,Cape Town,Brackenfell
20,8001,Col'Cacchio,6494,Pizza Place,-33.8702433912994,18.631449919945567,4dcd25eb3151a1df1e492bb8,Cape Town,Brackenfell
21,,The Olive Bistro,7293,Gastropub,-33.83118824137428,18.651800219788324,509631b1e4b0cb1b32536eb7,Cape Town,Brackenfell
22,,Jordan Wine Estate,7879,Vineyard,-33.94296564286038,18.74542141212019,4cc2cf0d8062468888a02b2f,Cape Town,Brackenfell
23,7530,Burger Fair,5266,Fast Food Restaurant,-33.90377171056637,18.648757309119112,4c599205d3aee21ebf7d6855,Cape Town,Brackenfell
24,7550,Cattle Baron,7401,Steakhouse,-33.83008157677166,18.651610845286047,4c1de818b306c928534866b7,Cape Town,Brackenfell
25,7530,The Hussar Grill,6459,Steakhouse,-33.871559155849695,18.631494164475622,4c14b2afa1010f4796d54c18,Cape Town,Brackenfell
26,7550,Sonstraal Spar,5661,Department Store,-33.83644834721606,18.67549288424508,4ba266dcf964a5203ff537e3,Cape Town,Brackenfell
27,,Ocean Basket Glen Garry,3899,Seafood Restaurant,-33.857484402592135,18.671161490355473,4d0f8b9bd467236a46bdbe4a,Cape Town,Brackenfell
28,,Limnos Bakery,5988,Bakery,-33.88292471301843,18.635199240909177,4ba85f7bf964a52079d839e3,Cape Town,Brackenfell
29,,Sir Loin,3640,Steakhouse,-33.85073803372924,18.69395837879709,54bf7da7498ec4a8eb923636,Cape Town,Brackenfell
30,,Hartenberg,8666,Winery,-33.8979557529915,18.792058075051443,4c692a128d22c928dc6fb645,Cape Town,Brackenfell
31,,Dutch Haven,5748,Bistro,-33.86820249934682,18.64043011687884,5395908a498edbdef876c6f3,Cape Town,Brackenfell
32,,Makro,3896,Warehouse Store,-33.84838903943432,18.694167944790212,4fc8b163e4b03a05d4a5d3b7,Cape Town,Brackenfell
33,,Barnyard Theatre,6503,Theater,-33.869612720588414,18.631518900102332,4bf2dd43e5eba593a9e51d90,Cape Town,Brackenfell
34,,Woolworths Food Welgemoed Forum,7613,Food & Drink Shop,-33.873952901088266,18.618354055896813,4c9a3b579c663704afe456fd,Cape Town,Brackenfell
35,,Cape Gate Spar,3636,Supermarket,-33.85084756588376,18.693422068737316,4cebd46ff8653704e8fcc4c4,Cape Town,Brackenfell
36,7530,Mugg & Bean,6070,Coffee Shop,-33.872795,18.635484,4ba7a4cef964a52081a539e3,Cape Town,Brackenfell
37,7530,Vida e Caffè,6497,Coffee Shop,-33.87021238718739,18.631425073283964,4b73c2acf964a520eaba2de3,Cape Town,Brackenfell
38,7560,Capegate Shopping Centre,3572,Shopping Mall,-33.85126197,18.69472219,4dae8c71cda1ea0bb0406103,Cape Town,Brackenfell
39,,Yuz Sushi,5950,Sushi Restaurant,-33.88008035580786,18.635715593392188,4dc19693b0fb1c18ee67094d,Cape Town,Brackenfell
40,,Vida E Caffe,6088,Coffee Shop,-33.87467483208203,18.634894570475733,4f45ee72e4b07d8af2efc171,Cape Town,Brackenfell
41,,Willowbridge Shopping Centre,6474,Shopping Mall,-33.87052642449106,18.63159260952991,4b827722f964a52008d430e3,Cape Town,Brackenfell
42,7530,Exclusive Books,6223,Bookstore,-33.872596249011494,18.633854984543508,4cd6908f122ba1431d7e33a1,Cape Town,Brackenfell
43,7550,The Vineyard Deli,6554,Deli / Bodega,-33.86229975596597,18.63363076849041,4c7b79422d3ba143031394d0,Cape Town,Brackenfell
44,,Alberto's Restaurant and Pub,7889,Restaurant,-33.82647111693134,18.64860625666377,4be9a0a8a9900f479f8d1540,Cape Town,Brackenfell
45,,Wedgeview Country House and Spa Stellenbosch,9884,Bed & Breakfast,-33.948837251802594,18.77186674228229,4bd5d3209649ce7215af511d,Cape Town,Brackenfell
46,,Yang yangs,3429,Chinese Restaurant,-33.882451720499006,18.662901767670377,4dd69e367d8b322663db5ac3,Cape Town,Brackenfell
47,,Stodels Nursery,3396,Flower Shop,-33.87330488198107,18.665180904242263,4bb89d56b35776b0c709c901,Cape Town,Brackenfell
48,,Cape Garden Centre,6537,Garden Center,-33.8335186724196,18.73798439947587,4bb71344f562ef3b93013197,Cape Town,Brackenfell
49,,Die Boer,7453,Music Venue,-33.830183572547405,18.6505284571695,4c1b5218013795210ddb46f3,Cape Town,Brackenfell
50,7536,Cattle Baron Grill House,6335,Steakhouse,-33.87873,18.63165,4daf12894df0f639f2595242,Cape Town,Brackenfell
51,7530,Tyger Waterfront,6562,Office,-33.876702988162556,18.629400662289278,4bcc70a80687ef3b5433dfcc,Cape Town,Brackenfell
52,,D's Speakeasy,7541,Pub,-33.83209368358392,18.646245724366526,4f0d6c0de4b01660dc7720d1,Cape Town,Brackenfell
53,,Villiera,9985,Vineyard,-33.83718288220095,18.792829647053036,4c331ba73896e21e666de990,Cape Town,Brackenfell
54,,Arugula Bistro & Bread,7601,Restaurant,-33.8739241137782,18.61848919084369,4f7ea198e4b077c1807d3e4f,Cape Town,Brackenfell
55,7550,"Ruslamere Guest House, Spa and Conference Centre",6834,Bed & Breakfast,-33.82957873326731,18.663676520312194,4bd74d5b304fce720d5833ab,Cape Town,Brackenfell
56,7550,Vida e café,7528,Café,-33.83064109948833,18.6485429499513,54a8ff61498ea66986616438,Cape Town,Brackenfell
57,7530,Tyger Valley Centre,6197,Shopping Mall,-33.8726891648905,18.634115104706325,4b45b6a9f964a5207f0f26e3,Cape Town,Brackenfell
58,,De Oude Welgemoed Restaurant,7936,Pizza Place,-33.87043028504159,18.615483843164842,4e7d7dd69a521ffdaa4e03ea,Cape Town,Brackenfell
59,,Yummy zone,5875,Sushi Restaurant,-33.87633671030918,18.636945057877476,4f47cbeae4b0683d4ec88271,Cape Town,Brackenfell
60,,Bossa Social Cafe & Bar,6623,Cocktail Bar,-33.875031632145934,18.628989754192688,514de7ace4b08621ab8d3b9f,Cape Town,Brackenfell
61,7551,Eat@Altydgedacht,8004,Restaurant,-33.847325908631674,18.624847393741074,4d1dc5e4f7a9a143cc2a139f,Cape Town,Brackenfell
62,,Checkers,4837,Convenience Store,-33.843976964481364,18.677121952643528,4c9164ccb641236abe4d8179,Cape Town,Brackenfell
63,,Copper Club Eatery,6495,Burger Joint,-33.876739501953125,18.6301326751709,564dfed8498ee48b0efd5236,Cape Town,Brackenfell
64,,Woolworths Palm Grove,7303,Grocery Store,-33.83378313206032,18.647833639496014,4be1a45542e8c928fa783406,Cape Town,Brackenfell
65,7530,Silver Spur,6560,Breakfast Spot,-33.8923636547782,18.629902200687045,4d4c48201ae437042ceef260,Cape Town,Brackenfell
66,,Tygerberg hill,8291,Scenic Lookout,-33.889035792645,18.610560895385028,4f2252cbe4b083187463a574,Cape Town,Brackenfell
67,,Pick 'n Pay,6119,Grocery Store,-33.873319535551154,18.63482902784354,4d5944ebfe7c224b902276b5,Cape Town,Brackenfell
68,,Bossa Nova,7575,American Restaurant,-33.82946538513488,18.64949452333092,4d6bccaa87b9548100cdc5dd,Cape Town,Brackenfell
69,7603,Polkadraai Strawberry Farm,9703,Farmers Market,-33.96238076405253,18.743561489782426,4b9defc0f964a5206ec336e3,Cape Town,Brackenfell
70,7550,Durbanville Golf Course,6534,Golf Course,-33.83495857600362,18.659472011023176,4b8d6233f964a5207cf832e3,Cape Town,Brackenfell
71,,D'Aria Wine Farm,9552,Winery,-33.841377373098695,18.609662131179853,4c5ff1df12e5c92872fd1d4c,Cape Town,Brackenfell
72,,Checkers,6570,Grocery Store,-33.86784230906674,18.631309359614175,4c7cf12faa3ba093c0faab74,Cape Town,Brackenfell
73,,Soet,7531,Café,-33.83061660787478,18.648525552691485,4f87eaa7e4b05ae887639584,Cape Town,Brackenfell
74,7550,Silver Creek Spur,7419,Breakfast Spot,-33.83266883428387,18.6474581940829,4c45cc57f799e21eaab0afa2,Cape Town,Brackenfell
75,7570,Checkers Okavango Crossing,4895,Supermarket,-33.83924361063571,18.695421621626735,598895e6e96d0c565386bffc,Cape Town,Brackenfell
76,,Bamboo Garden Restaurant,6534,Restaurant,-33.833485,18.737852,4ee352322c5b5fc6cb42554c,Cape Town,Brackenfell
77,,Burger King,6221,Fast Food Restaurant,-33.8725596386889,18.633881763727175,51bb5519498e92fc734b7166,Cape Town,Brackenfell
78,7551,SPAR,8419,Supermarket,-33.83348749,18.63121193,4c7bb25097028cfab98be1fe,Cape Town,Brackenfell
79,7357,SPAR,1302,Grocery Store,-33.88247348,18.71408198,4c4db6f092b6a593e1a6ba6e,Cape Town,Brackenfell
80,,Slug And Lettuce,7471,Steakhouse,-33.83292198978405,18.646268665951144,5256f5a211d2857ca3662556,Cape Town,Brackenfell
81,,Pinehurst Centre,5768,Convenience Store,-33.832757753000315,18.685008574072572,52dbab3b498e836131d0640d,Cape Town,Brackenfell
82,7570,Bugz Kiddies Playpark,6504,Playground,-33.83320373854146,18.73670029929911,4ba75f93f964a520e68e39e3,Cape Town,Brackenfell
83,7550,Virgin Active Health Club,7527,Gym,-33.831549399923496,18.64723235867574,4d13181affa1224b3ff59dad,Cape Town,Brackenfell
84,,Cobble Walk,4831,Shopping Mall,-33.84392872937349,18.677382931754114,4b587e2af964a5205e5a28e3,Cape Town,Brackenfell
85,7550,Bella Bellota Durbanville,7559,Sports Bar,-33.82953206671463,18.649671840572978,4edcf3987ee5e8e3e9db39a7,Cape Town,Brackenfell
86,,"Ocean Basket, Zewenwacht Mall",7416,Seafood Restaurant,-33.9496013829661,18.69612750842738,4c6912f45be8d13ab8e1617a,Cape Town,Brackenfell
87,,Ocean Basket Glengarry Shopping Centre,4470,Seafood Restaurant,-33.84909,18.67419,4e479d6daeb70e74f4a45ba3,Cape Town,Brackenfell
88,7538,Tygerberg Nature Reserve,9370,Other Great Outdoors,-33.87621300146079,18.598946713553726,4d0def263bbaa1431efa3fda,Cape Town,Brackenfell
89,7500,Ster Kinekor,9701,Multiplex,-33.906656928348724,18.598932217809185,4d92029656a3f04d580ef041,Cape Town,Brackenfell
90,7652,Cape Gate Superspar,3652,Department Store,-33.850725,18.693254,4d189fdfb15cb1f7d695bc21,Cape Town,Brackenfell
91,,Woolworths,9577,Grocery Store,-33.904508995805536,18.59962447111579,4d529efb9d493704d45dda39,Cape Town,Brackenfell
92,7530,Poplars Restaurant,9618,Restaurant,-33.84091089468405,18.609162331567475,4b5163d8f964a520504c27e3,Cape Town,Brackenfell
93,7579,Zevenwacht Mall,7365,Shopping Mall,-33.949138323842014,18.69609850928539,4c81f8ae47cc224bbda2819f,Cape Town,Brackenfell
94,7579,Coyote Spur,7349,Steakhouse,-33.949016764715815,18.696619439673952,4d35568698336dcba75940f0,Cape Town,Brackenfell
95,7580,Hazendal Wine Estate,2679,Winery,-33.90089606783503,18.719472543187276,4d6229b229ef236adbecb859,Cape Town,Brackenfell
96,7550,Checkers Durbanville,7549,Grocery Store,-33.83094287365553,18.647743287291053,4d1ca104c17ff04d1230c841,Cape Town,Brackenfell
97,,Devonvale Golf And Wine Estate,9596,Golf Course,-33.88322729037265,18.803840193988343,4be1a88a8dd062b594733e3c,Cape Town,Brackenfell
98,,Chocolat Café Decor,7594,Coffee Shop,-33.83042095098909,18.647732299566467,4bcec422cc8cd13aecd1c4cf,Cape Town,Brackenfell
99,7536,SPAR,8473,Grocery Store,-33.85882545,18.61309352,4d84b3535e70224b11c91109,Cape Town,Brackenfell
0,,The Lighthouse Cafe,175,Café,-34.193163993654586,18.43135689901424,514d8bffe4b091940a1725ea,Cape Town,Simons Town
1,,Monocle & Mermaid,21,Café,-34.193270586211405,18.433466871660144,545e3eca498e7ab0f02e0435,Cape Town,Simons Town
2,,Boulders Beach Penguin Colony,1458,Nature Preserve,-34.195546333030784,18.448848691874005,53d51cb2498ecbe059fa78ff,Cape Town,Simons Town
3,,Boulders Visitor Centre,1518,National Park,-34.19579104287583,18.449448564624124,4db95b8a0437609120ffe738,Cape Town,Simons Town
4,,The Sweetest Thing,249,Café,-34.19317047351982,18.430551826674225,4bbb4de63db7b713a626249a,Cape Town,Simons Town
5,,Saveur Restaurant,85,Seafood Restaurant,-34.19291152621334,18.432391332695282,54ad0e2b498ed6d6c86153cc,Cape Town,Simons Town
6,,Scratch Patch & Mineral World,2504,Jewelry Store,-34.171470206138544,18.4261517651053,4b769cdbf964a52079542ee3,Cape Town,Simons Town
7,,Fish Hoek Beach,6241,Beach,-34.13711698645851,18.43428611755371,4b6d405af964a5209f6d2ce3,Cape Town,Simons Town
8,7975,Misty Cliffs,6507,Beach,-34.18558,18.363195,4d0b289e5f86f04df35ccaa0,Cape Town,Simons Town
9,7975,Whole Earth Café,5475,Coffee Shop,-34.195824,18.373886,56c4559bcd10703f0af4a35b,Cape Town,Simons Town
10,,The Meeting Place,116,Café,-34.19325413010905,18.43200765819856,4baf22c5f964a52011ed3be3,Cape Town,Simons Town
11,7975,Scarborough Beach,5689,Beach,-34.200231793710266,18.372058868408203,4d9dc7287509b1f7198c48a0,Cape Town,Simons Town
12,,The Hub Café,5379,Coffee Shop,-34.196884,18.37501,511f71b2e4b093807a2caa12,Cape Town,Simons Town
13,,Cafe Penguino,1295,Café,-34.1949229059806,18.447179133720603,4dbabba55da389d2c24222f7,Cape Town,Simons Town
14,,Harbour House,7210,Seafood Restaurant,-34.12976088091904,18.449190503592668,4b8d3f85f964a520beef32e3,Cape Town,Simons Town
15,7975,Fish Hoek Fisheries,6336,Seafood Restaurant,-34.13626448054778,18.432016968727112,4c4f15abdb2c20a15b4d7875,Cape Town,Simons Town
16,,St James Beach,8595,Beach,-34.11895264257002,18.45895678725493,4bc1802c461576b0bd197c32,Cape Town,Simons Town
17,,Clovelly Country Club,7894,Golf Course,-34.12240533754671,18.427856241487753,4c43fec7f0bdd13acdffc8cc,Cape Town,Simons Town
18,7975,Simonstown Country Club,2094,Golf Course,-34.201633782131665,18.453583926840274,4d22f441dd6a236a39c64b38,Cape Town,Simons Town
19,,Seaforth Restaurant,1292,Seafood Restaurant,-34.194252484070304,18.447247741595962,4ba6430cf964a520454039e3,Cape Town,Simons Town
20,7995,Jubilee Square,2,Plaza,-34.193203597618705,18.433258411874476,4d1b45f35acb721ed0f30cb2,Cape Town,Simons Town
21,7990,Olympia Café & Deli,7422,Café,-34.12763948370044,18.44809931608288,4bb5b6f7ef159c74defe74f7,Cape Town,Simons Town
22,7985,Blue Water Cafe,9468,Café,-34.14200249326332,18.351158119751712,4c2873ac9fb5d13adc899957,Cape Town,Simons Town
23,,The 2'6 Pence,201,Pub,-34.193157182109694,18.431073556333466,4d190352816af04d793e5ac2,Cape Town,Simons Town
24,,Imhoff Farm,9446,Farm,-34.1425613638341,18.3509427192012,4bc1dbbc461576b0a4657c32,Cape Town,Simons Town
25,7975,Bhandaris,5884,Indian Restaurant,-34.14038928605399,18.429946303367615,4d04555890762d43989ff18a,Cape Town,Simons Town
26,,Witsands Beach,7581,Surf Spot,-34.176804398835216,18.353351173429033,51333d0fe4b041d1d7791643,Cape Town,Simons Town
27,7975,Black Marlin Seafood Restaurant,5403,Seafood Restaurant,-34.230116190768314,18.471355912639773,4ba63d80f964a5204d3e39e3,Cape Town,Simons Town
28,,Kalk Bay Theatre,7743,Theater,-34.12513501360191,18.45071293308603,4e076806fa767637fd2aa43b,Cape Town,Simons Town
29,,Satori,7657,Italian Restaurant,-34.12583167270657,18.450174721957595,4bc0ca9aabf49521cce2bf93,Cape Town,Simons Town
30,7990,Live Bait,7233,Seafood Restaurant,-34.12957421200364,18.449310489892156,4c8cac9acf3ea143e55ff751,Cape Town,Simons Town
31,7975,Brass Bell,7641,Seafood Restaurant,-34.1260837751392,18.450760496894603,4b9a969df964a5200cc435e3,Cape Town,Simons Town
32,,Bootlegger Coffee Company Kalk Bay,7487,Coffee Shop,-34.12710187453033,18.44844990437463,56e6b34f498ea4e7695a6895,Cape Town,Simons Town
33,,Kalky's,7277,Fish & Chips Shop,-34.12909241881944,18.448862701973347,4c3c5b6a17f2ef3bb50281f4,Cape Town,Simons Town
34,,Dixie's,3197,Café,-34.16449661461802,18.431384784703965,4be5be7b8a8cb713716ac4a0,Cape Town,Simons Town
35,7975,Boulders Beach Lodge & Restaurant,1916,Restaurant,-34.198321704915266,18.45312604939727,4d08905e0ead8cfa454cf076,Cape Town,Simons Town
36,,Easy Dig Cafe,8379,Café,-34.13342134198026,18.377955495720176,4e41007a8877f7a2cf2ad407,Cape Town,Simons Town
37,,Lekker Kalk Bay,7605,Café,-34.1261992776905,18.44953582177628,5468ab48498e9e5bff922a03,Cape Town,Simons Town
38,7975,STOEP+SWING,3671,Pub,-34.16032670644627,18.429737091064453,4fccd8e07b0cbd800b0e87e4,Cape Town,Simons Town
39,7975,Glencairn Beach,3744,Beach,-34.159572091310196,18.431721925735474,4c8b95ec1556bfb751260293,Cape Town,Simons Town
40,,Casa labia,9624,Italian Restaurant,-34.11117971566934,18.466393148985166,4c3c49d27f49c9b64f9e6be3,Cape Town,Simons Town
41,,The Courtyard Café,7748,English Restaurant,-34.12511628813233,18.45087724236054,55d829bc498e9c6d184f7f21,Cape Town,Simons Town
42,,Stoked Backpackers,9894,Hostel,-34.109012104182455,18.46778422421026,50ed26ace4b009bc96318c6f,Cape Town,Simons Town
43,,Cape Point Ostrich Farm,6854,Farm,-34.25304115107526,18.45072075375613,4e22e0bd483b041af1fafc09,Cape Town,Simons Town
44,,Checkers - Sun Valley,8992,Convenience Store,-34.120989545467474,18.389463843043384,56791208498e05d5b379baad,Cape Town,Simons Town
45,,Virgin Active Sun Valley,8905,Gym / Fitness Center,-34.121833678901694,18.389535864597967,565981dd498e8316335be62c,Cape Town,Simons Town
46,7995,Shell,458,Gas Station,-34.19273559,18.42831778,50211180e4b05f2aebf5b7c4,Cape Town,Simons Town
47,7975,Food Lover's Market,8815,Fruit & Vegetable Store,-34.12373922435551,18.387258646073867,4fafb485c2ee519be3781d5d,Cape Town,Simons Town
48,,Boulders Beach,1616,Beach,-34.19637169478739,18.450390100479126,4b98f6f8f964a520f85835e3,Cape Town,Simons Town
49,,Glencairn,4030,Outdoors & Recreation,-34.15701512603394,18.431096486511873,4e564c431495eb38e205cf9f,Cape Town,Simons Town
50,7995,Salty Sea Dog,83,Seafood Restaurant,-34.19290297025501,18.432423161256683,4c5ff05190b2c9b6d2883b22,Cape Town,Simons Town
51,7975,Longbeach Mall,8728,Shopping Mall,-34.12407686,18.38848975,4b655967f964a52014ee2ae3,Cape Town,Simons Town
52,7975,Ocean Basket (Longbeach Mall),8841,Seafood Restaurant,-34.12368901949499,18.386778831481934,4c78ff0bdbaa76b0b446184b,Cape Town,Simons Town
53,,Sun Valley Mall,8780,Shopping Mall,-34.122237375949354,18.391602144031264,4f58b5a8e4b032fce6518966,Cape Town,Simons Town
54,7975,SPAR,6825,Grocery Store,-34.13270067,18.42109237,4c833b871b63b7130a629204,Cape Town,Simons Town
55,7995,Cafe Pescado,40,Italian Restaurant,-34.1934707511544,18.432994118030347,4ba3b8d7f964a5204b5838e3,Cape Town,Simons Town
56,,Quarterdeck Restaurant,40,Café,-34.19293419990403,18.433595773445433,4c4c26e2f7cc1b8dc692e540,Cape Town,Simons Town
57,,The HarbourView Coffee Shop,87,Coffee Shop,-34.19302131399117,18.432333091972755,4d19e19d85fc6dcb50dec04e,Cape Town,Simons Town
58,,JB's Ice Cream Parlor,80,Ice Cream Shop,-34.19327128970363,18.43240048609736,4f06c203e4b0e624d54e6c2a,Cape Town,Simons Town
59,7975,Woolworths,8735,Department Store,-34.12434152674115,18.387746136207994,4c78fe2cdbaa76b02dff174b,Cape Town,Simons Town
60,7975,Pick 'n Pay,8744,Grocery Store,-34.1240977,18.38807895,4c790136dbaa76b0484d184b,Cape Town,Simons Town
61,,Ostrich Farm,6856,Farm,-34.25305322979885,18.450738141375346,4b8bb0f8f964a52038a732e3,Cape Town,Simons Town
62,,Camel Rock,5369,Seafood Restaurant,-34.19712564054259,18.37514262451436,4dbeaf8a1e72b351cae64a9b,Cape Town,Simons Town
63,,Seaforth Beach,1265,Beach,-34.19433477134873,18.44694186528226,5055aa13e4b0e5434d33b0a0,Cape Town,Simons Town
64,,Burgher's Walk,1962,Trail,-34.19827182668759,18.453676661587604,52f38227498e5c091225a308,Cape Town,Simons Town
65,7975,Top of Red Hill Lookout Point,2068,Scenic Lookout,-34.179518296820696,18.41804265975952,4e3819aee4cdedd4a1b82b14,Cape Town,Simons Town
66,,Cape Farmhouse Restaurant,2643,Restaurant,-34.2054443023076,18.408680060827173,4ba4cb20f964a52064b538e3,Cape Town,Simons Town
67,,KFC,8794,Fast Food Restaurant,-34.12249656517485,18.390628606949466,4ee8d0906c25eda5a78f4e3f,Cape Town,Simons Town
68,7975,Mugg & Bean,8816,Coffee Shop,-34.123698206072504,18.387333356251144,4b8a4733f964a520c26632e3,Cape Town,Simons Town
69,,Miller's Point,5808,National Park,-34.231564,18.476006,572b1867498ed38838498559,Cape Town,Simons Town
70,7975,McDonald's,8752,Fast Food Restaurant,-34.12296733076661,18.390495500929376,4c66d3d5e1da1b8d520e9cc3,Cape Town,Simons Town
71,7975,Michigan Spur,8821,Breakfast Spot,-34.123694477147595,18.387222352971076,4b59c980f964a520019828e3,Cape Town,Simons Town
72,,Entrance Gate - Cape of Good Hope,7938,Toll Booth,-34.26151270129497,18.457935792914284,4eab94b0722efacf27d90b54,Cape Town,Simons Town
73,,Free range farm shop,9458,Deli / Bodega,-34.14247935885782,18.3508608579381,4cc2b055b2beb1f73b84114c,Cape Town,Simons Town
0,,Woolworths,161,Supermarket,-34.042990742696134,18.357395657275866,4cd81d427d454688bafae9ed,Cape Town,Hout Bay
1,,Hout Bay Beach,514,Beach,-34.04618111413202,18.359795589013345,4d170e38816af04d82b64cc2,Cape Town,Hout Bay
2,7806,Cheyne's,427,Mediterranean Restaurant,-34.04446461706228,18.359975213155252,517fff56e4b085cc8e56e30b,Cape Town,Hout Bay
3,,Hout Bay Coffee,309,Coffee Shop,-34.04295135647409,18.358995973031814,54bcf32a498e5ac87c42eb86,Cape Town,Hout Bay
4,7806,Mariner's Wharf,825,Harbor / Marina,-34.04748079252889,18.34842972434071,4d1477cbbb488cfaed3097d4,Cape Town,Hout Bay
5,7806,Bay Harbour Market,1557,Flea Market,-34.05525097147891,18.347278658118217,4e0ee364e4cd27fc7d3415c9,Cape Town,Hout Bay
6,7806,La Cuccina,1450,Deli / Bodega,-34.0305758981012,18.351263645055845,4b73ed1ef964a52061c02de3,Cape Town,Hout Bay
7,,Urban Brewing Co.,1535,Brewery,-34.05494,18.347109,56dac33fcd102abc30af33f9,Cape Town,Hout Bay
8,,The Wharfside Grill,819,Seafood Restaurant,-34.0474072683435,18.348444593821945,4d0cbcaa8010548114331a96,Cape Town,Hout Bay
9,7872,Chapman’s Peak View Point,3846,Scenic Lookout,-34.0776385285169,18.356480598449703,4ba4c2bcf964a52082b238e3,Cape Town,Hout Bay
10,7806,Hout Bay Craft Market,450,Arts & Crafts Store,-34.0424896920421,18.360471725463867,4ba5e990f964a520f32839e3,Cape Town,Hout Bay
11,,Posticino Ristorante Hout Bay,696,Italian Restaurant,-34.0466336096008,18.361875758350227,52a8c1ef11d25bb03486a1f8,Cape Town,Hout Bay
12,,Pakalolo,701,Restaurant,-34.046470126431586,18.362060332083125,4b9246aaf964a52086ef33e3,Cape Town,Hout Bay
13,,Llandudno Beach,4111,Beach,-34.008131170950485,18.341288566589355,4b8fda16f964a5208f6533e3,Cape Town,Hout Bay
14,7806,Tintswalo Atlantic,2685,Hotel,-34.06487215178444,18.36817502975464,4bd8b2452ecdce72e8ecd0f2,Cape Town,Hout Bay
15,7872,Chapman’s Peak Drive,3874,Road,-34.07773,18.359758,4ba21ffff964a5207bdd37e3,Cape Town,Hout Bay
16,7806,World of Birds,2905,Zoo,-34.017581351138745,18.362290257592136,4b93d821f964a520bb5434e3,Cape Town,Hout Bay
17,7806,Casareccio,616,Italian Restaurant,-34.04585538508249,18.361440740525723,4b633d3ef964a520cb6c2ae3,Cape Town,Hout Bay
18,7806,Chapmans Peak Hotel,705,Hotel,-34.046943236781225,18.361717746156163,4b656e3af964a5205ef02ae3,Cape Town,Hout Bay
19,,Hout Bay Manor,469,Hotel Bar,-34.043131309400664,18.36073427108847,4b9cc27cf964a520337a36e3,Cape Town,Hout Bay
20,8000,Constantia Nek,5774,Trail,-34.01197422977392,18.405724540516747,4dfc5de145ddebdfeaaa520f,Cape Town,Hout Bay
21,,Dario's,454,Italian Restaurant,-34.04351904415244,18.35073936915457,4b63e77ef964a52075962ae3,Cape Town,Hout Bay
22,7806,Dunes,374,Seafood Restaurant,-34.045606579953535,18.358335754108964,4b9ba93df964a520c31736e3,Cape Town,Hout Bay
23,7806,La Colombe at Silvermist,5393,French Restaurant,-34.015002015637265,18.403277080044173,4cdd82473f6a8cfa9b90f8ea,Cape Town,Hout Bay
24,7806,Sandy Bay,3128,Beach,-34.02363,18.331177,4ec7d29df5b9e88192ea65a9,Cape Town,Hout Bay
25,,Cape Point Vineyards,6368,Winery,-34.09390996592579,18.387361413973743,4c8b985252a98cfa044137e9,Cape Town,Hout Bay
26,,Beau Constantia,5715,Vineyard,-34.01368991788687,18.40643450696454,4ed330666c2510ace43b61bb,Cape Town,Hout Bay
27,8005,The Twelve Apostles,6637,Hotel,-33.9835262,18.3589679,4bdd43946c1b95218e34ad0f,Cape Town,Hout Bay
28,,Eagles Nest,6194,Vineyard,-34.01613573763241,18.414384507845693,4cc2ee5bbde8f04d3689a14b,Cape Town,Hout Bay
29,,La Parada,5735,Tapas Restaurant,-34.012250293743016,18.405437314475957,58023be4d67cadcef2aa974d,Cape Town,Hout Bay
30,,Noordhoek Farm Village,6367,Food & Drink Shop,-34.097280774538184,18.37775731916412,4c67a184e1da1b8d06b79ec3,Cape Town,Hout Bay
31,7848,Groot Constantia,6579,Vineyard,-34.02717850143701,18.42433830632882,4ba721b1f964a5204b8239e3,Cape Town,Hout Bay
32,South Africa,Klein Constantia,5316,Vineyard,-34.038674652783,18.413035210446868,4bdd4a8f645e0f47af3c6b19,Cape Town,Hout Bay
33,,Buitenverwachting,5615,Winery,-34.04179215550021,18.416503750809646,4bee8a4035dc0f475feb3f5b,Cape Town,Hout Bay
34,7806,Chefs Warehouse & Canteen @ Beau Constantia,5727,Restaurant,-34.013785,18.406667,5876106c0b56563fd330cf6f,Cape Town,Hout Bay
35,7979,Foodbarn Bakery & Deli,6369,Café,-34.09717281206906,18.378222276431988,4b77181af964a520bd7c2ee3,Cape Town,Hout Bay
36,,Steenberg Vineyards,7143,Vineyard,-34.075247202420954,18.422678380261956,4b77dab9f964a52072ac2ee3,Cape Town,Hout Bay
37,,Foxcroft,7162,Restaurant,-34.024477597523365,18.42996804626562,58133d5838facfbae3ffc781,Cape Town,Hout Bay
38,,Deli Delish,507,Deli / Bodega,-34.04559709869473,18.360247630701114,4b66cf2ff964a520ac2b2be3,Cape Town,Hout Bay
39,7806,Massimo's,3221,Italian Restaurant,-34.01920415372814,18.375360132716942,4be45c3bd4f7c9b6570a2420,Cape Town,Hout Bay
40,7800,Hout Bay Spar,563,Supermarket,-34.0405,18.3504,4ce7a966595cb1f722ebc314,Cape Town,Hout Bay
41,,The Leopard Bar,6659,Bar,-33.9833368426118,18.358957336805545,529a0307498e78bd638009a0,Cape Town,Hout Bay
42,,Trattoria Luigi,334,Italian Restaurant,-34.043694,18.359197,4b8e98caf964a520e92a33e3,Cape Town,Hout Bay
43,7975,Jakes On The Common,6188,Restaurant,-34.09691,18.372455,5a54a1efd0a149596b0833b1,Cape Town,Hout Bay
44,,Noordhoek Beach (Long Beach),7794,Beach,-34.11308368121179,18.353036642074585,4cbafea4352ebfb757c88df2,Cape Town,Hout Bay
45,,Fish On The Rocks,1516,Seafood Restaurant,-34.055132510946706,18.34796016357268,4c14c698a1010f4737ea4c18,Cape Town,Hout Bay
46,,Llandudno Lookout,4411,Scenic Lookout,-34.00427485966217,18.346036635315944,4d25c07519ff37047aa31070,Cape Town,Hout Bay
47,7945,Bistro Sixteen 82,7142,Tapas Restaurant,-34.075271470667516,18.422651677374514,4d2893d46e27a143577c1b24,Cape Town,Hout Bay
48,7806,The Cellars-Hohenort,8661,Hotel,-34.00117903608329,18.434744198604566,4bc77cee93bdeee1ad6f37ae,Cape Town,Hout Bay
49,,Constantia Uitsig Wine Farm,6537,Winery,-34.027325091779645,18.423910088816413,4cc95701bfe1f04d13280d75,Cape Town,Hout Bay
50,,Ragafellows,334,Steakhouse,-34.043785395112096,18.35916980243097,52b33531498eaff70f1be607,Cape Town,Hout Bay
51,,Steenberg Golf Estate,7167,Golf Course,-34.068601634885304,18.427004857749132,5346a0cd498ebf915b59e043,Cape Town,Hout Bay
52,7945,Cecilia Forest,8179,Trail,-33.99879273410581,18.426373151708557,4bf8fb03bb5176b0787e5bb2,Cape Town,Hout Bay
53,7700,Kirstenbosch Botanical Gardens,9436,Botanical Garden,-33.98845,18.433832,4b5acf4df964a520a7d528e3,Cape Town,Hout Bay
54,8060,Oudekraal Beach,6154,Beach,-33.988017338297325,18.34984108536447,4cf3f30ae9425481865b78c5,Cape Town,Hout Bay
55,8005,Ocean View House,9034,Bed & Breakfast,-33.96337761351537,18.374019399272196,4ba4b8dff964a52025af38e3,Cape Town,Hout Bay
56,,Chardonnay Deli,7274,Bakery,-34.0247225279904,18.43131671720546,56078ca9498e57199c66d34c,Cape Town,Hout Bay
57,8005,Atlanticview Cape Town Boutique Hotel,9642,Hotel,-33.96012690220119,18.385684490203857,54d88f1b498eab400b766771,Cape Town,Hout Bay
58,7700,Centenary Tree Canopy Walkway (Boomslang),9101,Scenic Lookout,-33.98971393494955,18.43036590802954,537f466c498ea5ac200c2f3a,Cape Town,Hout Bay
59,7945,Virgin Active Health Club,8829,Gym,-34.079491801424744,18.4407149297338,4b62d9e8f964a52082552ae3,Cape Town,Hout Bay
60,,Cafe Roux,6377,Café,-34.097369021847044,18.377776739166148,4bab53c2f964a520d0a03ae3,Cape Town,Hout Bay
61,7806,The Clay Cafe,3263,Café,-34.02095284985105,18.37883917921564,4bd42b1c046076b03f6f7771,Cape Town,Hout Bay
62,7806,Lookout Deck,1182,Seafood Restaurant,-34.050048745787876,18.34595097953561,4ba201a5f964a52013d637e3,Cape Town,Hout Bay
63,7800,The Greenhouse Restaurant,8569,Restaurant,-34.002616862777884,18.434650897979736,505acea716483cef8e2e990e,Cape Town,Hout Bay
64,,Jakes in the Village,7710,Restaurant,-34.07167544846586,18.431803543450386,4c3960d72c8020a141b28c00,Cape Town,Hout Bay
65,8000,Chilled Market at The Range,6039,Market,-34.04977719554031,18.420623209145997,4c0b405ca1b32d7f2fd79af0,Cape Town,Hout Bay
66,,Beta Beach,9407,Beach,-33.9601060976156,18.374905067108077,4d04d6677d9ba35d5e226823,Cape Town,Hout Bay
67,,Silvermine,7449,Trail,-34.08147414149445,18.421823743513997,4c4954166f1420a1d6337655,Cape Town,Hout Bay
68,7848,Jonkershuis Restaurant,5999,Restaurant,-34.03071406873821,18.41894095683067,4b76fcdbf964a520cb712ee3,Cape Town,Hout Bay
69,,Bakoven,9327,Beach,-33.96075595798668,18.374409195788264,4b8a5b87f964a520cb6932e3,Cape Town,Hout Bay
70,7945,Societi Brasserie,7563,French Restaurant,-34.06185059965357,18.434468829257106,4f608553e4b066d8c523ca36,Cape Town,Hout Bay
71,,Catharina's,7144,Restaurant,-34.071290523250276,18.42523647743298,4cc78765303476b08b47e16b,Cape Town,Hout Bay
72,7806,tashas,8496,Café,-34.021547130493666,18.443997138039865,4daaa4d7fa8cc764973a0d2d,Cape Town,Hout Bay
73,,Little Stream Constantia,5805,Breakfast Spot,-34.03742558328065,18.418208956718445,4e214e2718a88345f04a4270,Cape Town,Hout Bay
74,,The Village Roast,6322,Coffee Shop,-34.09691,18.377568,564da03a498ec6dcb47f1b53,Cape Town,Hout Bay
75,,Alphen Boutique Hotel,9399,Hotel,-34.0127536874346,18.450722800295225,4f155b83754a4f43c496f10d,Cape Town,Hout Bay
76,7947,Red! The Cafe,7758,Café,-34.073142012776664,18.43155546553403,4ca4c38cf832a1cd23dea8e5,Cape Town,Hout Bay
77,8005,Theatre On The Bay,10003,Theater,-33.955027483379716,18.377196341036598,4c48823a96abd13a82987401,Cape Town,Hout Bay
78,,The Hussar Grill,9163,Steakhouse,-33.96287124348644,18.377915549123507,4c06c9f83cbed13a72d60bc0,Cape Town,Hout Bay
79,,The Clubhouse (Claremont Cricket Club),9367,Restaurant,-34.01714214389348,18.45223927579875,51ce0afe498e39695aa1a142,Cape Town,Hout Bay
80,7806,Greenhouse Restaurant Constantia,8597,Modern European Restaurant,-34.001990256200216,18.434542176845472,4d54502d48ea6ea8490bc9a3,Cape Town,Hout Bay
81,7979,African Queen Guesthouse,7899,Bed & Breakfast,-34.110707,18.381667,4d16f67fbb64224b254fbd65,Cape Town,Hout Bay
82,7137,Mugg & Bean,9258,Coffee Shop,-34.06372284322648,18.452896706350316,4f79a0d5e4b0290a8d5f0e23,Cape Town,Hout Bay
83,7806,Engen,8476,Gas Station,-34.033625,18.446818,4c95d9d0f7cfa1cd2f46c115,Cape Town,Hout Bay
84,,5 Rooms,9427,Restaurant,-34.012628340655645,18.45098736401353,4f155d1c754a4f43c497231d,Cape Town,Hout Bay
85,,The Kirstenbosch Tea Room,9396,Café,-33.986906482406184,18.431649981846576,4ba75ab2f964a520b38d39e3,Cape Town,Hout Bay
86,,High Constantia Wine farm,6836,Winery,-34.025364617923074,18.42659337937037,4d493ba383eda1cdaa17a6b1,Cape Town,Hout Bay
87,,"Rose Bar, Alphen Hotel.",9392,Hotel Bar,-34.01285836164276,18.45068771729077,4eece0be0aaf1d45b13b7175,Cape Town,Hout Bay
88,7806,Food Lover's Market,9711,Grocery Store,-34.06308886,18.45814393,4eec8036e3002155925590fc,Cape Town,Hout Bay
89,,Woolworths,8590,Grocery Store,-34.0216929568688,18.445114243787696,4bd2cf71046076b0769f7471,Cape Town,Hout Bay
90,7975,The Toad,6391,Gastropub,-34.09741952075786,18.378090323759757,4c0b97296071a5931e6fe132,Cape Town,Hout Bay
91,7945,Bootlegger Coffee Company,7616,Coffee Shop,-34.06194260891006,18.43502667391246,5801d52d38fab67ef433b6da,Cape Town,Hout Bay
92,7800,Constantia Village Shopping Centre,8573,Shopping Mall,-34.0215593808089,18.44487856327051,4b8fd7a9f964a520076533e3,Cape Town,Hout Bay
93,7806,Virgin Active Health Club,9233,Gym,-34.018676095908376,18.451303488767806,4b4c2e53f964a52057af26e3,Cape Town,Hout Bay
94,7945,Italian Kitchen,9516,Italian Restaurant,-34.06564341054294,18.455176939383563,4cb341fcc939721ecd94b69e,Cape Town,Hout Bay
95,,Vida E Caffè,7727,Coffee Shop,-34.07191095429251,18.4318781202244,4de0bd22d164e323c7b3bcc8,Cape Town,Hout Bay
96,,The Hussar Grill,7780,Steakhouse,-34.072764591885225,18.432034723794146,500bd8dae4b0938453816dd2,Cape Town,Hout Bay
97,,Col'Cacchio,8649,Pizza Place,-34.07975739111847,18.43834295157505,4fcc6654e4b0ff719b4052a0,Cape Town,Hout Bay
98,,Monkey Valley Beach Nature Resort,5977,Resort,-34.09673324082768,18.35864160047971,4bcf6d9f0ffdce72fa77b2c0,Cape Town,Hout Bay
99,7979,The Red Herring,6206,Seafood Restaurant,-34.09846078017669,18.363597472331122,4b487cc3f964a5202a4e26e3,Cape Town,Hout Bay
0,8051,Green Point Urban Park,375,Park,-33.90555738278987,18.40221851536896,4d9dc1d6c593a1cdef2b6719,Cape Town,Green Point
1,,Giovanni's Deliworld,527,Bakery,-33.90782184808231,18.409727517755517,4b51863af964a520ed4e27e3,Cape Town,Green Point
2,8051,Jason Bakery,627,Bakery,-33.90814555679022,18.410891348801574,5a2cf00b35f9833b4ce7d183,Cape Town,Green Point
3,,Watershed,1170,Market,-33.907116168436936,18.41816228150922,54429072498e71ae5f3585e7,Cape Town,Green Point
4,8001,One&Only Cape Town,1086,Resort,-33.908668541891046,18.416461381779996,4b700ea8f964a52041052de3,Cape Town,Green Point
5,,Queen Victoria Hotel,1200,Hotel,-33.906414832225394,18.41869917650755,4db467ca6a23c31a0316b57b,Cape Town,Green Point
6,8000,Victoria Wharf,1351,Shopping Mall,-33.90361868916433,18.42057466506958,518d2e42498e2a0a96297fb0,Cape Town,Green Point
7,,Signal Hill,1555,Hill,-33.91790703224613,18.402374981837013,4b5c6f27f964a520a72f29e3,Cape Town,Green Point
8,8001,Coco Safar,1264,Café,-33.910444433451154,18.39448981377906,5a5f2e9bdd70c55eccf59824,Cape Town,Green Point
9,8005,Sea Point Beach Promenade,1617,Trail,-33.91029694340421,18.390040397644043,4b7657bff964a520ef482ee3,Cape Town,Green Point
10,8001,V&A Waterfront,1300,Waterfront,-33.90462006045022,18.42003876929211,4b43b4bff964a52014e725e3,Cape Town,Green Point
11,,Cooked,1174,Coffee Shop,-33.907122797849084,18.41820533520213,566da475498ed2e93de35c6c,Cape Town,Green Point
12,,Cape Town Waterfront,1456,Waterfront,-33.90256792953086,18.4216046333313,53b95629498e28001d79d8de,Cape Town,Green Point
13,8002,Nespresso Boutique,1293,Coffee Shop,-33.90400574458095,18.4199671423334,4c3df4c5b8b4be9aab74cbef,Cape Town,Green Point
14,8005,Pigalle,1404,Seafood Restaurant,-33.913161220900925,18.4167439564029,4bc0aaf8abf495217098bf93,Cape Town,Green Point
15,8001,The Silo Hotel,1609,Hotel,-33.90851199761666,18.42262145365408,582334fb03399c2dc117d903,Cape Town,Green Point
16,,Willoughby & Co,1431,Seafood Restaurant,-33.90274474798387,18.421349961573604,4b4dd523f964a520e4d826e3,Cape Town,Green Point
17,,Glen Boutique Hotel,1909,Hotel,-33.916673287075184,18.39171484272647,4ba4bb57f964a52005b038e3,Cape Town,Green Point
18,,The Table Bay Hotel - Lounge,1512,Hotel,-33.903146643778044,18.42228120940016,4d1dffece56f6ea8359d601d,Cape Town,Green Point
19,8005,Hotel 303,1494,Hotel,-33.912144,18.392876,4d0397fadc45a0932703e5c6,Cape Town,Green Point
20,8000,The Gin Bar,2301,Cocktail Bar,-33.92273288691907,18.417150034224644,54d63408498e31d1e8e09e57,Cape Town,Green Point
21,8001,Skinny laMinx,2426,Furniture / Home Store,-33.924987260907464,18.4140944480896,502c9a5d067d5b50e0ba9eb8,Cape Town,Green Point
22,8000,Jason Bakery,2389,Bakery,-33.92453842563379,18.414449223651683,4d9580ed454edcb39969b76a,Cape Town,Green Point
23,8001,Aces 'n Spades,2305,Bar,-33.92138527642458,18.42000551633646,502e9348e4b047efecff0430,Cape Town,Green Point
24,8005,La Mouette,2853,French Restaurant,-33.92118767834148,18.382778418449398,4c829880dc018cfa83f3d06c,Cape Town,Green Point
25,8001,Kloof Street House,2738,African Restaurant,-33.92830450158452,18.412193932450084,54a88b5c498e72e47a96233f,Cape Town,Green Point
26,8000,Yourstruly,2456,Coffee Shop,-33.92431943340237,18.417055746248256,4cd50dac8e5b6a317f1b74ac,Cape Town,Green Point
27,8000,Artscape Theatre,2745,Theater,-33.919537048903365,18.429297381456607,4b5342ebf964a520b69427e3,Cape Town,Green Point
28,,Virgin Active Foreshore,2739,Gym / Fitness Center,-33.91784923671407,18.430691895051158,5766b8aecd100453bf08c5ab,Cape Town,Green Point
29,8001,Fugard Theatre,3068,Theater,-33.92717880771957,18.424410697680713,4bcede8d29d4b7132923a9dc,Cape Town,Green Point
30,8005,Truth Coffee HQ,3093,Café,-33.92828568736539,18.4227945872331,4fa0c477e4b0c33ec64258bf,Cape Town,Green Point
31,8001,City Hall,2852,City Hall,-33.92518468373031,18.423782589572202,4b6b08e2f964a5202aee2be3,Cape Town,Green Point
32,8001,The Labia Theatre,2933,Movie Theater,-33.93005356692247,18.412439146653224,4b5f1604f964a52054a529e3,Cape Town,Green Point
33,,The Book Lounge,3143,Bookstore,-33.92930614229909,18.42168843738291,4b9e4a4cf964a5209dd736e3,Cape Town,Green Point
34,8001,Unframed Ice Cream,2776,Ice Cream Shop,-33.928688015760294,18.41204556956696,57a20081498ee7342127f5a5,Cape Town,Green Point
35,8005,Spar,1666,Supermarket,-33.91537412,18.41805674,4bf7e2078d30d13a70a4ff17,Cape Town,Green Point
36,,New York Bagel,3144,Bagel Shop,-33.92812216330304,18.42418736238842,54350aca498e511cba960528,Cape Town,Green Point
37,,Nourishd Juice Bar,3605,Juice Bar,-33.93663,18.40484,589a33bbef787f24a01580ba,Cape Town,Green Point
38,,Bantry Bay,3626,Scenic Lookout,-33.92732157912339,18.378245227753318,4c20ca233573c9b608e03515,Cape Town,Green Point
39,8001,De Waal Park,3658,Park,-33.93666648137161,18.41257095336914,4b796650f964a52095f72ee3,Cape Town,Green Point
40,8001,Deluxe Coffeeworks,3480,Coffee Shop,-33.933453,18.419453,50123ab3e4b0f8ec77991df4,Cape Town,Green Point
41,,Lions Head Trail,3771,Trail,-33.93685957443096,18.39487494765333,4bb215f7f964a520a2b73ce3,Cape Town,Green Point
42,8001,Lions Head Peak,3760,Mountain,-33.93501147657133,18.389137585455497,4bfaa0d0508c0f47f5414031,Cape Town,Green Point
43,8000,The Deli Woodstock,3992,Breakfast Spot,-33.92773321883452,18.43864551481081,4c383fdfdfb0e21ef447aea8,Cape Town,Green Point
44,,360 Specialized Training,4269,Gym,-33.93063297914655,18.439516160921674,4d6d2f3bfbf0a093ec91fc8c,Cape Town,Green Point
45,,"Food Lovers, The Towers",2626,Food Court,-33.91945851147964,18.427718198510565,565c25fa498e1d3da85ed493,Cape Town,Green Point
46,7915,Rosetta Roastery,4455,Coffee Shop,-33.92670585996497,18.445895047082622,4c77b3f16981bfb7de7a66e6,Cape Town,Green Point
47,8005,Clifton 1st Beach,4395,Beach,-33.93600136524832,18.37767735320228,4b7824b2f964a5200cb82ee3,Cape Town,Green Point
48,8001,The Kitchen,3940,Deli / Bodega,-33.927670975915085,18.43796609977646,4b694555f964a520549d2be3,Cape Town,Green Point
49,8005,Clifton 2nd Beach,4560,Beach,-33.93767444013776,18.37740472150441,4c8b7bb56418a143a968e9ce,Cape Town,Green Point
50,7925,Table Mountain National Park,4882,National Park,-33.948035557863165,18.402806064323944,4efc3aeb823142b925eb319d,Cape Town,Green Point
51,,"Seattle Coffee, The Towers",2639,Coffee Shop,-33.919565151029474,18.42779236125447,565d37ef498e7ec1b1844dd8,Cape Town,Green Point
52,7925,Espresso Lab Microroasters,5371,Coffee Shop,-33.92737067543962,18.457009014445408,4ba9e287f964a520183c3ae3,Cape Town,Green Point
53,,Stardust,3699,Theater,-33.92752625703309,18.434563877424985,529e12d8498e188cc3d3ddea,Cape Town,Green Point
54,,Checkers,2803,Grocery Store,-33.92098842095797,18.383280408241074,4bfd2bf9f61dc9b648959ede,Cape Town,Green Point
55,7925,The Pot Luck Club & Gallery,5410,Tapas Restaurant,-33.927463,18.457429,4efe0f19e5faf2869a1156c1,Cape Town,Green Point
56,,The Test Kitchen,5370,Restaurant,-33.927422678167645,18.45696173744514,4cf68fc8e308236ab6e3e6ac,Cape Town,Green Point
57,7925,The Old Biscuit Mill,5411,Market,-33.92749713628417,18.457415051797437,4b5a3b1bf964a52013b628e3,Cape Town,Green Point
58,,Glen Beach,5404,Beach,-33.946878157719674,18.377955495720176,4c68ef393bad2d7fd3a1aeee,Cape Town,Green Point
59,8005,Maiden's Cove,5307,Scenic Lookout,-33.945097685595805,18.376314317221297,4e184285183880768f3eb656,Cape Town,Green Point
60,8005,POD Camps Bay,5565,Hotel,-33.94924463089983,18.379686428828617,4c3d7d73b169c9b6211a4768,Cape Town,Green Point
61,8000,Top of Table Mountain,5934,Scenic Lookout,-33.957513188002125,18.403037310564745,4bb0fba2f964a5204f703ce3,Cape Town,Green Point
62,8040,Camps Bay Beach,5780,Beach,-33.950604673489345,18.377745151519775,4c3073957cc0c9b6ae58ed9a,Cape Town,Green Point
63,,Woodstock Foundry,4812,Event Space,-33.92699097754226,18.450274887434205,4fd5dcade4b02bbdc692ed95,Cape Town,Green Point
64,7925,Woodstock Brewery,5106,Brewery,-33.92729377150171,18.453770970512487,57906662498ed25e200c17fd,Cape Town,Green Point
65,,Salisburys,5344,Deli / Bodega,-33.933360708670065,18.451980701512788,4ff0360ce4b0cf66726cb6cb,Cape Town,Green Point
66,8001,Tribe Coffee,4856,Coffee Shop,-33.92727272520289,18.450634898426785,51695769e4b04fc89096589a,Cape Town,Green Point
67,,The Sidewalk Cafe,4361,Café,-33.93893301476184,18.42794219488249,4b7a67aef964a520f62b2fe3,Cape Town,Green Point
68,8040,Vide E Caffe,5795,Coffee Shop,-33.95100649878029,18.37834274334316,4c6f96eadf6b8cfa3bb2b54d,Cape Town,Green Point
69,8005,Atlanticview Cape Town Boutique Hotel,6495,Hotel,-33.96012690220119,18.385684490203857,54d88f1b498eab400b766771,Cape Town,Green Point
70,,Neighbourgoods Market,5442,Flea Market,-33.9274569558459,18.457826180599668,4e550332636510eb2e0e0683,Cape Town,Green Point
71,7925,Saucisse Deli,5369,Deli / Bodega,-33.927383554093446,18.456980966220513,4eae7baa9911d5c951b3cc06,Cape Town,Green Point
72,,Ocean Jewels,4478,Seafood Restaurant,-33.92697200076062,18.44598148752877,515eb609e4b08388f73c92c7,Cape Town,Green Point
73,,Devil's Peak Brewing Company (The Taproom),6019,Brewery,-33.93408429796424,18.460315591431804,51ebca525019fb668b6311d9,Cape Town,Green Point
74,,Raw and Roxy,5278,Vegetarian / Vegan Restaurant,-33.92742942619817,18.455821159554247,53be7f1a498ecfab3dd716f6,Cape Town,Green Point
75,,"Casa Woodstock, Casa Nostra Bar",5363,Bar,-33.92769135434862,18.456694050665305,4e16dafa8130977157798115,Cape Town,Green Point
76,,Beta Beach,6847,Beach,-33.9601060976156,18.374905067108077,4d04d6677d9ba35d5e226823,Cape Town,Green Point
77,,Newlands Forest,8450,Forest,-33.970869424576335,18.449845578052983,4bc1a989461576b04d387c32,Cape Town,Green Point
78,7925,1890 House Sushi,7032,Sushi Restaurant,-33.93920394799666,18.46938616433879,4b50cf03f964a520563327e3,Cape Town,Green Point
79,,Spar,4393,Grocery Store,-33.939172045822914,18.428155074247798,4bdc39bf3904a5938a3f4d9e,Cape Town,Green Point
80,,Gardener's Cottage,8718,Café,-33.97009824275582,18.45709964654482,4ba4d504f964a52020b938e3,Cape Town,Green Point
81,,Rhodes Memorial,7274,Monument / Landmark,-33.95250203886461,18.459084299518164,4b976addf964a520ef0235e3,Cape Town,Green Point
82,7700,Kirstenbosch Botanical Gardens,9719,Botanical Garden,-33.98845,18.433832,4b5acf4df964a520a7d528e3,Cape Town,Green Point
83,7700,Vineyard Hotel & Spa,9628,Hotel,-33.97889774917507,18.45864753172221,4b58b75ff964a520296728e3,Cape Town,Green Point
84,,Magica Roma,9375,Italian Restaurant,-33.94014855148352,18.497787490194014,4b97fb2ff964a520e12335e3,Cape Town,Green Point
85,7700,Baxter Theatre Centre,8352,Theater,-33.95685529195213,18.470461381924636,4b606099f964a5208fe229e3,Cape Town,Green Point
86,,The Hussar Grill,8545,Steakhouse,-33.95913577409004,18.470667502960097,4baa6dbff964a52040693ae3,Cape Town,Green Point
87,8005,The Twelve Apostles,9833,Hotel,-33.9835262,18.3589679,4bdd43946c1b95218e34ad0f,Cape Town,Green Point
88,,Fraiche Ayres,8301,Restaurant,-33.951087111351285,18.475908998902728,4d3ead046b3d236ab37d7464,Cape Town,Green Point
89,7700,Newlands Rugby Stadium,9372,Stadium,-33.970645947055424,18.468375432867685,4b8003f6f964a520e04a30e3,Cape Town,Green Point
90,7700,PPC Newlands Cricket Ground,9665,Cricket Ground,-33.97364000769796,18.468891292223844,4b76e43ff964a520c0672ee3,Cape Town,Green Point
91,7441,Crystal Towers Hotel And Spa,9404,Hotel,-33.89467847050529,18.507091694258406,4c8ad1491797236a5d646588,Cape Town,Green Point
92,7700,Sports Science Institute of South Africa,9438,Athletics & Sports,-33.9718160897948,18.467723838115923,4b9773b7f964a520460435e3,Cape Town,Green Point
93,,Milnerton Beach,7927,Beach,-33.881407379610735,18.487219285702455,4d03505a28926ea83fe664c2,Cape Town,Green Point
94,7725,Rock Sushi Thai,9196,Sushi Restaurant,-33.971419,18.463961,4fff0248e4b02b4ef99aeaf4,Cape Town,Green Point
95,7700,Common Ground Cafe,9562,Coffee Shop,-33.958918134385584,18.485833059887966,4b613990f964a520680d2ae3,Cape Town,Green Point
96,7700,Centenary Tree Canopy Walkway (Boomslang),9776,Scenic Lookout,-33.98971393494955,18.43036590802954,537f466c498ea5ac200c2f3a,Cape Town,Green Point
97,7700,Barristers Restaurant,9384,Pub,-33.9760788026674,18.45916801747441,4b6166fbf964a52047122ae3,Cape Town,Green Point
98,,Starke Ayres Garden Centre,8298,Garden Center,-33.95105627687584,18.475898429193837,4b8a2302f964a520836132e3,Cape Town,Green Point
99,7700,Myoga Restaurant,9620,Molecular Gastronomy Restaurant,-33.978947398597484,18.45837116337005,4beafcb262c0c928688ce1d4,Cape Town,Green Point
0,7848,Groot Constantia,820,Vineyard,-34.02717850143701,18.42433830632882,4ba721b1f964a5204b8239e3,Cape Town,Constantia
1,,Foxcroft,1397,Restaurant,-34.024477597523365,18.42996804626562,58133d5838facfbae3ffc781,Cape Town,Constantia
2,8000,Constantia Nek,2034,Trail,-34.01197422977392,18.405724540516747,4dfc5de145ddebdfeaaa520f,Cape Town,Constantia
3,,Eagles Nest,1362,Vineyard,-34.01613573763241,18.414384507845693,4cc2ee5bbde8f04d3689a14b,Cape Town,Constantia
4,,Beau Constantia,1834,Vineyard,-34.01368991788687,18.40643450696454,4ed330666c2510ace43b61bb,Cape Town,Constantia
5,7806,La Colombe at Silvermist,1867,French Restaurant,-34.015002015637265,18.403277080044173,4cdd82473f6a8cfa9b90f8ea,Cape Town,Constantia
6,South Africa,Klein Constantia,1174,Vineyard,-34.038674652783,18.413035210446868,4bdd4a8f645e0f47af3c6b19,Cape Town,Constantia
7,,La Parada,2019,Tapas Restaurant,-34.012250293743016,18.405437314475957,58023be4d67cadcef2aa974d,Cape Town,Constantia
8,,Constantia Uitsig Wine Farm,778,Winery,-34.027325091779645,18.423910088816413,4cc95701bfe1f04d13280d75,Cape Town,Constantia
9,,Buitenverwachting,1500,Winery,-34.04179215550021,18.416503750809646,4bee8a4035dc0f475feb3f5b,Cape Town,Constantia
10,7806,Chefs Warehouse & Canteen @ Beau Constantia,1815,Restaurant,-34.013785,18.406667,5876106c0b56563fd330cf6f,Cape Town,Constantia
11,7806,The Cellars-Hohenort,3503,Hotel,-34.00117903608329,18.434744198604566,4bc77cee93bdeee1ad6f37ae,Cape Town,Constantia
12,,Chardonnay Deli,1508,Bakery,-34.0247225279904,18.43131671720546,56078ca9498e57199c66d34c,Cape Town,Constantia
13,7945,Cecilia Forest,3436,Trail,-33.99879273410581,18.426373151708557,4bf8fb03bb5176b0787e5bb2,Cape Town,Constantia
14,7700,Kirstenbosch Botanical Gardens,4749,Botanical Garden,-33.98845,18.433832,4b5acf4df964a520a7d528e3,Cape Town,Constantia
15,7848,Jonkershuis Restaurant,409,Restaurant,-34.03071406873821,18.41894095683067,4b76fcdbf964a520cb712ee3,Cape Town,Constantia
16,7806,tashas,2730,Café,-34.021547130493666,18.443997138039865,4daaa4d7fa8cc764973a0d2d,Cape Town,Constantia
17,7800,The Greenhouse Restaurant,3361,Restaurant,-34.002616862777884,18.434650897979736,505acea716483cef8e2e990e,Cape Town,Constantia
18,7700,Centenary Tree Canopy Walkway (Boomslang),4511,Scenic Lookout,-33.98971393494955,18.43036590802954,537f466c498ea5ac200c2f3a,Cape Town,Constantia
19,,Alphen Boutique Hotel,3679,Hotel,-34.0127536874346,18.450722800295225,4f155b83754a4f43c496f10d,Cape Town,Constantia
20,,The Clubhouse (Claremont Cricket Club),3606,Restaurant,-34.01714214389348,18.45223927579875,51ce0afe498e39695aa1a142,Cape Town,Constantia
21,7806,Engen,2943,Gas Station,-34.033625,18.446818,4c95d9d0f7cfa1cd2f46c115,Cape Town,Constantia
22,,Steenberg Vineyards,5263,Vineyard,-34.075247202420954,18.422678380261956,4b77dab9f964a52072ac2ee3,Cape Town,Constantia
23,,5 Rooms,3707,Restaurant,-34.012628340655645,18.45098736401353,4f155d1c754a4f43c497231d,Cape Town,Constantia
24,,Maynardville Open-Air Theatre,5181,Performing Arts Venue,-34.005308220034564,18.464357228788796,4b616a99f964a520ce122ae3,Cape Town,Constantia
25,,High Constantia Wine farm,1070,Winery,-34.025364617923074,18.42659337937037,4d493ba383eda1cdaa17a6b1,Cape Town,Constantia
26,7806,Greenhouse Restaurant Constantia,3415,Modern European Restaurant,-34.001990256200216,18.434542176845472,4d54502d48ea6ea8490bc9a3,Cape Town,Constantia
27,,Little Stream Constantia,1041,Breakfast Spot,-34.03742558328065,18.418208956718445,4e214e2718a88345f04a4270,Cape Town,Constantia
28,,"Rose Bar, Alphen Hotel.",3670,Hotel Bar,-34.01285836164276,18.45068771729077,4eece0be0aaf1d45b13b7175,Cape Town,Constantia
29,,Woolworths,2825,Grocery Store,-34.0216929568688,18.445114243787696,4bd2cf71046076b0769f7471,Cape Town,Constantia
30,7800,Constantia Village Shopping Centre,2808,Shopping Mall,-34.0215593808089,18.44487856327051,4b8fd7a9f964a520076533e3,Cape Town,Constantia
31,7806,Virgin Active Health Club,3468,Gym,-34.018676095908376,18.451303488767806,4b4c2e53f964a52057af26e3,Cape Town,Constantia
32,,Hout Bay Beach,5514,Beach,-34.04618111413202,18.359795589013345,4d170e38816af04d82b64cc2,Cape Town,Constantia
33,,Woolworths,5607,Supermarket,-34.042990742696134,18.357395657275866,4cd81d427d454688bafae9ed,Cape Town,Constantia
34,8000,Chilled Market at The Range,2432,Market,-34.04977719554031,18.420623209145997,4c0b405ca1b32d7f2fd79af0,Cape Town,Constantia
35,7806,World of Birds,5058,Zoo,-34.017581351138745,18.362290257592136,4b93d821f964a520bb5434e3,Cape Town,Constantia
36,,Steenberg Golf Estate,4605,Golf Course,-34.068601634885304,18.427004857749132,5346a0cd498ebf915b59e043,Cape Town,Constantia
37,7700,Vineyard Hotel & Spa,6789,Hotel,-33.97889774917507,18.45864753172221,4b58b75ff964a520296728e3,Cape Town,Constantia
38,7700,Caffé Verdi,4999,Bar,-34.0068535637128,18.463146324434174,4c49ae9920ab1b8dcc081b17,Cape Town,Constantia
39,7806,Cheyne's,5432,Mediterranean Restaurant,-34.04446461706228,18.359975213155252,517fff56e4b085cc8e56e30b,Cape Town,Constantia
40,7806,La Cuccina,5936,Deli / Bodega,-34.0305758981012,18.351263645055845,4b73ed1ef964a52061c02de3,Cape Town,Constantia
41,7945,Bistro Sixteen 82,5265,Tapas Restaurant,-34.075271470667516,18.422651677374514,4d2893d46e27a143577c1b24,Cape Town,Constantia
42,,Llandudno Beach,7212,Beach,-34.008131170950485,18.341288566589355,4b8fda16f964a5208f6533e3,Cape Town,Constantia
43,7945,Virgin Active Health Club,6149,Gym,-34.079491801424744,18.4407149297338,4b62d9e8f964a52082552ae3,Cape Town,Constantia
44,7945,Societi Brasserie,4118,French Restaurant,-34.06185059965357,18.434468829257106,4f608553e4b066d8c523ca36,Cape Town,Constantia
45,,Hout Bay Coffee,5465,Coffee Shop,-34.04295135647409,18.358995973031814,54bcf32a498e5ac87c42eb86,Cape Town,Constantia
46,,Newlands Forest,7136,Forest,-33.970869424576335,18.449845578052983,4bc1a989461576b04d387c32,Cape Town,Constantia
47,,The Kirstenbosch Tea Room,4844,Café,-33.986906482406184,18.431649981846576,4ba75ab2f964a520b38d39e3,Cape Town,Constantia
48,7806,Tintswalo Atlantic,5970,Hotel,-34.06487215178444,18.36817502975464,4bd8b2452ecdce72e8ecd0f2,Cape Town,Constantia
49,8005,The Twelve Apostles,7221,Hotel,-33.9835262,18.3589679,4bdd43946c1b95218e34ad0f,Cape Town,Constantia
50,7137,Mugg & Bean,5232,Coffee Shop,-34.06372284322648,18.452896706350316,4f79a0d5e4b0290a8d5f0e23,Cape Town,Constantia
51,7745,Banana Jam Café,6597,Café,-33.99431919793371,18.47410211095662,4b618730f964a520e8162ae3,Cape Town,Constantia
52,,Jakes in the Village,5052,Restaurant,-34.07167544846586,18.431803543450386,4c3960d72c8020a141b28c00,Cape Town,Constantia
53,7872,Chapman’s Peak View Point,7733,Scenic Lookout,-34.0776385285169,18.356480598449703,4ba4c2bcf964a52082b238e3,Cape Town,Constantia
54,,High Tea,4506,Tea Room,-34.014422,18.461421,4c3827ac2c8020a1ff688a00,Cape Town,Constantia
55,,Four and Twenty Cafe,5018,Café,-34.00678605841462,18.463326452769397,5184d993498e26edec1cba6f,Cape Town,Constantia
56,,Earth Fair Food Market,6549,Food Court,-34.07458216371472,18.459441771696007,4b6d4383f964a5202b6e2ce3,Cape Town,Constantia
57,7806,Mariner's Wharf,6548,Harbor / Marina,-34.04748079252889,18.34842972434071,4d1477cbbb488cfaed3097d4,Cape Town,Constantia
58,8000,Top of Table Mountain,7967,Scenic Lookout,-33.957513188002125,18.403037310564745,4bb0fba2f964a5204f703ce3,Cape Town,Constantia
59,7806,Food Lover's Market,5513,Grocery Store,-34.06308886,18.45814393,4eec8036e3002155925590fc,Cape Town,Constantia
60,7872,Chapman’s Peak Drive,7531,Road,-34.07773,18.359758,4ba21ffff964a5207bdd37e3,Cape Town,Constantia
61,7700,Myoga Restaurant,6770,Molecular Gastronomy Restaurant,-33.978947398597484,18.45837116337005,4beafcb262c0c928688ce1d4,Cape Town,Constantia
62,7806,Bay Harbour Market,6974,Flea Market,-34.05525097147891,18.347278658118217,4e0ee364e4cd27fc7d3415c9,Cape Town,Constantia
63,,Cape Point Vineyards,7749,Winery,-34.09390996592579,18.387361413973743,4c8b985252a98cfa044137e9,Cape Town,Constantia
64,,Bardelli's,6596,Italian Restaurant,-33.994635644435895,18.474363144940966,4b6692b0f964a52082242be3,Cape Town,Constantia
65,7708,Café Nood,6763,Café,-33.98580607680458,18.467898891567305,4c7df1d5d6543704d0fbc1a2,Cape Town,Constantia
66,,Urban Brewing Co.,6973,Brewery,-34.05494,18.347109,56dac33fcd102abc30af33f9,Cape Town,Constantia
67,,Gardener's Cottage,7531,Café,-33.97009824275582,18.45709964654482,4ba4d504f964a52020b938e3,Cape Town,Constantia
68,8005,Atlanticview Cape Town Boutique Hotel,8077,Hotel,-33.96012690220119,18.385684490203857,54d88f1b498eab400b766771,Cape Town,Constantia
69,7700,PPC Newlands Cricket Ground,7829,Cricket Ground,-33.97364000769796,18.468891292223844,4b76e43ff964a520c0672ee3,Cape Town,Constantia
70,7700,Barristers Restaurant,7073,Pub,-33.9760788026674,18.45916801747441,4b6166fbf964a52047122ae3,Cape Town,Constantia
71,,Catharina's,4864,Restaurant,-34.071290523250276,18.42523647743298,4cc78765303476b08b47e16b,Cape Town,Constantia
72,7945,Italian Kitchen,5532,Italian Restaurant,-34.06564341054294,18.455176939383563,4cb341fcc939721ecd94b69e,Cape Town,Constantia
73,,Posticino Ristorante Hout Bay,5354,Italian Restaurant,-34.0466336096008,18.361875758350227,52a8c1ef11d25bb03486a1f8,Cape Town,Constantia
74,7947,Red! The Cafe,5201,Café,-34.073142012776664,18.43155546553403,4ca4c38cf832a1cd23dea8e5,Cape Town,Constantia
75,,Pakalolo,5331,Restaurant,-34.046470126431586,18.362060332083125,4b9246aaf964a52086ef33e3,Cape Town,Constantia
76,7745,Borusso's,6117,Pizza Place,-33.99552605470877,18.468744110769986,4b43b6daf964a52061e725e3,Cape Town,Constantia
77,7806,Massimo's,3845,Italian Restaurant,-34.01920415372814,18.375360132716942,4be45c3bd4f7c9b6570a2420,Cape Town,Constantia
78,7700,Sports Science Institute of South Africa,7922,Athletics & Sports,-33.9718160897948,18.467723838115923,4b9773b7f964a520460435e3,Cape Town,Constantia
79,7806,Hout Bay Craft Market,5320,Arts & Crafts Store,-34.0424896920421,18.360471725463867,4ba5e990f964a520f32839e3,Cape Town,Constantia
80,7700,Newlands Rugby Stadium,8062,Stadium,-33.970645947055424,18.468375432867685,4b8003f6f964a520e04a30e3,Cape Town,Constantia
81,,Woolies/Engen Claremont,7296,Deli / Bodega,-33.976877450133486,18.464527846306005,4e4f62a3b61cf637a4f4ae2b,Cape Town,Constantia
82,7700,Arderne's Public Gardens,6513,Garden,-33.98706035241606,18.46558169101036,4ca72acd8a65bfb7d9ca2c22,Cape Town,Constantia
83,7725,Rock Sushi Thai,7752,Sushi Restaurant,-33.971419,18.463961,4fff0248e4b02b4ef99aeaf4,Cape Town,Constantia
84,,Seattle Coffee Company,6927,Coffee Shop,-33.980407293205026,18.46344146590923,4bc0defcf8219c74b260b210,Cape Town,Constantia
85,,Silvermine,5943,Trail,-34.08147414149445,18.421823743513997,4c4954166f1420a1d6337655,Cape Town,Constantia
86,7848,Open Door,2331,Restaurant,-34.047953267194536,18.424385313690156,55b27b4d498e035e658dcd9d,Cape Town,Constantia
87,7925,Table Mountain National Park,9015,National Park,-33.948035557863165,18.402806064323944,4efc3aeb823142b925eb319d,Cape Town,Constantia
88,7700,Sushi Box,7104,Sushi Restaurant,-33.97578392951175,18.459242575303588,4fb26e66e4b0f1afb50a79dd,Cape Town,Constantia
89,,The Wharfside Grill,6544,Seafood Restaurant,-34.0474072683435,18.348444593821945,4d0cbcaa8010548114331a96,Cape Town,Constantia
90,,Coimbra,7770,Bakery,-33.98383760567953,18.480435383396674,4d2f1fddad3a8cfa94d49abd,Cape Town,Constantia
91,7708,Starlings,8148,Café,-33.98010016249804,18.481971629322206,4b87b2c7f964a520a8c731e3,Cape Town,Constantia
92,7945,Blue Route Mall,5228,Shopping Mall,-34.06348966,18.4531473,4b67d329f964a520a35e2be3,Cape Town,Constantia
93,7945,Surfer's Corner,9046,Surf Spot,-34.09522809448751,18.47125034420314,4bae1e87f964a520c5863be3,Cape Town,Constantia
94,8040,Camps Bay Beach,9329,Beach,-33.950604673489345,18.377745151519775,4c3073957cc0c9b6ae58ed9a,Cape Town,Constantia
95,,Noordhoek Farm Village,8429,Food & Drink Shop,-34.097280774538184,18.37775731916412,4c67a184e1da1b8d06b79ec3,Cape Town,Constantia
96,,Beta Beach,8471,Beach,-33.9601060976156,18.374905067108077,4d04d6677d9ba35d5e226823,Cape Town,Constantia
97,7708,Bootlegger Coffee Company,6091,Coffee Shop,-33.99604277171098,18.468850326813346,558bdf32498e9eae96599488,Cape Town,Constantia
98,8005,POD Camps Bay,9405,Hotel,-33.94924463089983,18.379686428828617,4c3d7d73b169c9b6211a4768,Cape Town,Constantia
99,7700,The Creamery Cafe,7772,Ice Cream Shop,-33.971058874901914,18.463730671075314,5231645e11d22e05eb92a2e8,Cape Town,Constantia
0,,Meerlust Estate,5801,Winery,-34.0169566691864,18.756947190044965,4ccfc4c96449a093f094c6cf,Cape Town,Blue Downs
1,7130,Vergenoegd Wine Estate,5416,Vineyard,-34.034404683293815,18.739008924140457,4cee786b28abb60c8fdfbd09,Cape Town,Blue Downs
2,,Jordan Restaurant,7731,Restaurant,-33.94307577021469,18.7454866992263,4fca0767e4b010c6fca5961c,Cape Town,Blue Downs
3,,Jordan Wine Estate,7738,Vineyard,-33.94296564286038,18.74542141212019,4cc2cf0d8062468888a02b2f,Cape Town,Blue Downs
4,7784,Kwa Ace,5436,Lounge,-34.04016631547809,18.66397464192022,4df3bcd6a809141629a39ffa,Cape Town,Blue Downs
5,7600,Spier Wine Farm,8599,Winery,-33.97287411178215,18.784734702456678,4be2b08af07b0f47a8e8f543,Cape Town,Blue Downs
6,,Wedgeview Country House and Spa Stellenbosch,8920,Bed & Breakfast,-33.948837251802594,18.77186674228229,4bd5d3209649ce7215af511d,Cape Town,Blue Downs
7,,Department of Coffee,5993,Coffee Shop,-34.04891278630135,18.670353958262552,50a4d3ede4b0521a6c8e6f17,Cape Town,Blue Downs
8,7603,Polkadraai Strawberry Farm,5967,Farmers Market,-33.96238076405253,18.743561489782426,4b9defc0f964a5206ec336e3,Cape Town,Blue Downs
9,7580,Zevenwacht Wine Estate,8244,Winery,-33.93019289414788,18.72733421495576,4b739659f964a52013b52de3,Cape Town,Blue Downs
10,,Hoghouse Bakery & Café,8414,Bistro,-33.973597,18.782924,5623a18b498e5d8e5add02b6,Cape Town,Blue Downs
11,7600,Eight Restaurant,8516,Restaurant,-33.973875,18.784224,4b8cf8b3f964a520c0e232e3,Cape Town,Blue Downs
12,,Skillpadsvlei Wine Estate,7923,Winery,-33.95923577847446,18.767864721010316,4c25e5c1905a0f4738416260,Cape Town,Blue Downs
13,7490,Vida e Caffè,9941,Coffee Shop,-33.96944494488608,18.596296692766956,4d43cea1bf61a1cded2c02ac,Cape Town,Blue Downs
14,,Exclusive Books,9791,Bookstore,-33.96983654996396,18.597848517084948,4d2e764bb97cb1f776d18f48,Cape Town,Blue Downs
15,7600,Spier Hotel,8100,Hotel,-33.9761312321328,18.780401932656826,4bc9fd1fa276eee14a396202,Cape Town,Blue Downs
16,7490,Cape Town International Airport (CPT) (Cape Town International Airport),9946,Airport,-33.96831338695452,18.596742153167725,4b43b87bf964a52090e725e3,Cape Town,Blue Downs
17,7490,Slow Lounge,9833,Airport Lounge,-33.96967159008419,18.597444062216145,4c74aeb7d8948cfa47cc65da,Cape Town,Blue Downs
18,7490,Woolworths,9937,Convenience Store,-33.969524609997976,18.59630748167494,4be83cba88ed2d7f399dcb1d,Cape Town,Blue Downs
19,,"Ocean Basket, Zewenwacht Mall",5611,Seafood Restaurant,-33.9496013829661,18.69612750842738,4c6912f45be8d13ab8e1617a,Cape Town,Blue Downs
20,,Zetlerbosch Farm Store,7078,Farmers Market,-33.98206424689672,18.771076524782927,4c35e77a3896e21e7de2ed90,Cape Town,Blue Downs
21,7579,Zevenwacht Mall,5663,Shopping Mall,-33.949138323842014,18.69609850928539,4c81f8ae47cc224bbda2819f,Cape Town,Blue Downs
22,,Skilpadvlei Wine Farm,7938,Winery,-33.95916091790166,18.76800629788978,4e9d41479a5262f9810acf14,Cape Town,Blue Downs
23,7579,Coyote Spur,5675,Steakhouse,-33.949016764715815,18.696619439673952,4d35568698336dcba75940f0,Cape Town,Blue Downs
24,7580,McDonald's,8419,Fast Food Restaurant,-33.92583695873025,18.67960330217812,4d539b55b3d9a35df48ec47b,Cape Town,Blue Downs
25,7100,KFC Bluedowns,1670,Fried Chicken Joint,-33.9865,18.6896,4d721948ff6ba35d47d8688a,Cape Town,Blue Downs
26,,Out Of Africa,9990,Gift Shop,-33.96714641360721,18.596783490009244,4fd4d46ee4b0b3abb3e6ed20,Cape Town,Blue Downs
27,7493,SPAR Erica,9160,Deli / Bodega,-33.942385,18.62665,4fb1426ee4b03ef616270809,Cape Town,Blue Downs
28,7786,Nando's Mitchells Plain,8678,Restaurant,-34.038987,18.616053,4dca53462271a5cb22485ac6,Cape Town,Blue Downs
29,,Ocean Basket,9839,Seafood Restaurant,-33.96954288496938,18.597430046955424,4d87b403bc848cfa36c49d2b,Cape Town,Blue Downs
30,7100,Steers,9994,Burger Joint,-33.9685,18.5961,4e5fb97545ddbcb9df4ed1fe,Cape Town,Blue Downs
31,,Wimpy,7616,Burger Joint,-34.04744924347189,18.756978411759345,4c1312697f7f2d7fb797de68,Cape Town,Blue Downs
32,,Liberty Promenade Mall,8687,Shopping Mall,-34.03899102435736,18.61593613145353,4bb332fa35f0c9b6f60dbc83,Cape Town,Blue Downs
33,7490,Alba Easy Lounge,9699,Gastropub,-33.97097329136621,18.598422888794275,529f2a8011d2ae19bad0a5a1,Cape Town,Blue Downs
34,,Checkers Langverwacht Plein,6890,Shopping Mall,-33.93811008990073,18.698743240254124,5299ac51498e78bd5e6414e0,Cape Town,Blue Downs
35,,KFC,8360,Fast Food Restaurant,-33.94039650095396,18.642401768237676,4e2d676052b1b8f19874ee8c,Cape Town,Blue Downs
36,7580,Shell,9716,Gas Station,-33.91552014,18.67105201,4e354e11fa7656ba316f244a,Cape Town,Blue Downs
37,7131,Cape Town Film Studios,3784,Office,-34.029141381163356,18.718633959040524,4cda7ad8930af04dcff88497,Cape Town,Blue Downs
38,7130,Engen 1 Stop,7613,Gas Station,-34.04744262072005,18.75693988671517,4ba4d16cf964a520beb738e3,Cape Town,Blue Downs
39,8001,Bidvest Executive Lounge,9988,Airport Lounge,-33.96716246502807,18.596797156689217,4eb14d6d9adf1abeffb52010,Cape Town,Blue Downs
40,7525,KFC,9909,Fast Food Restaurant,-33.9687,18.597,4f4e0bebe4b087ae23bcebb9,Cape Town,Blue Downs
41,,Town Lodge Belville,8167,Hotel,-33.94001327975546,18.64656686782837,4bc8eee5762beee175b73d38,Cape Town,Blue Downs
42,7580,Zevenwacht Restaurant,8256,Restaurant,-33.930107,18.727433,515dbdd9e4b0fba2a941c2be,Cape Town,Blue Downs
43,,Promenade Mall Foodcourt.,8569,Food Court,-34.034473205528585,18.614457498743622,4de253b2ae60e7f3abec19f3,Cape Town,Blue Downs
44,7580,Mangwanani African Day Spa,8595,Spa,-33.92838461887125,18.73229697637599,4d57a3c4380ab1f789b3fef4,Cape Town,Blue Downs
45,,Pentech Train Station,8691,Train Station,-33.934989370320125,18.645359265071086,50851e13e4b06166987cf175,Cape Town,Blue Downs
46,7490,Soaring Hawk Spur,9861,Steakhouse,-33.969210026227394,18.597323045607354,4ba1d4aaf964a5203ece37e3,Cape Town,Blue Downs
47,7490,Sneakers,9714,Sporting Goods Shop,-33.970777171013644,18.598326295916415,4f4f63eee4b0f03ee6df09bf,Cape Town,Blue Downs
48,,Cape Farm Stall,9998,Gift Shop,-33.96708546447122,18.596720695495605,4e04b39162e1b12875a9ab70,Cape Town,Blue Downs
0,,Boston Coffee,3357,Coffee Shop,-33.89318606691485,18.62150184480991,54926e1f498e89679bdd2a49,Cape Town,Parow
1,7500,Pick 'n Pay,4320,Supermarket,-33.86557648309723,18.572547316620064,4c5c22a19b28d13aaedd5570,Cape Town,Parow
2,7500,SPAR,3272,Grocery Store,-33.873954,18.578498,4c5c37b7fff99c74ea2f33d3,Cape Town,Parow
3,7460,Texas Spur,2774,Steakhouse,-33.891906277329525,18.559759997712167,4d11d2d6f6f3721e71ac96e9,Cape Town,Parow
4,,Ou Meul Bakkery,5451,Café,-33.87021614866072,18.631309514987937,535e1616498e6c5d20a1a50d,Cape Town,Parow
5,7530,M-Kem,4731,Pharmacy,-33.88830814540221,18.635206236908818,4ba20672f964a520ffd637e3,Cape Town,Parow
6,,Woolworths Food Welgemoed Forum,4303,Food & Drink Shop,-33.873952901088266,18.618354055896813,4c9a3b579c663704afe456fd,Cape Town,Parow
7,7530,Food Lover's Market,5762,Supermarket,-33.86715641,18.63250875,4b920d17f964a52018e533e3,Cape Town,Parow
8,,Jerry's Burger Bar,5414,Burger Joint,-33.8714383391959,18.632033320080712,56740de3498e17815dc6b777,Cape Town,Parow
9,,Vida E Caffè,5164,Café,-33.8800206224521,18.63583157110421,53884c6d498e39acdc8e2ea0,Cape Town,Parow
10,,The Hussar Grill,3954,Steakhouse,-33.91821399638579,18.548555093962158,567192bd498e3c1adca10f4c,Cape Town,Parow
11,7460,Fruit & Veg City Food Lover's Market,3078,Fruit & Vegetable Store,-33.89172124,18.55626222,4d3173dc98336dcbbc5118f0,Cape Town,Parow
12,7530,Virgin Active Health Club,5125,Gym,-33.87719041759904,18.63327861060014,4c41a7cb3735be9a23b218a4,Cape Town,Parow
13,,Orms Pro Photo Warehouse North,5078,Electronics Store,-33.882375076737276,18.63626648785036,4c9757097605199caf20c8a3,Cape Town,Parow
14,8001,Col'Cacchio,5459,Pizza Place,-33.8702433912994,18.631449919945567,4dcd25eb3151a1df1e492bb8,Cape Town,Parow
15,,Ashley's,3380,Diner,-33.91162392300551,18.552042018294113,4bf90e4c5ec320a1aea789d3,Cape Town,Parow
16,,Woolworths,5380,Department Store,-33.87543188038071,18.635184907982232,4c7e63d1b53db1f7b1ce9f11,Cape Town,Parow
17,,Plattekloof Hill,1988,Scenic Lookout,-33.88478598775065,18.584178742919338,4c4c6a7f712ac92874a64d6e,Cape Town,Parow
18,,Greens,4379,Italian Restaurant,-33.86508531544863,18.57228084634829,4cd514f794848cfa1810e4b1,Cape Town,Parow
19,,Tygerberg hill,2647,Scenic Lookout,-33.889035792645,18.610560895385028,4f2252cbe4b083187463a574,Cape Town,Parow
20,7530,The Hussar Grill,5367,Steakhouse,-33.871559155849695,18.631494164475622,4c14b2afa1010f4796d54c18,Cape Town,Parow
21,,Limnos Bakery,4962,Bakery,-33.88292471301843,18.635199240909177,4ba85f7bf964a52079d839e3,Cape Town,Parow
22,7441,Crystal Towers Hotel And Spa,7429,Hotel,-33.89467847050529,18.507091694258406,4c8ad1491797236a5d646588,Cape Town,Parow
23,,"Glenwood Spar, Goodwood",4628,Convenience Store,-33.89672242189908,18.537333067165854,4b5c86adf964a520713429e3,Cape Town,Parow
24,,Arugula Bistro & Bread,4314,Restaurant,-33.8739241137782,18.61848919084369,4f7ea198e4b077c1807d3e4f,Cape Town,Parow
25,7441,Canal Walk Shopping Centre,7130,Shopping Mall,-33.89277543,18.5106671,4ca599d2931bb60ceb628be2,Cape Town,Parow
26,,Barnyard Theatre,5510,Theater,-33.869612720588414,18.631518900102332,4bf2dd43e5eba593a9e51d90,Cape Town,Parow
27,,Col'Cacchio,7030,Pizza Place,-33.89272029399677,18.511775680391395,527f6b4211d21e9068c9a000,Cape Town,Parow
28,7530,Vida e Caffè,5460,Coffee Shop,-33.87021238718739,18.631425073283964,4b73c2acf964a520eaba2de3,Cape Town,Parow
29,7441,Woolworths,7129,Clothing Store,-33.89445445563076,18.510398178868137,4b7c1c94f964a520977d2fe3,Cape Town,Parow
30,,Willowbridge Shopping Centre,5449,Shopping Mall,-33.87052642449106,18.63159260952991,4b827722f964a52008d430e3,Cape Town,Parow
31,7463,Cafe Fino,2709,Restaurant,-33.89165199025316,18.56068865282671,4c552bab728920a15cbef083,Cape Town,Parow
32,,De Oude Welgemoed Restaurant,4438,Pizza Place,-33.87043028504159,18.615483843164842,4e7d7dd69a521ffdaa4e03ea,Cape Town,Parow
33,,Yuz Sushi,5151,Sushi Restaurant,-33.88008035580786,18.635715593392188,4dc19693b0fb1c18ee67094d,Cape Town,Parow
34,,Durbanville Hills Wine Estate,8884,Vineyard,-33.824714047473826,18.565417553766203,4be7bfe7e1b39521f22121c1,Cape Town,Parow
35,,Fives Futbol Canal Walk,6849,Soccer Field,-33.89510519018529,18.5133550687057,5274b47911d2619a97936664,Cape Town,Parow
36,7490,Vida e Caffè,7502,Coffee Shop,-33.96944494488608,18.596296692766956,4d43cea1bf61a1cded2c02ac,Cape Town,Parow
37,7530,Burger Fair,5712,Fast Food Restaurant,-33.90377171056637,18.648757309119112,4c599205d3aee21ebf7d6855,Cape Town,Parow
38,,Vida E Caffe,5406,Coffee Shop,-33.87467483208203,18.634894570475733,4f45ee72e4b07d8af2efc171,Cape Town,Parow
39,7500,Cattle Baron Grill House,3228,Steakhouse,-33.87438415378863,18.578369278223168,4c9b9f1e78ffa0933acf7675,Cape Town,Parow
40,7441,Virgin Active Health Club,7561,Gym,-33.894919,18.505619,4b4de455f964a52048da26e3,Cape Town,Parow
41,7530,Mugg & Bean,5572,Coffee Shop,-33.872795,18.635484,4ba7a4cef964a52081a539e3,Cape Town,Parow
42,7441,Osumo,7176,Snack Place,-33.89402916225741,18.509947030717225,4b5aa96df964a520e1cf28e3,Cape Town,Parow
43,7500,Nando's,4380,Portuguese Restaurant,-33.8653561,18.5713068,4e08c3b114959022c89e7f19,Cape Town,Parow
44,7441,Kauai,7091,Juice Bar,-33.89252585405254,18.511141627516945,4b640f83f964a520559d2ae3,Cape Town,Parow
45,7530,Tyger Waterfront,4861,Office,-33.876702988162556,18.629400662289278,4bcc70a80687ef3b5433dfcc,Cape Town,Parow
46,7530,Exclusive Books,5465,Bookstore,-33.872596249011494,18.633854984543508,4cd6908f122ba1431d7e33a1,Cape Town,Parow
47,7460,Panarottis N1 City,2761,Italian Restaurant,-33.8919174626587,18.559914662670213,4cc1b6171da0a1cd89db9bc6,Cape Town,Parow
48,7536,Cattle Baron Grill House,4905,Steakhouse,-33.87873,18.63165,4daf12894df0f639f2595242,Cape Town,Parow
49,,Magica Roma,9240,Italian Restaurant,-33.94014855148352,18.497787490194014,4b97fb2ff964a520e12335e3,Cape Town,Parow
50,7475,"City Lodge Hotel GrandWest, Cape Town",4074,Hotel,-33.91952133800158,18.547896915826016,4bc8eeeb762beee17bb73d38,Cape Town,Parow
51,,Exclusive Books,7563,Bookstore,-33.96983654996396,18.597848517084948,4d2e764bb97cb1f776d18f48,Cape Town,Parow
52,7441,Vida E Caffè,7568,Coffee Shop,-33.89313044054917,18.50581750555227,4e8315b70aaf371d66940735,Cape Town,Parow
53,7441,"Hirsch's, Milnerton",8363,Furniture / Home Store,-33.86542597855876,18.50822636470787,4f76f436e4b0d69368a4f1fa,Cape Town,Parow
54,,Dutch Haven,6245,Bistro,-33.86820249934682,18.64043011687884,5395908a498edbdef876c6f3,Cape Town,Parow
55,7550,The Vineyard Deli,6216,Deli / Bodega,-33.86229975596597,18.63363076849041,4c7b79422d3ba143031394d0,Cape Town,Parow
56,,Bidvest Car Rental,7541,Rental Car Location,-33.969918910658954,18.594944382355937,5534e7b7498ea763a4acf25f,Cape Town,Parow
57,,Parow Golf Club,1445,Golf Course,-33.896177373299714,18.573283958702145,4d26b83d342d6dcb5678e6ca,Cape Town,Parow
58,7490,Cape Town International Airport (CPT) (Cape Town International Airport),7381,Airport,-33.96831338695452,18.596742153167725,4b43b87bf964a52090e725e3,Cape Town,Parow
59,7460,GrandWest Casino And Entertainment World,3964,Casino,-33.9175125,18.5480329,4b640d79f964a520089d2ae3,Cape Town,Parow
60,,Century City Hotel,7644,Hotel,-33.89496197162884,18.504707707271503,56c64705cd101c3254d734f2,Cape Town,Parow
61,,Brick Lane Eatery,7059,Restaurant,-33.887056,18.512841,56b8a04a498e295f08f74073,Cape Town,Parow
62,,Collosseum Luxury Hotel,7572,Hotel,-33.89333568912421,18.50573560045442,4ff27565e4b0066eb71a0e28,Cape Town,Parow
63,,Bunker Bar & Restaurant,7365,Bar,-33.84267461097129,18.552899779345044,4c94e032f7cfa1cdd3c0b715,Cape Town,Parow
64,,Pet world N1city,3192,Pet Store,-33.89187504482157,18.55485333016368,52cc21f7498e1d117375f115,Cape Town,Parow
65,,be.UP Park,8033,Recreation Center,-33.935223,18.50943,57661733498ec123bdff4236,Cape Town,Parow
66,7441,Spar,8922,Supermarket,-33.86252636594114,18.50326431433342,4c1215e3b2510f47bbf5c398,Cape Town,Parow
67,,Caffè Magnifico,7107,Café,-33.89290597895428,18.510892296700465,4b90f613f964a5204d9c33e3,Cape Town,Parow
68,7530,Silver Spur,4126,Breakfast Spot,-33.8923636547782,18.629902200687045,4d4c48201ae437042ceef260,Cape Town,Parow
69,7500,Ster Kinekor,1200,Multiplex,-33.906656928348724,18.598932217809185,4d92029656a3f04d580ef041,Cape Town,Parow
70,,Ke Monate Restaurant,9423,Tapas Restaurant,-33.82026274508434,18.61112289388409,4df3b5bed22d8c5470ded047,Cape Town,Parow
71,,Ocean Basket,7005,Seafood Restaurant,-33.89197550339052,18.512197246446053,4c1e0c84b306c928066e66b7,Cape Town,Parow
72,,Bossa Social Cafe & Bar,4944,Cocktail Bar,-33.875031632145934,18.628989754192688,514de7ace4b08621ab8d3b9f,Cape Town,Parow
73,,The Olive Bistro,9947,Gastropub,-33.83118824137428,18.651800219788324,509631b1e4b0cb1b32536eb7,Cape Town,Parow
74,,D'Aria Wine Farm,7120,Winery,-33.841377373098695,18.609662131179853,4c5ff1df12e5c92872fd1d4c,Cape Town,Parow
75,,Woolworths,1192,Grocery Store,-33.904508995805536,18.59962447111579,4d529efb9d493704d45dda39,Cape Town,Parow
76,,Woolworths Food,4293,Grocery Store,-33.86590089943587,18.57229471818825,4da9ae7c93a04642f06c0c91,Cape Town,Parow
77,,Copper Club Eatery,4914,Burger Joint,-33.876739501953125,18.6301326751709,564dfed8498ee48b0efd5236,Cape Town,Parow
78,,Merrypak & Print,8543,Arts & Crafts Store,-33.92884676234016,18.50008711683906,4c7f5b21a7958cfa3b83902b,Cape Town,Parow
79,7500,Plattekloof Village,4340,Shopping Mall,-33.86550518109846,18.57210157785989,4bf844d7c07c9c74cccfbbef,Cape Town,Parow
80,,knead,3107,Coffee Shop,-33.87616,18.575821,572c477f498e0122ce87b8bc,Cape Town,Parow
81,7460,Grand Arena,3977,Concert Hall,-33.91589885532377,18.54702737423955,4bca09a9937ca593bdf0a692,Cape Town,Parow
82,7530,Tyger Valley Centre,5478,Shopping Mall,-33.8726891648905,18.634115104706325,4b45b6a9f964a5207f0f26e3,Cape Town,Parow
83,,Glen Garry Shopping Centre,9367,Shopping Mall,-33.856768467010056,18.672027477890293,4d7e10fe9df3f04d7b61bd94,Cape Town,Parow
84,,Milnerton Beach,9509,Beach,-33.881407379610735,18.487219285702455,4d03505a28926ea83fe664c2,Cape Town,Parow
85,7551,Eat@Altydgedacht,7070,Restaurant,-33.847325908631674,18.624847393741074,4d1dc5e4f7a9a143cc2a139f,Cape Town,Parow
86,7441,Milnerton Golf Club,9481,Golf Course,-33.875475232638976,18.489646911621094,4b4e096cf964a52022df26e3,Cape Town,Parow
87,8001,Hotel Verde,7932,Hotel,-33.97363377690457,18.592063833655832,50ffb5f9e4b063786621a304,Cape Town,Parow
88,,Yummy zone,5461,Sushi Restaurant,-33.87633671030918,18.636945057877476,4f47cbeae4b0683d4ec88271,Cape Town,Parow
89,,Dunkin',2856,Donut Shop,-33.894818,18.55745,5801c3f1d67ce46c9aeaf7cc,Cape Town,Parow
90,7441,Mike's Kitchen,8539,Steakhouse,-33.87908356722952,18.498939156201306,4cde713370bba1cd2a5160c4,Cape Town,Parow
91,7490,Woolworths,7511,Convenience Store,-33.969524609997976,18.59630748167494,4be83cba88ed2d7f399dcb1d,Cape Town,Parow
92,,Dale's Black Angus,9027,Steakhouse,-33.86181694908843,18.502439674374855,4ba65460f964a520fe4639e3,Cape Town,Parow
93,,Woolworths Food,9385,Grocery Store,-33.856709034831155,18.67222186215664,4cd039c648b837047a1cf1de,Cape Town,Parow
94,7490,Slow Lounge,7540,Airport Lounge,-33.96967159008419,18.597444062216145,4c74aeb7d8948cfa47cc65da,Cape Town,Parow
95,,Golden Dish Halaal Take Aways Gatesville,8854,Fast Food Restaurant,-33.96848524576277,18.533412477379233,4cc2e1aa01fb236a1db6a1ba,Cape Town,Parow
96,,Checkers,7885,Supermarket,-33.84103854760453,18.544521013495704,4d404c9faae1b1f7d89f85f5,Cape Town,Parow
97,7430,Woolworths,7850,Grocery Store,-33.93296595484921,18.510300720215746,4ba3a4dcf964a5204b4f38e3,Cape Town,Parow
98,,Pick 'n Pay,5489,Grocery Store,-33.873319535551154,18.63482902784354,4d5944ebfe7c224b902276b5,Cape Town,Parow
99,,Wembley Roadhouse,9676,Burger Joint,-33.9654294220003,18.514660415192708,4bc870bc14d79521910669e9,Cape Town,Parow
0,,The Olive Bistro,1035,Gastropub,-33.83118824137428,18.651800219788324,509631b1e4b0cb1b32536eb7,Cape Town,Durbanville
1,7550,Cattle Baron,1152,Steakhouse,-33.83008157677166,18.651610845286047,4c1de818b306c928534866b7,Cape Town,Durbanville
2,,Alberto's Restaurant and Pub,1538,Restaurant,-33.82647111693134,18.64860625666377,4be9a0a8a9900f479f8d1540,Cape Town,Durbanville
3,7530,Food Lover's Market,3376,Supermarket,-33.86715641,18.63250875,4b920d17f964a52018e533e3,Cape Town,Durbanville
4,7357,SPAR Vredekloof,3700,Convenience Store,-33.85910914,18.68242682,4e873445b634c60eee3f5178,Cape Town,Durbanville
5,,Ou Meul Bakkery,3730,Café,-33.87021614866072,18.631309514987937,535e1616498e6c5d20a1a50d,Cape Town,Durbanville
6,,Die Boer,1128,Music Venue,-33.830183572547405,18.6505284571695,4c1b5218013795210ddb46f3,Cape Town,Durbanville
7,,D's Speakeasy,957,Pub,-33.83209368358392,18.646245724366526,4f0d6c0de4b01660dc7720d1,Cape Town,Durbanville
8,,Jerry's Burger Bar,3823,Burger Joint,-33.8714383391959,18.632033320080712,56740de3498e17815dc6b777,Cape Town,Durbanville
9,,Glen Garry Shopping Centre,2780,Shopping Mall,-33.856768467010056,18.672027477890293,4d7e10fe9df3f04d7b61bd94,Cape Town,Durbanville
10,,Virgin Active Health Club,4214,Gym,-33.84982643441175,18.69355802745639,4c5459c71b46c9b65be171ce,Cape Town,Durbanville
11,8001,Col'Cacchio,3727,Pizza Place,-33.8702433912994,18.631449919945567,4dcd25eb3151a1df1e492bb8,Cape Town,Durbanville
12,,IMAX,4608,Multiplex,-33.85234358648886,18.697125080276752,5497085c498e9c88a8273b51,Cape Town,Durbanville
13,,Ke Monate Restaurant,4185,Tapas Restaurant,-33.82026274508434,18.61112289388409,4df3b5bed22d8c5470ded047,Cape Town,Durbanville
14,7550,Vida e café,1075,Café,-33.83064109948833,18.6485429499513,54a8ff61498ea66986616438,Cape Town,Durbanville
15,7550,Sonstraal Spar,2445,Department Store,-33.83644834721606,18.67549288424508,4ba266dcf964a5203ff537e3,Cape Town,Durbanville
16,,Woolworths Food,2789,Grocery Store,-33.856709034831155,18.67222186215664,4cd039c648b837047a1cf1de,Cape Town,Durbanville
17,,Woolworths,4129,Department Store,-33.87543188038071,18.635184907982232,4c7e63d1b53db1f7b1ce9f11,Cape Town,Durbanville
18,,Vida E Caffè,4599,Café,-33.8800206224521,18.63583157110421,53884c6d498e39acdc8e2ea0,Cape Town,Durbanville
19,7530,Virgin Active Health Club,4372,Gym,-33.87719041759904,18.63327861060014,4c41a7cb3735be9a23b218a4,Cape Town,Durbanville
20,7530,The Hussar Grill,3857,Steakhouse,-33.871559155849695,18.631494164475622,4c14b2afa1010f4796d54c18,Cape Town,Durbanville
21,7560,Woolworths Cape Gate,4552,Department Store,-33.85282412048405,18.696314967231444,4bd68b36cfa7b71326c827da,Cape Town,Durbanville
22,,Woolworths Palm Grove,738,Grocery Store,-33.83378313206032,18.647833639496014,4be1a45542e8c928fa783406,Cape Town,Durbanville
23,7551,Meerendal Wine Estate,5143,Vineyard,-33.79892468879846,18.6246427901898,4cd54631122ba143e5d32aa1,Cape Town,Durbanville
24,7550,The Vineyard Deli,2854,Deli / Bodega,-33.86229975596597,18.63363076849041,4c7b79422d3ba143031394d0,Cape Town,Durbanville
25,,Woolworths Food Welgemoed Forum,4723,Food & Drink Shop,-33.873952901088266,18.618354055896813,4c9a3b579c663704afe456fd,Cape Town,Durbanville
26,,Barnyard Theatre,3661,Theater,-33.869612720588414,18.631518900102332,4bf2dd43e5eba593a9e51d90,Cape Town,Durbanville
27,,Orms Pro Photo Warehouse North,4841,Electronics Store,-33.882375076737276,18.63626648785036,4c9757097605199caf20c8a3,Cape Town,Durbanville
28,7530,M-Kem,5506,Pharmacy,-33.88830814540221,18.635206236908818,4ba20672f964a520ffd637e3,Cape Town,Durbanville
29,,Dutch Haven,3218,Bistro,-33.86820249934682,18.64043011687884,5395908a498edbdef876c6f3,Cape Town,Durbanville
30,,Bossa Nova,1203,American Restaurant,-33.82946538513488,18.64949452333092,4d6bccaa87b9548100cdc5dd,Cape Town,Durbanville
31,,Boston Coffee,6431,Coffee Shop,-33.89318606691485,18.62150184480991,54926e1f498e89679bdd2a49,Cape Town,Durbanville
32,7530,Vida e Caffè,3725,Coffee Shop,-33.87021238718739,18.631425073283964,4b73c2acf964a520eaba2de3,Cape Town,Durbanville
33,7551,Eat@Altydgedacht,2405,Restaurant,-33.847325908631674,18.624847393741074,4d1dc5e4f7a9a143cc2a139f,Cape Town,Durbanville
34,7550,"Ruslamere Guest House, Spa and Conference Centre",1774,Bed & Breakfast,-33.82957873326731,18.663676520312194,4bd74d5b304fce720d5833ab,Cape Town,Durbanville
35,,Willowbridge Shopping Centre,3749,Shopping Mall,-33.87052642449106,18.63159260952991,4b827722f964a52008d430e3,Cape Town,Durbanville
36,7530,Mugg & Bean,3842,Coffee Shop,-33.872795,18.635484,4ba7a4cef964a52081a539e3,Cape Town,Durbanville
37,,D'Aria Wine Farm,3680,Winery,-33.841377373098695,18.609662131179853,4c5ff1df12e5c92872fd1d4c,Cape Town,Durbanville
38,7550,Silver Creek Spur,866,Breakfast Spot,-33.83266883428387,18.6474581940829,4c45cc57f799e21eaab0afa2,Cape Town,Durbanville
39,,Soet,1078,Café,-33.83061660787478,18.648525552691485,4f87eaa7e4b05ae887639584,Cape Town,Durbanville
40,7530,Exclusive Books,3875,Bookstore,-33.872596249011494,18.633854984543508,4cd6908f122ba1431d7e33a1,Cape Town,Durbanville
41,,Ocean Basket Glen Garry,2774,Seafood Restaurant,-33.857484402592135,18.671161490355473,4d0f8b9bd467236a46bdbe4a,Cape Town,Durbanville
42,,Vida E Caffe,4058,Coffee Shop,-33.87467483208203,18.634894570475733,4f45ee72e4b07d8af2efc171,Cape Town,Durbanville
43,7550,Durbanville Golf Course,1100,Golf Course,-33.83495857600362,18.659472011023176,4b8d6233f964a5207cf832e3,Cape Town,Durbanville
44,,Limnos Bakery,4926,Bakery,-33.88292471301843,18.635199240909177,4ba85f7bf964a52079d839e3,Cape Town,Durbanville
45,7551,SPAR,1847,Supermarket,-33.83348749,18.63121193,4c7bb25097028cfab98be1fe,Cape Town,Durbanville
46,7500,Pick 'n Pay,7646,Supermarket,-33.86557648309723,18.572547316620064,4c5c22a19b28d13aaedd5570,Cape Town,Durbanville
47,,Durbanville Hills Wine Estate,7960,Vineyard,-33.824714047473826,18.565417553766203,4be7bfe7e1b39521f22121c1,Cape Town,Durbanville
48,,Yuz Sushi,4608,Sushi Restaurant,-33.88008035580786,18.635715593392188,4dc19693b0fb1c18ee67094d,Cape Town,Durbanville
49,,Slug And Lettuce,869,Steakhouse,-33.83292198978405,18.646268665951144,5256f5a211d2857ca3662556,Cape Town,Durbanville
50,,Arugula Bistro & Bread,4713,Restaurant,-33.8739241137782,18.61848919084369,4f7ea198e4b077c1807d3e4f,Cape Town,Durbanville
51,7530,Tyger Waterfront,4458,Office,-33.876702988162556,18.629400662289278,4bcc70a80687ef3b5433dfcc,Cape Town,Durbanville
52,,De Oude Welgemoed Restaurant,4595,Pizza Place,-33.87043028504159,18.615483843164842,4e7d7dd69a521ffdaa4e03ea,Cape Town,Durbanville
53,7536,Cattle Baron Grill House,4585,Steakhouse,-33.87873,18.63165,4daf12894df0f639f2595242,Cape Town,Durbanville
54,7500,SPAR,7554,Grocery Store,-33.873954,18.578498,4c5c37b7fff99c74ea2f33d3,Cape Town,Durbanville
55,7550,Virgin Active Health Club,992,Gym,-33.831549399923496,18.64723235867574,4d13181affa1224b3ff59dad,Cape Town,Durbanville
56,,Pick n Pay Hypermarket,5917,Shopping Mall,-33.883470291100515,18.68676670197481,4cbab08ebac93704636fed7c,Cape Town,Durbanville
57,,Sir Loin,4277,Steakhouse,-33.85073803372924,18.69395837879709,54bf7da7498ec4a8eb923636,Cape Town,Durbanville
58,,Makro,4232,Warehouse Store,-33.84838903943432,18.694167944790212,4fc8b163e4b03a05d4a5d3b7,Cape Town,Durbanville
59,7560,Panda's Chinese Restaurant & Takeaway,7587,Chinese Restaurant,-33.883005376249976,18.71339979497272,4c56f7827329c928f1bd8d80,Cape Town,Durbanville
60,7530,Tyger Valley Centre,3876,Shopping Mall,-33.8726891648905,18.634115104706325,4b45b6a9f964a5207f0f26e3,Cape Town,Durbanville
61,,Cape Gate Spar,4232,Supermarket,-33.85084756588376,18.693422068737316,4cebd46ff8653704e8fcc4c4,Cape Town,Durbanville
62,,Bossa Social Cafe & Bar,4306,Cocktail Bar,-33.875031632145934,18.628989754192688,514de7ace4b08621ab8d3b9f,Cape Town,Durbanville
63,,Checkers,2591,Convenience Store,-33.843976964481364,18.677121952643528,4c9164ccb641236abe4d8179,Cape Town,Durbanville
64,7530,Burger Fair,7068,Fast Food Restaurant,-33.90377171056637,18.648757309119112,4c599205d3aee21ebf7d6855,Cape Town,Durbanville
65,7560,Capegate Shopping Centre,4361,Shopping Mall,-33.85126197,18.69472219,4dae8c71cda1ea0bb0406103,Cape Town,Durbanville
66,,Greens,7649,Italian Restaurant,-33.86508531544863,18.57228084634829,4cd514f794848cfa1810e4b1,Cape Town,Durbanville
67,,Copper Club Eatery,4434,Burger Joint,-33.876739501953125,18.6301326751709,564dfed8498ee48b0efd5236,Cape Town,Durbanville
68,,Yummy zone,4177,Sushi Restaurant,-33.87633671030918,18.636945057877476,4f47cbeae4b0683d4ec88271,Cape Town,Durbanville
69,,Checkers,3496,Grocery Store,-33.86784230906674,18.631309359614175,4c7cf12faa3ba093c0faab74,Cape Town,Durbanville
70,,Pick 'n Pay,3918,Grocery Store,-33.873319535551154,18.63482902784354,4d5944ebfe7c224b902276b5,Cape Town,Durbanville
71,,Stodels Nursery,3953,Flower Shop,-33.87330488198107,18.665180904242263,4bb89d56b35776b0c709c901,Cape Town,Durbanville
72,7550,Bella Bellota Durbanville,1196,Sports Bar,-33.82953206671463,18.649671840572978,4edcf3987ee5e8e3e9db39a7,Cape Town,Durbanville
73,,Tygerberg hill,6509,Scenic Lookout,-33.889035792645,18.610560895385028,4f2252cbe4b083187463a574,Cape Town,Durbanville
74,7551,Tables At Nitida,5251,Tea Room,-33.83500462160035,18.593007589549188,4d7cc665da568cfab63c6cff,Cape Town,Durbanville
75,,Yang yangs,4856,Chinese Restaurant,-33.882451720499006,18.662901767670377,4dd69e367d8b322663db5ac3,Cape Town,Durbanville
76,,Burger King,3870,Fast Food Restaurant,-33.8725596386889,18.633881763727175,51bb5519498e92fc734b7166,Cape Town,Durbanville
77,,Klein Roosboom,7366,Vineyard,-33.818472283924294,18.574234326409268,4e4100741f6e54050be48b20,Cape Town,Durbanville
78,,Bunker Bar & Restaurant,8930,Bar,-33.84267461097129,18.552899779345044,4c94e032f7cfa1cdd3c0b715,Cape Town,Durbanville
79,,Cape Garden Centre,8221,Garden Center,-33.8335186724196,18.73798439947587,4bb71344f562ef3b93013197,Cape Town,Durbanville
80,7530,Silver Spur,6072,Breakfast Spot,-33.8923636547782,18.629902200687045,4d4c48201ae437042ceef260,Cape Town,Durbanville
81,7500,Nando's,7744,Portuguese Restaurant,-33.8653561,18.5713068,4e08c3b114959022c89e7f19,Cape Town,Durbanville
82,,Pinehurst Centre,3393,Convenience Store,-33.832757753000315,18.685008574072572,52dbab3b498e836131d0640d,Cape Town,Durbanville
83,,Plattekloof Hill,7806,Scenic Lookout,-33.88478598775065,18.584178742919338,4c4c6a7f712ac92874a64d6e,Cape Town,Durbanville
84,7570,Checkers Okavango Crossing,4252,Supermarket,-33.83924361063571,18.695421621626735,598895e6e96d0c565386bffc,Cape Town,Durbanville
85,7500,Cattle Baron Grill House,7588,Steakhouse,-33.87438415378863,18.578369278223168,4c9b9f1e78ffa0933acf7675,Cape Town,Durbanville
86,7530,Poplars Restaurant,3725,Restaurant,-33.84091089468405,18.609162331567475,4b5163d8f964a520504c27e3,Cape Town,Durbanville
87,,Checkers,9701,Supermarket,-33.84103854760453,18.544521013495704,4d404c9faae1b1f7d89f85f5,Cape Town,Durbanville
88,,Woolworths Food,7681,Grocery Store,-33.86590089943587,18.57229471818825,4da9ae7c93a04642f06c0c91,Cape Town,Durbanville
89,,Schoongezicht Restaurant,8560,Restaurant,-33.89551347506501,18.713881203158177,4d7bd13bda568cfa320959ff,Cape Town,Durbanville
90,7500,Plattekloof Village,7681,Shopping Mall,-33.86550518109846,18.57210157785989,4bf844d7c07c9c74cccfbbef,Cape Town,Durbanville
91,7550,Checkers Durbanville,1050,Grocery Store,-33.83094287365553,18.647743287291053,4d1ca104c17ff04d1230c841,Cape Town,Durbanville
92,,Chocolat Café Decor,1108,Coffee Shop,-33.83042095098909,18.647732299566467,4bcec422cc8cd13aecd1c4cf,Cape Town,Durbanville
93,,Cobble Walk,2614,Shopping Mall,-33.84392872937349,18.677382931754114,4b587e2af964a5205e5a28e3,Cape Town,Durbanville
94,7538,Tygerberg Nature Reserve,6147,Other Great Outdoors,-33.87621300146079,18.598946713553726,4d0def263bbaa1431efa3fda,Cape Town,Durbanville
95,7551,Mugg & Bean,752,Coffee Shop,-33.8336878,18.6476441,4c7e2c3fd461a143ae2d7ff5,Cape Town,Durbanville
96,,Bamboo Garden Restaurant,8209,Restaurant,-33.833485,18.737852,4ee352322c5b5fc6cb42554c,Cape Town,Durbanville
97,7441,Total,9708,Gas Station,-33.837201,18.544514,4bd8299d35aad13a342e90f3,Cape Town,Durbanville
98,7463,Cafe Fino,10000,Restaurant,-33.89165199025316,18.56068865282671,4c552bab728920a15cbef083,Cape Town,Durbanville
99,7551,Wimpy,1010,Burger Joint,-33.831468,18.646806,4e9ac9fa4901d3b0b70dbf86,Cape Town,Durbanville
0,7945,Surfer's Corner,1269,Surf Spot,-34.09522809448751,18.47125034420314,4bae1e87f964a520c5863be3,Cape Town,Muizenberg
1,7975,Muizenberg Beach,1740,Beach,-34.10839345928985,18.47074270248413,4b48476af964a520024b26e3,Cape Town,Muizenberg
2,,St James Beach,3337,Beach,-34.11895264257002,18.45895678725493,4bc1802c461576b0bd197c32,Cape Town,Muizenberg
3,7950,Empire Cafe,1873,Breakfast Spot,-34.107972156221784,18.468434197990824,4b3b3760f964a520827125e3,Cape Town,Muizenberg
4,7945,Blue Bird Garage Market,1551,Market,-34.10360358507214,18.469333948690874,4d026faa60e737047dbbe9aa,Cape Town,Muizenberg
5,,Lifestyle surfshop,1818,Sporting Goods Shop,-34.10819990330887,18.46940715234569,4d402b041bd2a1433c32f07c,Cape Town,Muizenberg
6,,Earth Fair Food Market,3478,Food Court,-34.07458216371472,18.459441771696007,4b6d4383f964a5202b6e2ce3,Cape Town,Muizenberg
7,7945,Tiger's Milk,1812,Restaurant,-34.10813515003985,18.469427056534016,5496ae79498edf459cbf7752,Cape Town,Muizenberg
8,7945,Lorenzo Marx,674,Coffee Shop,-34.09420320453125,18.490519583454553,4ffd3826e4b07c449d5a533f,Cape Town,Muizenberg
9,,Blue Bird Garage,1544,Flea Market,-34.10363106884729,18.469441173452026,4cd43858536654812f8c2bed,Cape Town,Muizenberg
10,7946,Gaslight Cafe,1829,Café,-34.10813193253958,18.469186897368544,4d6c88817585b1f7f1a30fd5,Cape Town,Muizenberg
11,,Muizenberg Flea Market,694,Flea Market,-34.102981917653054,18.48040848620249,4ba5ec1ef964a520692939e3,Cape Town,Muizenberg
12,7945,Virgin Active Health Club,4536,Gym,-34.079491801424744,18.4407149297338,4b62d9e8f964a52082552ae3,Cape Town,Muizenberg
13,7945,Primi Piatti,1791,Italian Restaurant,-34.107922,18.469512,52bbf8c7498efe0dfd38a0a6,Cape Town,Muizenberg
14,,Sunrise Beach,667,Beach,-34.10337168015757,18.48189815610369,4e0b3e9acc3f0e8737cad9f0,Cape Town,Muizenberg
15,,Lucky Fish & Chips,1755,Fish & Chips Shop,-34.10803582123931,18.470134906343823,5131ee3de4b0d7075de227ba,Cape Town,Muizenberg
16,,Harbour House,4829,Seafood Restaurant,-34.12976088091904,18.449190503592668,4b8d3f85f964a520beef32e3,Cape Town,Muizenberg
17,,Stoked Backpackers,1992,Hostel,-34.109012104182455,18.46778422421026,50ed26ace4b009bc96318c6f,Cape Town,Muizenberg
18,,Casa labia,2245,Italian Restaurant,-34.11117971566934,18.466393148985166,4c3c49d27f49c9b64f9e6be3,Cape Town,Muizenberg
19,,Clovelly Country Club,5906,Golf Course,-34.12240533754671,18.427856241487753,4c43fec7f0bdd13acdffc8cc,Cape Town,Muizenberg
20,7990,Olympia Café & Deli,4729,Café,-34.12763948370044,18.44809931608288,4bb5b6f7ef159c74defe74f7,Cape Town,Muizenberg
21,7806,Food Lover's Market,4574,Grocery Store,-34.06308886,18.45814393,4eec8036e3002155925590fc,Cape Town,Muizenberg
22,,Steenberg Vineyards,6242,Vineyard,-34.075247202420954,18.422678380261956,4b77dab9f964a52072ac2ee3,Cape Town,Muizenberg
23,7137,Mugg & Bean,4794,Coffee Shop,-34.06372284322648,18.452896706350316,4f79a0d5e4b0290a8d5f0e23,Cape Town,Muizenberg
24,,Checkers,1766,Supermarket,-34.10640308148272,18.46853482754417,4bfe3d9b4cf820a12794edf4,Cape Town,Muizenberg
25,,Fish Hoek Beach,6377,Beach,-34.13711698645851,18.43428611755371,4b6d405af964a5209f6d2ce3,Cape Town,Muizenberg
26,7945,Italian Kitchen,4497,Italian Restaurant,-34.06564341054294,18.455176939383563,4cb341fcc939721ecd94b69e,Cape Town,Muizenberg
27,,Kalk Bay Theatre,4361,Theater,-34.12513501360191,18.45071293308603,4e076806fa767637fd2aa43b,Cape Town,Muizenberg
28,,Satori,4451,Italian Restaurant,-34.12583167270657,18.450174721957595,4bc0ca9aabf49521cce2bf93,Cape Town,Muizenberg
29,7975,Brass Bell,4433,Seafood Restaurant,-34.1260837751392,18.450760496894603,4b9a969df964a5200cc435e3,Cape Town,Muizenberg
30,,Woolworths,4974,Grocery Store,-34.05325587775988,18.48844234546059,4e5bba22fa76d2b00c2aa239,Cape Town,Muizenberg
31,7945,Bistro Sixteen 82,6243,Tapas Restaurant,-34.075271470667516,18.422651677374514,4d2893d46e27a143577c1b24,Cape Town,Muizenberg
32,,Jakes in the Village,5676,Restaurant,-34.07167544846586,18.431803543450386,4c3960d72c8020a141b28c00,Cape Town,Muizenberg
33,7990,Live Bait,4806,Seafood Restaurant,-34.12957421200364,18.449310489892156,4c8cac9acf3ea143e55ff751,Cape Town,Muizenberg
34,,Steenberg Golf Estate,6232,Golf Course,-34.068601634885304,18.427004857749132,5346a0cd498ebf915b59e043,Cape Town,Muizenberg
35,,Bootlegger Coffee Company Kalk Bay,4664,Coffee Shop,-34.12710187453033,18.44844990437463,56e6b34f498ea4e7695a6895,Cape Town,Muizenberg
36,,Col'Cacchio,4719,Pizza Place,-34.07975739111847,18.43834295157505,4fcc6654e4b0ff719b4052a0,Cape Town,Muizenberg
37,7975,Fish Hoek Fisheries,6468,Seafood Restaurant,-34.13626448054778,18.432016968727112,4c4f15abdb2c20a15b4d7875,Cape Town,Muizenberg
38,,Bombay Chilli,1640,Indian Restaurant,-34.107145817636194,18.470861997936513,4d92eedb5cf5236a3c4c57a3,Cape Town,Muizenberg
39,7945,Blue Route Mall,4801,Shopping Mall,-34.06348966,18.4531473,4b67d329f964a520a35e2be3,Cape Town,Muizenberg
40,7947,Red! The Cafe,5614,Café,-34.073142012776664,18.43155546553403,4ca4c38cf832a1cd23dea8e5,Cape Town,Muizenberg
41,,Silvermine,6071,Trail,-34.08147414149445,18.421823743513997,4c4954166f1420a1d6337655,Cape Town,Muizenberg
42,7945,Societi Brasserie,6119,French Restaurant,-34.06185059965357,18.434468829257106,4f608553e4b066d8c523ca36,Cape Town,Muizenberg
43,,Cape Point Vineyards,8979,Winery,-34.09390996592579,18.387361413973743,4c8b985252a98cfa044137e9,Cape Town,Muizenberg
44,,Lekker Kalk Bay,4522,Café,-34.1261992776905,18.44953582177628,5468ab48498e9e5bff922a03,Cape Town,Muizenberg
45,,Strandfontein Beach,5708,Beach,-34.08682641013807,18.54514249775139,4e6b58d27d8b143eb77f77f4,Cape Town,Muizenberg
46,,Kalky's,4795,Fish & Chips Shop,-34.12909241881944,18.448862701973347,4c3c5b6a17f2ef3bb50281f4,Cape Town,Muizenberg
47,,Catharina's,6224,Restaurant,-34.071290523250276,18.42523647743298,4cc78765303476b08b47e16b,Cape Town,Muizenberg
48,,The Hussar Grill,5596,Steakhouse,-34.072764591885225,18.432034723794146,500bd8dae4b0938453816dd2,Cape Town,Muizenberg
49,,Vida E Caffè,5656,Coffee Shop,-34.07191095429251,18.4318781202244,4de0bd22d164e323c7b3bcc8,Cape Town,Muizenberg
50,,Jakura Sushi Express,4839,Sushi Restaurant,-34.06326994203368,18.45280727430767,4f535fd7e4b0d3a8f5b5a88a,Cape Town,Muizenberg
51,,Foxcroft,9597,Restaurant,-34.024477597523365,18.42996804626562,58133d5838facfbae3ffc781,Cape Town,Muizenberg
52,7848,Groot Constantia,9633,Vineyard,-34.02717850143701,18.42433830632882,4ba721b1f964a5204b8239e3,Cape Town,Muizenberg
53,7945,The Toad on the Road,3136,Pub,-34.08355073423844,18.45533155108234,4c62fc4dec94a593dda52aca,Cape Town,Muizenberg
54,,Buitenverwachting,8854,Winery,-34.04179215550021,18.416503750809646,4bee8a4035dc0f475feb3f5b,Cape Town,Muizenberg
55,,Noordhoek Farm Village,9854,Food & Drink Shop,-34.097280774538184,18.37775731916412,4c67a184e1da1b8d06b79ec3,Cape Town,Muizenberg
56,,The Courtyard Café,4349,English Restaurant,-34.12511628813233,18.45087724236054,55d829bc498e9c6d184f7f21,Cape Town,Muizenberg
57,7806,Engen,7953,Gas Station,-34.033625,18.446818,4c95d9d0f7cfa1cd2f46c115,Cape Town,Muizenberg
58,7975,Bhandaris,6918,Indian Restaurant,-34.14038928605399,18.429946303367615,4d04555890762d43989ff18a,Cape Town,Muizenberg
59,7945,Westlake Lifestyle Centre,4723,Shopping Mall,-34.079775783285996,18.438283034622874,4c8600d5d34ca14381e14b80,Cape Town,Muizenberg
60,7979,Foodbarn Bakery & Deli,9811,Café,-34.09717281206906,18.378222276431988,4b77181af964a520bd7c2ee3,Cape Town,Muizenberg
61,,The Clubhouse (Claremont Cricket Club),9466,Restaurant,-34.01714214389348,18.45223927579875,51ce0afe498e39695aa1a142,Cape Town,Muizenberg
62,7945,Steenberg Village,5612,Shopping Mall,-34.07228072477731,18.432175618273483,4c9dac918afca0933e57f915,Cape Town,Muizenberg
63,South Africa,Klein Constantia,9326,Vineyard,-34.038674652783,18.413035210446868,4bdd4a8f645e0f47af3c6b19,Cape Town,Muizenberg
64,7806,tashas,9282,Café,-34.021547130493666,18.443997138039865,4daaa4d7fa8cc764973a0d2d,Cape Town,Muizenberg
65,,Silvermine - Noordhoek Circuit,5426,Trail,-34.08168032561065,18.429114416627403,4d579afa36d1721e911dedb1,Cape Town,Muizenberg
66,,Alphen Boutique Hotel,9974,Hotel,-34.0127536874346,18.450722800295225,4f155b83754a4f43c496f10d,Cape Town,Muizenberg
67,,Cattle Baron,4473,Steakhouse,-34.064781014093285,18.45705173523311,4c49ca02a3ace21e8560163c,Cape Town,Muizenberg
68,,Chardonnay Deli,9509,Bakery,-34.0247225279904,18.43131671720546,56078ca9498e57199c66d34c,Cape Town,Muizenberg
69,8000,Chilled Market at The Range,7967,Market,-34.04977719554031,18.420623209145997,4c0b405ca1b32d7f2fd79af0,Cape Town,Muizenberg
70,,5 Rooms,9979,Restaurant,-34.012628340655645,18.45098736401353,4f155d1c754a4f43c497231d,Cape Town,Muizenberg
71,,Constantia Uitsig Wine Farm,9642,Winery,-34.027325091779645,18.423910088816413,4cc95701bfe1f04d13280d75,Cape Town,Muizenberg
72,7806,Virgin Active Health Club,9332,Gym,-34.018676095908376,18.451303488767806,4b4c2e53f964a52057af26e3,Cape Town,Muizenberg
73,,"Rose Bar, Alphen Hotel.",9964,Hotel Bar,-34.01285836164276,18.45068771729077,4eece0be0aaf1d45b13b7175,Cape Town,Muizenberg
74,,High Tea,9528,Tea Room,-34.014422,18.461421,4c3827ac2c8020a1ff688a00,Cape Town,Muizenberg
75,,Woolworths,9226,Grocery Store,-34.0216929568688,18.445114243787696,4bd2cf71046076b0769f7471,Cape Town,Muizenberg
76,7800,Constantia Village Shopping Centre,9248,Shopping Mall,-34.0215593808089,18.44487856327051,4b8fd7a9f964a520076533e3,Cape Town,Muizenberg
77,7979,African Queen Guesthouse,9600,Bed & Breakfast,-34.110707,18.381667,4d16f67fbb64224b254fbd65,Cape Town,Muizenberg
78,,Cafe Roux,9852,Café,-34.097369021847044,18.377776739166148,4bab53c2f964a520d0a03ae3,Cape Town,Muizenberg
79,,Scratch Patch & Mineral World,9811,Jewelry Store,-34.171470206138544,18.4261517651053,4b769cdbf964a52079542ee3,Cape Town,Muizenberg
80,7848,Jonkershuis Restaurant,9619,Restaurant,-34.03071406873821,18.41894095683067,4b76fcdbf964a520cb712ee3,Cape Town,Muizenberg
81,,Little Stream Constantia,9097,Breakfast Spot,-34.03742558328065,18.418208956718445,4e214e2718a88345f04a4270,Cape Town,Muizenberg
82,7848,Open Door,7855,Restaurant,-34.047953267194536,18.424385313690156,55b27b4d498e035e658dcd9d,Cape Town,Muizenberg
83,,The Village Roast,9872,Coffee Shop,-34.09691,18.377568,564da03a498ec6dcb47f1b53,Cape Town,Muizenberg
84,,Checkers - Sun Valley,9144,Convenience Store,-34.120989545467474,18.389463843043384,56791208498e05d5b379baad,Cape Town,Muizenberg
85,,High Constantia Wine farm,9682,Winery,-34.025364617923074,18.42659337937037,4d493ba383eda1cdaa17a6b1,Cape Town,Muizenberg
86,7975,The Toad,9823,Gastropub,-34.09741952075786,18.378090323759757,4c0b97296071a5931e6fe132,Cape Town,Muizenberg
87,,Virgin Active Sun Valley,9165,Gym / Fitness Center,-34.121833678901694,18.389535864597967,565981dd498e8316335be62c,Cape Town,Muizenberg
88,7975,Food Lover's Market,9428,Fruit & Vegetable Store,-34.12373922435551,18.387258646073867,4fafb485c2ee519be3781d5d,Cape Town,Muizenberg
89,,Dixie's,8897,Café,-34.16449661461802,18.431384784703965,4be5be7b8a8cb713716ac4a0,Cape Town,Muizenberg
90,7975,Glencairn Beach,8428,Beach,-34.159572091310196,18.431721925735474,4c8b95ec1556bfb751260293,Cape Town,Muizenberg
91,7975,STOEP+SWING,8603,Pub,-34.16032670644627,18.429737091064453,4fccd8e07b0cbd800b0e87e4,Cape Town,Muizenberg
92,7975,Longbeach Mall,9332,Shopping Mall,-34.12407686,18.38848975,4b655967f964a52014ee2ae3,Cape Town,Muizenberg
93,7975,Ocean Basket (Longbeach Mall),9469,Seafood Restaurant,-34.12368901949499,18.386778831481934,4c78ff0bdbaa76b0b446184b,Cape Town,Muizenberg
94,,Sun Valley Mall,8996,Shopping Mall,-34.122237375949354,18.391602144031264,4f58b5a8e4b032fce6518966,Cape Town,Muizenberg
95,7975,SPAR,7027,Grocery Store,-34.13270067,18.42109237,4c833b871b63b7130a629204,Cape Town,Muizenberg
96,,Glencairn,8232,Outdoors & Recreation,-34.15701512603394,18.431096486511873,4e564c431495eb38e205cf9f,Cape Town,Muizenberg
97,7800,Shell,8068,Gas Station,-34.03397338,18.52604519,4e710431b99302402c91a208,Cape Town,Muizenberg
98,,"Simon's, Groot Constantia",9655,French Restaurant,-34.03120357482775,18.417613065669027,4c4b3e985609c9b6814edf90,Cape Town,Muizenberg
99,7975,Woolworths,9406,Department Store,-34.12434152674115,18.387746136207994,4c78fe2cdbaa76b02dff174b,Cape Town,Muizenberg
0,,Fish Hoek Beach,877,Beach,-34.13711698645851,18.43428611755371,4b6d405af964a5209f6d2ce3,Cape Town,Fish Hoek
1,,Clovelly Country Club,1764,Golf Course,-34.12240533754671,18.427856241487753,4c43fec7f0bdd13acdffc8cc,Cape Town,Fish Hoek
2,7975,Fish Hoek Fisheries,691,Seafood Restaurant,-34.13626448054778,18.432016968727112,4c4f15abdb2c20a15b4d7875,Cape Town,Fish Hoek
3,,Harbour House,2427,Seafood Restaurant,-34.12976088091904,18.449190503592668,4b8d3f85f964a520beef32e3,Cape Town,Fish Hoek
4,,St James Beach,3796,Beach,-34.11895264257002,18.45895678725493,4bc1802c461576b0bd197c32,Cape Town,Fish Hoek
5,7990,Olympia Café & Deli,2437,Café,-34.12763948370044,18.44809931608288,4bb5b6f7ef159c74defe74f7,Cape Town,Fish Hoek
6,7975,Bhandaris,538,Indian Restaurant,-34.14038928605399,18.429946303367615,4d04555890762d43989ff18a,Cape Town,Fish Hoek
7,,Kalk Bay Theatre,2785,Theater,-34.12513501360191,18.45071293308603,4e076806fa767637fd2aa43b,Cape Town,Fish Hoek
8,,Satori,2702,Italian Restaurant,-34.12583167270657,18.450174721957595,4bc0ca9aabf49521cce2bf93,Cape Town,Fish Hoek
9,7975,Muizenberg Beach,5367,Beach,-34.10839345928985,18.47074270248413,4b48476af964a520024b26e3,Cape Town,Fish Hoek
10,7975,Brass Bell,2735,Seafood Restaurant,-34.1260837751392,18.450760496894603,4b9a969df964a5200cc435e3,Cape Town,Fish Hoek
11,7990,Live Bait,2445,Seafood Restaurant,-34.12957421200364,18.449310489892156,4c8cac9acf3ea143e55ff751,Cape Town,Fish Hoek
12,,Cape Point Vineyards,6006,Winery,-34.09390996592579,18.387361413973743,4c8b985252a98cfa044137e9,Cape Town,Fish Hoek
13,,Bootlegger Coffee Company Kalk Bay,2494,Coffee Shop,-34.12710187453033,18.44844990437463,56e6b34f498ea4e7695a6895,Cape Town,Fish Hoek
14,7945,Surfer's Corner,6405,Surf Spot,-34.09522809448751,18.47125034420314,4bae1e87f964a520c5863be3,Cape Town,Fish Hoek
15,7985,Blue Water Cafe,6801,Café,-34.14200249326332,18.351158119751712,4c2873ac9fb5d13adc899957,Cape Town,Fish Hoek
16,,Kalky's,2428,Fish & Chips Shop,-34.12909241881944,18.448862701973347,4c3c5b6a17f2ef3bb50281f4,Cape Town,Fish Hoek
17,,Noordhoek Farm Village,6278,Food & Drink Shop,-34.097280774538184,18.37775731916412,4c67a184e1da1b8d06b79ec3,Cape Town,Fish Hoek
18,,The Lighthouse Cafe,6163,Café,-34.193163993654586,18.43135689901424,514d8bffe4b091940a1725ea,Cape Town,Fish Hoek
19,,Monocle & Mermaid,6197,Café,-34.193270586211405,18.433466871660144,545e3eca498e7ab0f02e0435,Cape Town,Fish Hoek
20,,Imhoff Farm,6826,Farm,-34.1425613638341,18.3509427192012,4bc1dbbc461576b0a4657c32,Cape Town,Fish Hoek
21,,Lekker Kalk Bay,2631,Café,-34.1261992776905,18.44953582177628,5468ab48498e9e5bff922a03,Cape Town,Fish Hoek
22,,Boulders Beach Penguin Colony,6771,Nature Preserve,-34.195546333030784,18.448848691874005,53d51cb2498ecbe059fa78ff,Cape Town,Fish Hoek
23,7945,Virgin Active Health Club,6681,Gym,-34.079491801424744,18.4407149297338,4b62d9e8f964a52082552ae3,Cape Town,Fish Hoek
24,7950,Empire Cafe,5230,Breakfast Spot,-34.107972156221784,18.468434197990824,4b3b3760f964a520827125e3,Cape Town,Fish Hoek
25,,Steenberg Vineyards,6994,Vineyard,-34.075247202420954,18.422678380261956,4b77dab9f964a52072ac2ee3,Cape Town,Fish Hoek
26,,Scratch Patch & Mineral World,3721,Jewelry Store,-34.171470206138544,18.4261517651053,4b769cdbf964a52079542ee3,Cape Town,Fish Hoek
27,7979,Foodbarn Bakery & Deli,6257,Café,-34.09717281206906,18.378222276431988,4b77181af964a520bd7c2ee3,Cape Town,Fish Hoek
28,,Boulders Visitor Centre,6815,National Park,-34.19579104287583,18.449448564624124,4db95b8a0437609120ffe738,Cape Town,Fish Hoek
29,,Lifestyle surfshop,5284,Sporting Goods Shop,-34.10819990330887,18.46940715234569,4d402b041bd2a1433c32f07c,Cape Town,Fish Hoek
30,,Noordhoek Beach (Long Beach),7176,Beach,-34.11308368121179,18.353036642074585,4cbafea4352ebfb757c88df2,Cape Town,Fish Hoek
31,7945,Tiger's Milk,5290,Restaurant,-34.10813515003985,18.469427056534016,5496ae79498edf459cbf7752,Cape Town,Fish Hoek
32,7975,Misty Cliffs,7760,Beach,-34.18558,18.363195,4d0b289e5f86f04df35ccaa0,Cape Town,Fish Hoek
33,,Easy Dig Cafe,4349,Café,-34.13342134198026,18.377955495720176,4e41007a8877f7a2cf2ad407,Cape Town,Fish Hoek
34,7979,African Queen Guesthouse,5008,Bed & Breakfast,-34.110707,18.381667,4d16f67fbb64224b254fbd65,Cape Town,Fish Hoek
35,7945,Blue Bird Garage Market,5615,Market,-34.10360358507214,18.469333948690874,4d026faa60e737047dbbe9aa,Cape Town,Fish Hoek
36,7945,Bistro Sixteen 82,6991,Tapas Restaurant,-34.075271470667516,18.422651677374514,4d2893d46e27a143577c1b24,Cape Town,Fish Hoek
37,7946,Gaslight Cafe,5273,Café,-34.10813193253958,18.469186897368544,4d6c88817585b1f7f1a30fd5,Cape Town,Fish Hoek
38,7975,Jakes On The Common,6654,Restaurant,-34.09691,18.372455,5a54a1efd0a149596b0833b1,Cape Town,Fish Hoek
39,,Earth Fair Food Market,7752,Food Court,-34.07458216371472,18.459441771696007,4b6d4383f964a5202b6e2ce3,Cape Town,Fish Hoek
40,7872,Chapman’s Peak View Point,9215,Scenic Lookout,-34.0776385285169,18.356480598449703,4ba4c2bcf964a52082b238e3,Cape Town,Fish Hoek
41,7945,Primi Piatti,5311,Italian Restaurant,-34.107922,18.469512,52bbf8c7498efe0dfd38a0a6,Cape Town,Fish Hoek
42,,Casa labia,4860,Italian Restaurant,-34.11117971566934,18.466393148985166,4c3c49d27f49c9b64f9e6be3,Cape Town,Fish Hoek
43,,Silvermine,6304,Trail,-34.08147414149445,18.421823743513997,4c4954166f1420a1d6337655,Cape Town,Fish Hoek
44,,The Courtyard Café,2799,English Restaurant,-34.12511628813233,18.45087724236054,55d829bc498e9c6d184f7f21,Cape Town,Fish Hoek
45,7872,Chapman’s Peak Drive,9003,Road,-34.07773,18.359758,4ba21ffff964a5207bdd37e3,Cape Town,Fish Hoek
46,,Checkers - Sun Valley,3772,Convenience Store,-34.120989545467474,18.389463843043384,56791208498e05d5b379baad,Cape Town,Fish Hoek
47,,Blue Bird Garage,5620,Flea Market,-34.10363106884729,18.469441173452026,4cd43858536654812f8c2bed,Cape Town,Fish Hoek
48,,The Sweetest Thing,6157,Café,-34.19317047351982,18.430551826674225,4bbb4de63db7b713a626249a,Cape Town,Fish Hoek
49,,Lucky Fish & Chips,5347,Fish & Chips Shop,-34.10803582123931,18.470134906343823,5131ee3de4b0d7075de227ba,Cape Town,Fish Hoek
50,,"Long Beach, Kommetjie",8837,Beach,-34.13759879452593,18.328913258642434,4ed9dd710aaf49e028eeb1b8,Cape Town,Fish Hoek
51,,Stoked Backpackers,5110,Hostel,-34.109012104182455,18.46778422421026,50ed26ace4b009bc96318c6f,Cape Town,Fish Hoek
52,,Cafe Roux,6270,Café,-34.097369021847044,18.377776739166148,4bab53c2f964a520d0a03ae3,Cape Town,Fish Hoek
53,,Steenberg Golf Estate,7734,Golf Course,-34.068601634885304,18.427004857749132,5346a0cd498ebf915b59e043,Cape Town,Fish Hoek
54,,Jakes in the Village,7417,Restaurant,-34.07167544846586,18.431803543450386,4c3960d72c8020a141b28c00,Cape Town,Fish Hoek
55,7975,Whole Earth Café,7960,Coffee Shop,-34.195824,18.373886,56c4559bcd10703f0af4a35b,Cape Town,Fish Hoek
56,,Virgin Active Sun Valley,3719,Gym / Fitness Center,-34.121833678901694,18.389535864597967,565981dd498e8316335be62c,Cape Town,Fish Hoek
57,7975,Kommetjie,9091,Other Great Outdoors,-34.14044027926942,18.326201775976404,4c91274eb641236aad1d7f79,Cape Town,Fish Hoek
58,7975,Scarborough Beach,8457,Beach,-34.200231793710266,18.372058868408203,4d9dc7287509b1f7198c48a0,Cape Town,Fish Hoek
59,,Col'Cacchio,6608,Pizza Place,-34.07975739111847,18.43834295157505,4fcc6654e4b0ff719b4052a0,Cape Town,Fish Hoek
60,,The Hub Café,7996,Coffee Shop,-34.196884,18.37501,511f71b2e4b093807a2caa12,Cape Town,Fish Hoek
61,,Witsands Beach,7871,Surf Spot,-34.176804398835216,18.353351173429033,51333d0fe4b041d1d7791643,Cape Town,Fish Hoek
62,7947,Red! The Cafe,7252,Café,-34.073142012776664,18.43155546553403,4ca4c38cf832a1cd23dea8e5,Cape Town,Fish Hoek
63,,Checkers,5351,Supermarket,-34.10640308148272,18.46853482754417,4bfe3d9b4cf820a12794edf4,Cape Town,Fish Hoek
64,7137,Mugg & Bean,8669,Coffee Shop,-34.06372284322648,18.452896706350316,4f79a0d5e4b0290a8d5f0e23,Cape Town,Fish Hoek
65,,Catharina's,7432,Restaurant,-34.071290523250276,18.42523647743298,4cc78765303476b08b47e16b,Cape Town,Fish Hoek
66,,The Village Roast,6320,Coffee Shop,-34.09691,18.377568,564da03a498ec6dcb47f1b53,Cape Town,Fish Hoek
67,7806,Tintswalo Atlantic,9676,Hotel,-34.06487215178444,18.36817502975464,4bd8b2452ecdce72e8ecd0f2,Cape Town,Fish Hoek
68,,Muizenberg Flea Market,6440,Flea Market,-34.102981917653054,18.48040848620249,4ba5ec1ef964a520692939e3,Cape Town,Fish Hoek
69,7806,Food Lover's Market,8892,Grocery Store,-34.06308886,18.45814393,4eec8036e3002155925590fc,Cape Town,Fish Hoek
70,7945,Italian Kitchen,8532,Italian Restaurant,-34.06564341054294,18.455176939383563,4cb341fcc939721ecd94b69e,Cape Town,Fish Hoek
71,7975,Food Lover's Market,3811,Fruit & Vegetable Store,-34.12373922435551,18.387258646073867,4fafb485c2ee519be3781d5d,Cape Town,Fish Hoek
72,,Saveur Restaurant,6146,Seafood Restaurant,-34.19291152621334,18.432391332695282,54ad0e2b498ed6d6c86153cc,Cape Town,Fish Hoek
73,,Sunrise Beach,6524,Beach,-34.10337168015757,18.48189815610369,4e0b3e9acc3f0e8737cad9f0,Cape Town,Fish Hoek
74,7945,Societi Brasserie,8529,French Restaurant,-34.06185059965357,18.434468829257106,4f608553e4b066d8c523ca36,Cape Town,Fish Hoek
75,,Fishermans kommetjie,9181,Pizza Place,-34.14099206053979,18.325237698591238,4c77c874a5676dcb6ea31921,Cape Town,Fish Hoek
76,,The Hussar Grill,7298,Steakhouse,-34.072764591885225,18.432034723794146,500bd8dae4b0938453816dd2,Cape Town,Fish Hoek
77,7975,The Toad,6246,Gastropub,-34.09741952075786,18.378090323759757,4c0b97296071a5931e6fe132,Cape Town,Fish Hoek
78,,Vida E Caffè,7391,Coffee Shop,-34.07191095429251,18.4318781202244,4de0bd22d164e323c7b3bcc8,Cape Town,Fish Hoek
79,,Dixie's,3004,Café,-34.16449661461802,18.431384784703965,4be5be7b8a8cb713716ac4a0,Cape Town,Fish Hoek
80,7945,Lorenzo Marx,7777,Coffee Shop,-34.09420320453125,18.490519583454553,4ffd3826e4b07c449d5a533f,Cape Town,Fish Hoek
81,,Silvermine - Noordhoek Circuit,6288,Trail,-34.08168032561065,18.429114416627403,4d579afa36d1721e911dedb1,Cape Town,Fish Hoek
82,,Bombay Chilli,5462,Indian Restaurant,-34.107145817636194,18.470861997936513,4d92eedb5cf5236a3c4c57a3,Cape Town,Fish Hoek
83,7975,Glencairn Beach,2477,Beach,-34.159572091310196,18.431721925735474,4c8b95ec1556bfb751260293,Cape Town,Fish Hoek
84,7945,Blue Route Mall,8701,Shopping Mall,-34.06348966,18.4531473,4b67d329f964a520a35e2be3,Cape Town,Fish Hoek
85,7975,STOEP+SWING,2520,Pub,-34.16032670644627,18.429737091064453,4fccd8e07b0cbd800b0e87e4,Cape Town,Fish Hoek
86,7976,Kommetjie Lighthouse (Slangkop),9797,Lighthouse,-34.14755003014829,18.31910451698595,4c8c90caf87e224b763d3605,Cape Town,Fish Hoek
87,7945,Bootlegger Coffee Company,8524,Coffee Shop,-34.06194260891006,18.43502667391246,5801d52d38fab67ef433b6da,Cape Town,Fish Hoek
88,7945,Westlake Lifestyle Centre,6605,Shopping Mall,-34.079775783285996,18.438283034622874,4c8600d5d34ca14381e14b80,Cape Town,Fish Hoek
89,7945,Steenberg Village,7353,Shopping Mall,-34.07228072477731,18.432175618273483,4c9dac918afca0933e57f915,Cape Town,Fish Hoek
90,,Cafe Penguino,6656,Café,-34.1949229059806,18.447179133720603,4dbabba55da389d2c24222f7,Cape Town,Fish Hoek
91,,The Meeting Place,6180,Café,-34.19325413010905,18.43200765819856,4baf22c5f964a52011ed3be3,Cape Town,Fish Hoek
92,7979,The Red Herring,7160,Seafood Restaurant,-34.09846078017669,18.363597472331122,4b487cc3f964a5202a4e26e3,Cape Town,Fish Hoek
93,7945,The Toad on the Road,6687,Pub,-34.08355073423844,18.45533155108234,4c62fc4dec94a593dda52aca,Cape Town,Fish Hoek
94,8000,Chilled Market at The Range,9834,Market,-34.04977719554031,18.420623209145997,4c0b405ca1b32d7f2fd79af0,Cape Town,Fish Hoek
95,,Monkey Valley Beach Nature Resort,7639,Resort,-34.09673324082768,18.35864160047971,4bcf6d9f0ffdce72fa77b2c0,Cape Town,Fish Hoek
96,,Seaforth Restaurant,6587,Seafood Restaurant,-34.194252484070304,18.447247741595962,4ba6430cf964a520454039e3,Cape Town,Fish Hoek
97,,Jakura Sushi Express,8715,Sushi Restaurant,-34.06326994203368,18.45280727430767,4f535fd7e4b0d3a8f5b5a88a,Cape Town,Fish Hoek
98,7975,Simonstown Country Club,7556,Golf Course,-34.201633782131665,18.453583926840274,4d22f441dd6a236a39c64b38,Cape Town,Fish Hoek
99,7975,Longbeach Mall,3692,Shopping Mall,-34.12407686,18.38848975,4b655967f964a52014ee2ae3,Cape Town,Fish Hoek
0,7441,Crystal Towers Hotel And Spa,1963,Hotel,-33.89467847050529,18.507091694258406,4c8ad1491797236a5d646588,Cape Town,Milnerton
1,7441,Canal Walk Shopping Centre,1985,Shopping Mall,-33.89277543,18.5106671,4ca599d2931bb60ceb628be2,Cape Town,Milnerton
2,7441,"Hirsch's, Milnerton",1905,Furniture / Home Store,-33.86542597855876,18.50822636470787,4f76f436e4b0d69368a4f1fa,Cape Town,Milnerton
3,7441,Spar,1987,Supermarket,-33.86252636594114,18.50326431433342,4c1215e3b2510f47bbf5c398,Cape Town,Milnerton
4,7441,Woolworths,2113,Clothing Store,-33.89445445563076,18.510398178868137,4b7c1c94f964a520977d2fe3,Cape Town,Milnerton
5,7441,"Sunset Beach, Cape Town, South Africa.",3451,Beach,-33.848755689381015,18.4911000516807,508cc33d8acae8b2f7b39cba,Cape Town,Milnerton
6,7925,Espresso Lab Microroasters,6457,Coffee Shop,-33.92737067543962,18.457009014445408,4ba9e287f964a520183c3ae3,Cape Town,Milnerton
7,7925,The Pot Luck Club & Gallery,6444,Tapas Restaurant,-33.927463,18.457429,4efe0f19e5faf2869a1156c1,Cape Town,Milnerton
8,7925,The Old Biscuit Mill,6448,Market,-33.92749713628417,18.457415051797437,4b5a3b1bf964a52013b628e3,Cape Town,Milnerton
9,7441,Bloubergstrand,6670,Beach,-33.821986004705934,18.475924730300903,4ea409bce3008f7d92bdf195,Cape Town,Milnerton
10,,The Test Kitchen,6464,Restaurant,-33.927422678167645,18.45696173744514,4cf68fc8e308236ab6e3e6ac,Cape Town,Milnerton
11,7915,Rosetta Roastery,7031,Coffee Shop,-33.92670585996497,18.445895047082622,4c77b3f16981bfb7de7a66e6,Cape Town,Milnerton
12,7441,Petiscos,6804,Portuguese Restaurant,-33.818320765542495,18.496332379148896,4c3cbda4a97bbe9a71eefadd,Cape Town,Milnerton
13,,Magica Roma,6758,Italian Restaurant,-33.94014855148352,18.497787490194014,4b97fb2ff964a520e12335e3,Cape Town,Milnerton
14,7925,Woodstock Brewery,6623,Brewery,-33.92729377150171,18.453770970512487,57906662498ed25e200c17fd,Cape Town,Milnerton
15,,Cape Town Waterfront,7374,Waterfront,-33.90256792953086,18.4216046333313,53b95629498e28001d79d8de,Cape Town,Milnerton
16,,Neighbourgoods Market,6423,Flea Market,-33.9274569558459,18.457826180599668,4e550332636510eb2e0e0683,Cape Town,Milnerton
17,8000,Victoria Wharf,7504,Shopping Mall,-33.90361868916433,18.42057466506958,518d2e42498e2a0a96297fb0,Cape Town,Milnerton
18,,360 Specialized Training,7751,Gym,-33.93063297914655,18.439516160921674,4d6d2f3bfbf0a093ec91fc8c,Cape Town,Milnerton
19,8001,The Silo Hotel,7545,Hotel,-33.90851199761666,18.42262145365408,582334fb03399c2dc117d903,Cape Town,Milnerton
20,8000,The Deli Woodstock,7573,Breakfast Spot,-33.92773321883452,18.43864551481081,4c383fdfdfb0e21ef447aea8,Cape Town,Milnerton
21,,Virgin Active Foreshore,7424,Gym / Fitness Center,-33.91784923671407,18.430691895051158,5766b8aecd100453bf08c5ab,Cape Town,Milnerton
22,7500,Pick 'n Pay,7206,Supermarket,-33.86557648309723,18.572547316620064,4c5c22a19b28d13aaedd5570,Cape Town,Milnerton
23,7925,Saucisse Deli,6460,Deli / Bodega,-33.927383554093446,18.456980966220513,4eae7baa9911d5c951b3cc06,Cape Town,Milnerton
24,,The Table Bay Hotel - Lounge,7338,Hotel,-33.903146643778044,18.42228120940016,4d1dffece56f6ea8359d601d,Cape Town,Milnerton
25,8001,V&A Waterfront,7591,Waterfront,-33.90462006045022,18.42003876929211,4b43b4bff964a52014e725e3,Cape Town,Milnerton
26,,Watershed,7857,Market,-33.907116168436936,18.41816228150922,54429072498e71ae5f3585e7,Cape Town,Milnerton
27,,Woodstock Foundry,6794,Event Space,-33.92699097754226,18.450274887434205,4fd5dcade4b02bbdc692ed95,Cape Town,Milnerton
28,8000,Artscape Theatre,7638,Theater,-33.919537048903365,18.429297381456607,4b5342ebf964a520b69427e3,Cape Town,Milnerton
29,,Willoughby & Co,7403,Seafood Restaurant,-33.90274474798387,18.421349961573604,4b4dd523f964a520e4d826e3,Cape Town,Milnerton
30,,Salisburys,7270,Deli / Bodega,-33.933360708670065,18.451980701512788,4ff0360ce4b0cf66726cb6cb,Cape Town,Milnerton
31,8001,V&A Food Market,7718,Food Court,-33.90650559309629,18.419482196082676,50db0a96e4b091e327ee8b89,Cape Town,Milnerton
32,8002,Nespresso Boutique,7572,Coffee Shop,-33.90400574458095,18.4199671423334,4c3df4c5b8b4be9aab74cbef,Cape Town,Milnerton
33,,Queen Victoria Hotel,7781,Hotel,-33.906414832225394,18.41869917650755,4db467ca6a23c31a0316b57b,Cape Town,Milnerton
34,,homespun by Matt,6747,Bistro,-33.820993,18.477056,54ecbc34498e1d5c9acf8c4c,Cape Town,Milnerton
35,,Woolworths,7469,Grocery Store,-33.813069234500155,18.50824375519443,4cd2e7883e0c8cfa01991a12,Cape Town,Milnerton
36,,Carlucci's,6518,Deli / Bodega,-33.822993080476266,18.477664271196033,4b6bf84ef964a520d31d2ce3,Cape Town,Milnerton
37,8001,Tribe Coffee,6798,Coffee Shop,-33.92727272520289,18.450634898426785,51695769e4b04fc89096589a,Cape Town,Milnerton
38,8001,One&Only Cape Town,8070,Resort,-33.908668541891046,18.416461381779996,4b700ea8f964a52041052de3,Cape Town,Milnerton
39,8001,The Kitchen,7612,Deli / Bodega,-33.927670975915085,18.43796609977646,4b694555f964a520549d2be3,Cape Town,Milnerton
40,8001,Market on the Wharf,7724,Food & Drink Shop,-33.90653532494537,18.41942407578934,50be24e5e4b0c7b81c3a7eca,Cape Town,Milnerton
41,7439,Killarney Race Track,6960,Racetrack,-33.823226491519684,18.529344843701054,4b8a6e75f964a520896c32e3,Cape Town,Milnerton
42,,Cooked,7854,Coffee Shop,-33.907122797849084,18.41820533520213,566da475498ed2e93de35c6c,Cape Town,Milnerton
43,7441,Pakalolo Beach Bar,6793,Café,-33.820772495250196,18.476160331661177,4c6cf10299b9236a91e5e3c9,Cape Town,Milnerton
44,8001,Fugard Theatre,8512,Theater,-33.92717880771957,18.424410697680713,4bcede8d29d4b7132923a9dc,Cape Town,Milnerton
45,,Devil's Peak Brewing Company (The Taproom),6935,Brewery,-33.93408429796424,18.460315591431804,51ebca525019fb668b6311d9,Cape Town,Milnerton
46,8005,Pigalle,8261,Seafood Restaurant,-33.913161220900925,18.4167439564029,4bc0aaf8abf495217098bf93,Cape Town,Milnerton
47,7925,1890 House Sushi,7104,Sushi Restaurant,-33.93920394799666,18.46938616433879,4b50cf03f964a520563327e3,Cape Town,Milnerton
48,8001,Origin Coffee Roasting,8402,Coffee Shop,-33.91716850036462,18.417625794294572,4b66dc61f964a520bf2d2be3,Cape Town,Milnerton
49,8001,City Hall,8421,City Hall,-33.92518468373031,18.423782589572202,4b6b08e2f964a5202aee2be3,Cape Town,Milnerton
50,8005,Truth Coffee HQ,8705,Café,-33.92828568736539,18.4227945872331,4fa0c477e4b0c33ec64258bf,Cape Town,Milnerton
51,,Giovanni's Deliworld,8608,Bakery,-33.90782184808231,18.409727517755517,4b51863af964a520ed4e27e3,Cape Town,Milnerton
52,8000,The Gin Bar,8764,Cocktail Bar,-33.92273288691907,18.417150034224644,54d63408498e31d1e8e09e57,Cape Town,Milnerton
53,,The Book Lounge,8856,Bookstore,-33.92930614229909,18.42168843738291,4b9e4a4cf964a5209dd736e3,Cape Town,Milnerton
54,8001,Aces 'n Spades,8462,Bar,-33.92138527642458,18.42000551633646,502e9348e4b047efecff0430,Cape Town,Milnerton
55,8051,Jason Bakery,8521,Bakery,-33.90814555679022,18.410891348801574,5a2cf00b35f9833b4ce7d183,Cape Town,Milnerton
56,,New York Bagel,8594,Bagel Shop,-33.92812216330304,18.42418736238842,54350aca498e511cba960528,Cape Town,Milnerton
57,,Durbanville Hills Wine Estate,8822,Vineyard,-33.824714047473826,18.565417553766203,4be7bfe7e1b39521f22121c1,Cape Town,Milnerton
58,8001,Skinny laMinx,9138,Furniture / Home Store,-33.924987260907464,18.4140944480896,502c9a5d067d5b50e0ba9eb8,Cape Town,Milnerton
59,8000,Jason Bakery,9083,Bakery,-33.92453842563379,18.414449223651683,4d9580ed454edcb39969b76a,Cape Town,Milnerton
60,8000,Honest Chocolate Café,8764,Café,-33.92273011702641,18.417155985817132,54955dc0498e505982e2a598,Cape Town,Milnerton
61,8051,Green Point Urban Park,9174,Park,-33.90555738278987,18.40221851536896,4d9dc1d6c593a1cdef2b6719,Cape Town,Milnerton
62,7441,West Coast Village,8388,Shopping Mall,-33.804736540353176,18.484487865439,4cde757bffcf3704ada91282,Cape Town,Milnerton
63,8000,Yourstruly,8870,Coffee Shop,-33.92431943340237,18.417055746248256,4cd50dac8e5b6a317f1b74ac,Cape Town,Milnerton
64,7441,Makro,4423,Warehouse Store,-33.84691203,18.52387319,4c53f8af30f92d7ff40ca9b9,Cape Town,Milnerton
65,,"Food Lovers, The Towers",7752,Food Court,-33.91945851147964,18.427718198510565,565c25fa498e1d3da85ed493,Cape Town,Milnerton
66,,Woolworths,5595,Grocery Store,-33.82992685638026,18.506803681676164,5409bbf3498e4dc94adf2b32,Cape Town,Milnerton
67,,Signal Hill,9684,Hill,-33.91790703224613,18.402374981837013,4b5c6f27f964a520a72f29e3,Cape Town,Milnerton
68,8001,Kloof Street House,9491,African Restaurant,-33.92830450158452,18.412193932450084,54a88b5c498e72e47a96233f,Cape Town,Milnerton
69,7700,Common Ground Cafe,8900,Coffee Shop,-33.958918134385584,18.485833059887966,4b613990f964a520680d2ae3,Cape Town,Milnerton
70,8001,Deluxe Coffeeworks,9309,Coffee Shop,-33.933453,18.419453,50123ab3e4b0f8ec77991df4,Cape Town,Milnerton
71,8005,Spar,8269,Supermarket,-33.91537412,18.41805674,4bf7e2078d30d13a70a4ff17,Cape Town,Milnerton
72,8001,The Labia Theatre,9586,Movie Theater,-33.93005356692247,18.412439146653224,4b5f1604f964a52054a529e3,Cape Town,Milnerton
73,,Green Point Lighthouse,9241,Lighthouse,-33.90140139307377,18.399943113327026,4c2da6ffe307d13ac02f0eda,Cape Town,Milnerton
74,8001,Unframed Ice Cream,9527,Ice Cream Shop,-33.928688015760294,18.41204556956696,57a20081498ee7342127f5a5,Cape Town,Milnerton
75,,Lazari,9572,Coffee Shop,-33.93654883554059,18.41892041751815,4b52e2baf964a520f38927e3,Cape Town,Milnerton
76,,Blackheath Lodge,9740,Bed & Breakfast,-33.910203631646795,18.39769676782069,4cd87a9551fc8cfaf9c0e95d,Cape Town,Milnerton
77,7700,Baxter Theatre Centre,8943,Theater,-33.95685529195213,18.470461381924636,4b606099f964a5208fe229e3,Cape Town,Milnerton
78,,The Hussar Grill,9183,Steakhouse,-33.95913577409004,18.470667502960097,4baa6dbff964a52040693ae3,Cape Town,Milnerton
79,8001,Manna Bay Hotel,9794,Hotel,-33.93952258892155,18.41893185813734,4c6bfabcf2846dcb9f9161e9,Cape Town,Milnerton
80,,Checkers,6170,Supermarket,-33.84103854760453,18.544521013495704,4d404c9faae1b1f7d89f85f5,Cape Town,Milnerton
81,7441,Blue Peter Hotel,9893,Hotel,-33.7963080032204,18.458549384025293,4b913292f964a52067a933e3,Cape Town,Milnerton
82,8001,The Woodlands Eatery,9924,Restaurant,-33.94273219110706,18.420726666080128,4cf53141e3b9a09353cf5253,Cape Town,Milnerton
83,,Checkers Hyper Sandown,8927,Grocery Store,-33.799380179441116,18.502038884179257,4f7d7ccce4b0015bec86da32,Cape Town,Milnerton
84,,Carlyles on Derry,9147,Italian Restaurant,-33.93820497433491,18.4271792991525,4b8aa345f964a520ba7632e3,Cape Town,Milnerton
85,,Red Sofa Café,9146,Café,-33.93828862711474,18.42729461516383,4f6ed2a1e4b03b3f3aa6d710,Cape Town,Milnerton
86,,Spar,9162,Grocery Store,-33.939172045822914,18.428155074247798,4bdc39bf3904a5938a3f4d9e,Cape Town,Milnerton
87,7441,On The Rocks,9450,Seafood Restaurant,-33.80056884781584,18.458583040300184,4c1e23f0b306c928018b66b7,Cape Town,Milnerton
88,,Con brio bistro,9905,Bistro,-33.94261356121708,18.420867506165916,54aeb3ea498e6c137a1eef1a,Cape Town,Milnerton
89,7441,Ons Huisie,9553,Café,-33.799491358314334,18.458840371147637,4beea2882c082d7f609f3042,Cape Town,Milnerton
90,,Disa Park,9614,Park,-33.94257996134075,18.42536812333259,4cad04e6f47ea143de659621,Cape Town,Milnerton
91,8001,Deerpark Café,9916,Café,-33.94251952418289,18.42059707602663,4b606cabf964a5202ae529e3,Cape Town,Milnerton
92,,Boat To Robben Island,7276,Boat or Ferry,-33.867386147116974,18.419007197526422,52d3940411d20cfd68fb08ac,Cape Town,Milnerton
93,,Red Sofa,9157,Video Store,-33.938404176843015,18.427271449638397,4c5aeff3f346c928c53c50ca,Cape Town,Milnerton
94,7441,The Sir David Boutique Guest House,9724,Hotel,-33.79753358820623,18.45982074737549,4def280d8130e9f08f55a6da,Cape Town,Milnerton
0,,Maynardville Open-Air Theatre,326,Performing Arts Venue,-34.005308220034564,18.464357228788796,4b616a99f964a520ce122ae3,Cape Town,Wynberg
1,7745,Banana Jam Café,1213,Café,-33.99431919793371,18.47410211095662,4b618730f964a520e8162ae3,Cape Town,Wynberg
2,7700,Caffé Verdi,522,Bar,-34.0068535637128,18.463146324434174,4c49ae9920ab1b8dcc081b17,Cape Town,Wynberg
3,,Bardelli's,1196,Italian Restaurant,-33.994635644435895,18.474363144940966,4b6692b0f964a52082242be3,Cape Town,Wynberg
4,7700,Vineyard Hotel & Spa,2864,Hotel,-33.97889774917507,18.45864753172221,4b58b75ff964a520296728e3,Cape Town,Wynberg
5,,Four and Twenty Cafe,504,Café,-34.00678605841462,18.463326452769397,5184d993498e26edec1cba6f,Cape Town,Wynberg
6,7708,Café Nood,1984,Café,-33.98580607680458,18.467898891567305,4c7df1d5d6543704d0fbc1a2,Cape Town,Wynberg
7,7745,Borusso's,912,Pizza Place,-33.99552605470877,18.468744110769986,4b43b6daf964a52061e725e3,Cape Town,Wynberg
8,7806,The Cellars-Hohenort,3012,Hotel,-34.00117903608329,18.434744198604566,4bc77cee93bdeee1ad6f37ae,Cape Town,Wynberg
9,7700,Kirstenbosch Botanical Gardens,3516,Botanical Garden,-33.98845,18.433832,4b5acf4df964a520a7d528e3,Cape Town,Wynberg
10,,Alphen Boutique Hotel,1832,Hotel,-34.0127536874346,18.450722800295225,4f155b83754a4f43c496f10d,Cape Town,Wynberg
11,7700,PPC Newlands Cricket Ground,3341,Cricket Ground,-33.97364000769796,18.468891292223844,4b76e43ff964a520c0672ee3,Cape Town,Wynberg
12,,Coimbra,2516,Bakery,-33.98383760567953,18.480435383396674,4d2f1fddad3a8cfa94d49abd,Cape Town,Wynberg
13,7700,Myoga Restaurant,2866,Molecular Gastronomy Restaurant,-33.978947398597484,18.45837116337005,4beafcb262c0c928688ce1d4,Cape Town,Wynberg
14,,The Clubhouse (Claremont Cricket Club),2045,Restaurant,-34.01714214389348,18.45223927579875,51ce0afe498e39695aa1a142,Cape Town,Wynberg
15,7708,Starlings,2950,Café,-33.98010016249804,18.481971629322206,4b87b2c7f964a520a8c731e3,Cape Town,Wynberg
16,,Newlands Forest,3984,Forest,-33.970869424576335,18.449845578052983,4bc1a989461576b04d387c32,Cape Town,Wynberg
17,,5 Rooms,1804,Restaurant,-34.012628340655645,18.45098736401353,4f155d1c754a4f43c497231d,Cape Town,Wynberg
18,7700,Arderne's Public Gardens,1850,Garden,-33.98706035241606,18.46558169101036,4ca72acd8a65bfb7d9ca2c22,Cape Town,Wynberg
19,7700,Sports Science Institute of South Africa,3541,Athletics & Sports,-33.9718160897948,18.467723838115923,4b9773b7f964a520460435e3,Cape Town,Wynberg
20,7708,Bootlegger Coffee Company,856,Coffee Shop,-33.99604277171098,18.468850326813346,558bdf32498e9eae96599488,Cape Town,Wynberg
21,7700,Newlands Rugby Stadium,3672,Stadium,-33.970645947055424,18.468375432867685,4b8003f6f964a520e04a30e3,Cape Town,Wynberg
22,7700,Barristers Restaurant,3155,Pub,-33.9760788026674,18.45916801747441,4b6166fbf964a52047122ae3,Cape Town,Wynberg
23,7700,Centenary Tree Canopy Walkway (Boomslang),3739,Scenic Lookout,-33.98971393494955,18.43036590802954,537f466c498ea5ac200c2f3a,Cape Town,Wynberg
24,,Gardener's Cottage,3847,Café,-33.97009824275582,18.45709964654482,4ba4d504f964a52020b938e3,Cape Town,Wynberg
25,,"Rose Bar, Alphen Hotel.",1841,Hotel Bar,-34.01285836164276,18.45068771729077,4eece0be0aaf1d45b13b7175,Cape Town,Wynberg
26,,Woolies/Engen Claremont,2988,Deli / Bodega,-33.976877450133486,18.464527846306005,4e4f62a3b61cf637a4f4ae2b,Cape Town,Wynberg
27,,High Tea,1316,Tea Room,-34.014422,18.461421,4c3827ac2c8020a1ff688a00,Cape Town,Wynberg
28,,Seattle Coffee Company,2608,Coffee Shop,-33.980407293205026,18.46344146590923,4bc0defcf8219c74b260b210,Cape Town,Wynberg
29,7800,The Greenhouse Restaurant,3010,Restaurant,-34.002616862777884,18.434650897979736,505acea716483cef8e2e990e,Cape Town,Wynberg
30,,Western Province Cricket Club,3650,Athletics & Sports,-33.973314276669406,18.48235027507474,4d048a2a347da1cd317a2c8f,Cape Town,Wynberg
31,7725,Rock Sushi Thai,3597,Sushi Restaurant,-33.971419,18.463961,4fff0248e4b02b4ef99aeaf4,Cape Town,Wynberg
32,,Foxcroft,4150,Restaurant,-34.024477597523365,18.42996804626562,58133d5838facfbae3ffc781,Cape Town,Wynberg
33,,Da Vinci's,1990,Pizza Place,-33.98671681863663,18.474265995870812,4b61f19df964a520952c2ae3,Cape Town,Wynberg
34,7945,Cecilia Forest,3810,Trail,-33.99879273410581,18.426373151708557,4bf8fb03bb5176b0787e5bb2,Cape Town,Wynberg
35,7700,Sushi Box,3186,Sushi Restaurant,-33.97578392951175,18.459242575303588,4fb26e66e4b0f1afb50a79dd,Cape Town,Wynberg
36,7700,Woolworths,2548,Grocery Store,-33.980732443671116,18.467354015743894,4cdad6f622bd721e4cfcf147,Cape Town,Wynberg
37,7806,tashas,2929,Café,-34.021547130493666,18.443997138039865,4daaa4d7fa8cc764973a0d2d,Cape Town,Wynberg
38,7806,Virgin Active Health Club,2229,Gym,-34.018676095908376,18.451303488767806,4b4c2e53f964a52057af26e3,Cape Town,Wynberg
39,7708,Hamachi,2301,Dim Sum Restaurant,-33.98295929970321,18.466430121313536,4b50506ef964a5204e2027e3,Cape Town,Wynberg
40,7848,Groot Constantia,4748,Vineyard,-34.02717850143701,18.42433830632882,4ba721b1f964a5204b8239e3,Cape Town,Wynberg
41,7700,The Creamery Cafe,3639,Ice Cream Shop,-33.971058874901914,18.463730671075314,5231645e11d22e05eb92a2e8,Cape Town,Wynberg
42,7806,Greenhouse Restaurant Constantia,3023,Modern European Restaurant,-34.001990256200216,18.434542176845472,4d54502d48ea6ea8490bc9a3,Cape Town,Wynberg
43,8000,Constantia Nek,5753,Trail,-34.01197422977392,18.405724540516747,4dfc5de145ddebdfeaaa520f,Cape Town,Wynberg
44,,Morituri,2089,Italian Restaurant,-33.984884187786676,18.46594467331987,4b8825bbf964a52003e331e3,Cape Town,Wynberg
45,,Eagles Nest,5073,Vineyard,-34.01613573763241,18.414384507845693,4cc2ee5bbde8f04d3689a14b,Cape Town,Wynberg
46,,The Square,2870,Restaurant,-33.97883120305438,18.458706750141214,4bf032c81f17ef3b86be9bc8,Cape Town,Wynberg
47,7708,Liquor City,2788,Liquor Store,-33.978633118656234,18.469297024839673,4dbd8a7e43a1d8504ba7b6f8,Cape Town,Wynberg
48,7700,Common Ground Cafe,5264,Coffee Shop,-33.958918134385584,18.485833059887966,4b613990f964a520680d2ae3,Cape Town,Wynberg
49,,The Kirstenbosch Tea Room,3776,Café,-33.986906482406184,18.431649981846576,4ba75ab2f964a520b38d39e3,Cape Town,Wynberg
50,,Hudsons - The Burger Joint,2800,Burger Joint,-33.97876827654758,18.462553350293586,4ede0ca77ee5f354d50339fd,Cape Town,Wynberg
51,,Woolworths,2866,Grocery Store,-34.0216929568688,18.445114243787696,4bd2cf71046076b0769f7471,Cape Town,Wynberg
52,,The Hussar Grill,4962,Steakhouse,-33.95913577409004,18.470667502960097,4baa6dbff964a52040693ae3,Cape Town,Wynberg
53,7700,Bihari Indian Restaurant,3130,Indian Restaurant,-33.975558740658336,18.465078641942583,4bf10fa61f17ef3ba6e19bc8,Cape Town,Wynberg
54,7800,Constantia Village Shopping Centre,2871,Shopping Mall,-34.0215593808089,18.44487856327051,4b8fd7a9f964a520076533e3,Cape Town,Wynberg
55,,Chardonnay Deli,4063,Bakery,-34.0247225279904,18.43131671720546,56078ca9498e57199c66d34c,Cape Town,Wynberg
56,,Wijnhuis,3132,Wine Bar,-33.97632537686328,18.459036289223658,4b9927bcf964a520536535e3,Cape Town,Wynberg
57,7800,Super Spar,1919,Supermarket,-33.98980046,18.47967359,4b587bd9f964a520ea5928e3,Cape Town,Wynberg
58,,Beau Constantia,5722,Vineyard,-34.01368991788687,18.40643450696454,4ed330666c2510ace43b61bb,Cape Town,Wynberg
59,7806,Engen,3834,Gas Station,-34.033625,18.446818,4c95d9d0f7cfa1cd2f46c115,Cape Town,Wynberg
60,7700,Baxter Theatre Centre,5214,Theater,-33.95685529195213,18.470461381924636,4b606099f964a5208fe229e3,Cape Town,Wynberg
61,,Col'Cacchio,3136,Pizza Place,-33.978392633784445,18.482373982311294,4f9ebe64e4b0ad3857806e25,Cape Town,Wynberg
62,7806,La Colombe at Silvermist,6037,French Restaurant,-34.015002015637265,18.403277080044173,4cdd82473f6a8cfa9b90f8ea,Cape Town,Wynberg
63,,La Parada,5784,Tapas Restaurant,-34.012250293743016,18.405437314475957,58023be4d67cadcef2aa974d,Cape Town,Wynberg
64,,Constantia Uitsig Wine Farm,4790,Winery,-34.027325091779645,18.423910088816413,4cc95701bfe1f04d13280d75,Cape Town,Wynberg
65,7806,Chefs Warehouse & Canteen @ Beau Constantia,5703,Restaurant,-34.013785,18.406667,5876106c0b56563fd330cf6f,Cape Town,Wynberg
66,,Fraiche Ayres,5902,Restaurant,-33.951087111351285,18.475908998902728,4d3ead046b3d236ab37d7464,Cape Town,Wynberg
67,8000,Top of Table Mountain,7841,Scenic Lookout,-33.957513188002125,18.403037310564745,4bb0fba2f964a5204f703ce3,Cape Town,Wynberg
68,,Magica Roma,7607,Italian Restaurant,-33.94014855148352,18.497787490194014,4b97fb2ff964a520e12335e3,Cape Town,Wynberg
69,,Rhodes Memorial,5740,Monument / Landmark,-33.95250203886461,18.459084299518164,4b976addf964a520ef0235e3,Cape Town,Wynberg
70,,Maclear's Beacon,5617,Scenic Lookout,-33.966864,18.42556,4e00823662843b639cf87134,Cape Town,Wynberg
71,,Buitenverwachting,6322,Winery,-34.04179215550021,18.416503750809646,4bee8a4035dc0f475feb3f5b,Cape Town,Wynberg
72,,Starke Ayres Garden Centre,5906,Garden Center,-33.95105627687584,18.475898429193837,4b8a2302f964a520836132e3,Cape Town,Wynberg
73,,360 Specialized Training,8519,Gym,-33.93063297914655,18.439516160921674,4d6d2f3bfbf0a093ec91fc8c,Cape Town,Wynberg
74,7925,Espresso Lab Microroasters,8541,Coffee Shop,-33.92737067543962,18.457009014445408,4ba9e287f964a520183c3ae3,Cape Town,Wynberg
75,South Africa,Klein Constantia,6343,Vineyard,-34.038674652783,18.413035210446868,4bdd4a8f645e0f47af3c6b19,Cape Town,Wynberg
76,7925,Table Mountain National Park,8584,National Park,-33.948035557863165,18.402806064323944,4efc3aeb823142b925eb319d,Cape Town,Wynberg
77,,Salisburys,7947,Deli / Bodega,-33.933360708670065,18.451980701512788,4ff0360ce4b0cf66726cb6cb,Cape Town,Wynberg
78,7925,1890 House Sushi,7173,Sushi Restaurant,-33.93920394799666,18.46938616433879,4b50cf03f964a520563327e3,Cape Town,Wynberg
79,7925,The Pot Luck Club & Gallery,8526,Tapas Restaurant,-33.927463,18.457429,4efe0f19e5faf2869a1156c1,Cape Town,Wynberg
80,7925,The Old Biscuit Mill,8522,Market,-33.92749713628417,18.457415051797437,4b5a3b1bf964a52013b628e3,Cape Town,Wynberg
81,,The Test Kitchen,8535,Restaurant,-33.927422678167645,18.45696173744514,4cf68fc8e308236ab6e3e6ac,Cape Town,Wynberg
82,7915,Rosetta Roastery,8786,Coffee Shop,-33.92670585996497,18.445895047082622,4c77b3f16981bfb7de7a66e6,Cape Town,Wynberg
83,,Woolworths,5860,Grocery Store,-34.05325587775988,18.48844234546059,4e5bba22fa76d2b00c2aa239,Cape Town,Wynberg
84,8000,The Deli Woodstock,8851,Breakfast Spot,-33.92773321883452,18.43864551481081,4c383fdfdfb0e21ef447aea8,Cape Town,Wynberg
85,7137,Mugg & Bean,6819,Coffee Shop,-34.06372284322648,18.452896706350316,4f79a0d5e4b0290a8d5f0e23,Cape Town,Wynberg
86,7806,Food Lover's Market,6672,Grocery Store,-34.06308886,18.45814393,4eec8036e3002155925590fc,Cape Town,Wynberg
87,8005,Atlanticview Cape Town Boutique Hotel,8951,Hotel,-33.96012690220119,18.385684490203857,54d88f1b498eab400b766771,Cape Town,Wynberg
88,,Earth Fair Food Market,7931,Food Court,-34.07458216371472,18.459441771696007,4b6d4383f964a5202b6e2ce3,Cape Town,Wynberg
89,8001,De Waal Park,9002,Park,-33.93666648137161,18.41257095336914,4b796650f964a52095f72ee3,Cape Town,Wynberg
90,,The Book Lounge,9281,Bookstore,-33.92930614229909,18.42168843738291,4b9e4a4cf964a5209dd736e3,Cape Town,Wynberg
91,8005,Truth Coffee HQ,9337,Café,-33.92828568736539,18.4227945872331,4fa0c477e4b0c33ec64258bf,Cape Town,Wynberg
92,,Devil's Peak Brewing Company (The Taproom),7767,Brewery,-33.93408429796424,18.460315591431804,51ebca525019fb668b6311d9,Cape Town,Wynberg
93,8001,Fugard Theatre,9384,Theater,-33.92717880771957,18.424410697680713,4bcede8d29d4b7132923a9dc,Cape Town,Wynberg
94,8001,Manna Bay Hotel,8415,Hotel,-33.93952258892155,18.41893185813734,4c6bfabcf2846dcb9f9161e9,Cape Town,Wynberg
95,,Lazari,8698,Coffee Shop,-33.93654883554059,18.41892041751815,4b52e2baf964a520f38927e3,Cape Town,Wynberg
96,7925,Woodstock Brewery,8587,Brewery,-33.92729377150171,18.453770970512487,57906662498ed25e200c17fd,Cape Town,Wynberg
97,8001,Deluxe Coffeeworks,8971,Coffee Shop,-33.933453,18.419453,50123ab3e4b0f8ec77991df4,Cape Town,Wynberg
98,8001,The Kitchen,8876,Deli / Bodega,-33.927670975915085,18.43796609977646,4b694555f964a520549d2be3,Cape Town,Wynberg
99,,Nourishd Juice Bar,9424,Juice Bar,-33.93663,18.40484,589a33bbef787f24a01580ba,Cape Town,Wynberg
0,6625,Cango Caves,9307,Cave,-33.39257436178946,22.214618488384982,4cc02ec800d837044ca1485c,Cape Town,Blouberg
1,,Hangar House,4748,Hotel,-33.274791,22.209654,5971d8e7ff030653f72b7cd0,Cape Town,Blouberg
2,,Cango Caves Restaurant,9310,Restaurant,-33.392551,22.214802,4f685de7e4b09652f86c6ba3,Cape Town,Blouberg
0,7357,SPAR Vredekloof,2071,Convenience Store,-33.85910914,18.68242682,4e873445b634c60eee3f5178,Cape Town,Kuils River
1,,The Olive Bistro,2137,Gastropub,-33.83118824137428,18.651800219788324,509631b1e4b0cb1b32536eb7,Cape Town,Kuils River
2,,Virgin Active Health Club,2418,Gym,-33.84982643441175,18.69355802745639,4c5459c71b46c9b65be171ce,Cape Town,Kuils River
3,,Glen Garry Shopping Centre,1381,Shopping Mall,-33.856768467010056,18.672027477890293,4d7e10fe9df3f04d7b61bd94,Cape Town,Kuils River
4,7550,Cattle Baron,2238,Steakhouse,-33.83008157677166,18.651610845286047,4c1de818b306c928534866b7,Cape Town,Kuils River
5,,IMAX,2811,Multiplex,-33.85234358648886,18.697125080276752,5497085c498e9c88a8273b51,Cape Town,Kuils River
6,,Woolworths Food,1379,Grocery Store,-33.856709034831155,18.67222186215664,4cd039c648b837047a1cf1de,Cape Town,Kuils River
7,7550,Sonstraal Spar,1152,Department Store,-33.83644834721606,18.67549288424508,4ba266dcf964a5203ff537e3,Cape Town,Kuils River
8,7560,Woolworths Cape Gate,2756,Department Store,-33.85282412048405,18.696314967231444,4bd68b36cfa7b71326c827da,Cape Town,Kuils River
9,7530,Food Lover's Market,4126,Supermarket,-33.86715641,18.63250875,4b920d17f964a52018e533e3,Cape Town,Kuils River
10,,Ou Meul Bakkery,4425,Café,-33.87021614866072,18.631309514987937,535e1616498e6c5d20a1a50d,Cape Town,Kuils River
11,,Alberto's Restaurant and Pub,2722,Restaurant,-33.82647111693134,18.64860625666377,4be9a0a8a9900f479f8d1540,Cape Town,Kuils River
12,,Die Boer,2299,Music Venue,-33.830183572547405,18.6505284571695,4c1b5218013795210ddb46f3,Cape Town,Kuils River
13,,Jerry's Burger Bar,4462,Burger Joint,-33.8714383391959,18.632033320080712,56740de3498e17815dc6b777,Cape Town,Kuils River
14,8001,Col'Cacchio,4416,Pizza Place,-33.8702433912994,18.631449919945567,4dcd25eb3151a1df1e492bb8,Cape Town,Kuils River
15,,D's Speakeasy,2466,Pub,-33.83209368358392,18.646245724366526,4f0d6c0de4b01660dc7720d1,Cape Town,Kuils River
16,,Vida E Caffè,4927,Café,-33.8800206224521,18.63583157110421,53884c6d498e39acdc8e2ea0,Cape Town,Kuils River
17,,Woolworths,4571,Department Store,-33.87543188038071,18.635184907982232,4c7e63d1b53db1f7b1ce9f11,Cape Town,Kuils River
18,7530,Virgin Active Health Club,4834,Gym,-33.87719041759904,18.63327861060014,4c41a7cb3735be9a23b218a4,Cape Town,Kuils River
19,7530,The Hussar Grill,4509,Steakhouse,-33.871559155849695,18.631494164475622,4c14b2afa1010f4796d54c18,Cape Town,Kuils River
20,,Orms Pro Photo Warehouse North,5115,Electronics Store,-33.882375076737276,18.63626648785036,4c9757097605199caf20c8a3,Cape Town,Kuils River
21,7530,M-Kem,5719,Pharmacy,-33.88830814540221,18.635206236908818,4ba20672f964a520ffd637e3,Cape Town,Kuils River
22,,Dutch Haven,3651,Bistro,-33.86820249934682,18.64043011687884,5395908a498edbdef876c6f3,Cape Town,Kuils River
23,,Ke Monate Restaurant,5934,Tapas Restaurant,-33.82026274508434,18.61112289388409,4df3b5bed22d8c5470ded047,Cape Town,Kuils River
24,,Barnyard Theatre,4367,Theater,-33.869612720588414,18.631518900102332,4bf2dd43e5eba593a9e51d90,Cape Town,Kuils River
25,,Boston Coffee,6897,Coffee Shop,-33.89318606691485,18.62150184480991,54926e1f498e89679bdd2a49,Cape Town,Kuils River
26,7550,The Vineyard Deli,3735,Deli / Bodega,-33.86229975596597,18.63363076849041,4c7b79422d3ba143031394d0,Cape Town,Kuils River
27,,Woolworths Food Welgemoed Forum,5629,Food & Drink Shop,-33.873952901088266,18.618354055896813,4c9a3b579c663704afe456fd,Cape Town,Kuils River
28,7530,Vida e Caffè,4416,Coffee Shop,-33.87021238718739,18.631425073283964,4b73c2acf964a520eaba2de3,Cape Town,Kuils River
29,7551,Meerendal Wine Estate,6498,Vineyard,-33.79892468879846,18.6246427901898,4cd54631122ba143e5d32aa1,Cape Town,Kuils River
30,,Willowbridge Shopping Centre,4427,Shopping Mall,-33.87052642449106,18.63159260952991,4b827722f964a52008d430e3,Cape Town,Kuils River
31,7530,Mugg & Bean,4337,Coffee Shop,-33.872795,18.635484,4ba7a4cef964a52081a539e3,Cape Town,Kuils River
32,7560,Panda's Chinese Restaurant & Takeaway,5968,Chinese Restaurant,-33.883005376249976,18.71339979497272,4c56f7827329c928f1bd8d80,Cape Town,Kuils River
33,,Limnos Bakery,5222,Bakery,-33.88292471301843,18.635199240909177,4ba85f7bf964a52079d839e3,Cape Town,Kuils River
34,,Vida E Caffe,4526,Coffee Shop,-33.87467483208203,18.634894570475733,4f45ee72e4b07d8af2efc171,Cape Town,Kuils River
35,7530,Exclusive Books,4427,Bookstore,-33.872596249011494,18.633854984543508,4cd6908f122ba1431d7e33a1,Cape Town,Kuils River
36,,Pick n Pay Hypermarket,4638,Shopping Mall,-33.883470291100515,18.68676670197481,4cbab08ebac93704636fed7c,Cape Town,Kuils River
37,,Yuz Sushi,4939,Sushi Restaurant,-33.88008035580786,18.635715593392188,4dc19693b0fb1c18ee67094d,Cape Town,Kuils River
38,,D'Aria Wine Farm,5417,Winery,-33.841377373098695,18.609662131179853,4c5ff1df12e5c92872fd1d4c,Cape Town,Kuils River
39,7500,Pick 'n Pay,9131,Supermarket,-33.86557648309723,18.572547316620064,4c5c22a19b28d13aaedd5570,Cape Town,Kuils River
40,,Arugula Bistro & Bread,5617,Restaurant,-33.8739241137782,18.61848919084369,4f7ea198e4b077c1807d3e4f,Cape Town,Kuils River
41,,Durbanville Hills Wine Estate,9754,Vineyard,-33.824714047473826,18.565417553766203,4be7bfe7e1b39521f22121c1,Cape Town,Kuils River
42,,De Oude Welgemoed Restaurant,5639,Pizza Place,-33.87043028504159,18.615483843164842,4e7d7dd69a521ffdaa4e03ea,Cape Town,Kuils River
43,7530,Burger Fair,6804,Fast Food Restaurant,-33.90377171056637,18.648757309119112,4c599205d3aee21ebf7d6855,Cape Town,Kuils River
44,,Cape Garden Centre,6581,Garden Center,-33.8335186724196,18.73798439947587,4bb71344f562ef3b93013197,Cape Town,Kuils River
45,7500,SPAR,8896,Grocery Store,-33.873954,18.578498,4c5c37b7fff99c74ea2f33d3,Cape Town,Kuils River
46,,Greens,9142,Italian Restaurant,-33.86508531544863,18.57228084634829,4cd514f794848cfa1810e4b1,Cape Town,Kuils River
47,,Tygerberg hill,7249,Scenic Lookout,-33.889035792645,18.610560895385028,4f2252cbe4b083187463a574,Cape Town,Kuils River
48,7551,Tables At Nitida,7028,Tea Room,-33.83500462160035,18.593007589549188,4d7cc665da568cfab63c6cff,Cape Town,Kuils River
49,,Klein Roosboom,9161,Vineyard,-33.818472283924294,18.574234326409268,4e4100741f6e54050be48b20,Cape Town,Kuils River
50,7500,Nando's,9236,Portuguese Restaurant,-33.8653561,18.5713068,4e08c3b114959022c89e7f19,Cape Town,Kuils River
51,,Plattekloof Hill,8944,Scenic Lookout,-33.88478598775065,18.584178742919338,4c4c6a7f712ac92874a64d6e,Cape Town,Kuils River
52,7500,Cattle Baron Grill House,8925,Steakhouse,-33.87438415378863,18.578369278223168,4c9b9f1e78ffa0933acf7675,Cape Town,Kuils River
53,7530,Poplars Restaurant,5467,Restaurant,-33.84091089468405,18.609162331567475,4b5163d8f964a520504c27e3,Cape Town,Kuils River
54,,Woolworths Food,9163,Grocery Store,-33.86590089943587,18.57229471818825,4da9ae7c93a04642f06c0c91,Cape Town,Kuils River
55,7500,Plattekloof Village,9169,Shopping Mall,-33.86550518109846,18.57210157785989,4bf844d7c07c9c74cccfbbef,Cape Town,Kuils River
56,7538,Tygerberg Nature Reserve,7287,Other Great Outdoors,-33.87621300146079,18.598946713553726,4d0def263bbaa1431efa3fda,Cape Town,Kuils River
57,,knead,9217,Coffee Shop,-33.87616,18.575821,572c477f498e0122ce87b8bc,Cape Town,Kuils River
58,7500,Chinook Spur,9279,Burger Joint,-33.865536,18.570889,4c5c4f579b28d13af36a5670,Cape Town,Kuils River
59,7536,SPAR,5320,Grocery Store,-33.85882545,18.61309352,4d84b3535e70224b11c91109,Cape Town,Kuils River
60,7500,Ster Kinekor,9396,Multiplex,-33.906656928348724,18.598932217809185,4d92029656a3f04d580ef041,Cape Town,Kuils River
61,,Woolworths,9178,Grocery Store,-33.904508995805536,18.59962447111579,4d529efb9d493704d45dda39,Cape Town,Kuils River
62,,Hillcrest Quarry,7426,Vineyard,-33.8281550154912,18.590330541227498,4d0340a928926ea86a9a64c2,Cape Town,Kuils River
63,7530,Shell,8450,Gas Station,-33.90462483,18.61183735,4e3976207d8b6bed20aea283,Cape Town,Kuils River
64,,Bluefin Seafood & Sushi,9256,Seafood Restaurant,-33.86556513284727,18.57115569809383,4e6f9c411838a9b627b9c658,Cape Town,Kuils River
65,,Bon Amis @ Bloemendal,6281,Café,-33.83935604473369,18.60048736773833,4efece70722e0f07710f2b7e,Cape Town,Kuils River
66,,KFC,9640,Fast Food Restaurant,-33.90468393175943,18.592765777767774,4fa8d5fae4b05f800c4251d1,Cape Town,Kuils River
67,7501,Hawkeye Spur,9421,Steakhouse,-33.90679956080957,18.59872637819654,4e11e2481f6e671dd9eb518c,Cape Town,Kuils River
68,,Café Chameleon,8925,Breakfast Spot,-33.87441938176266,18.578380303829295,4b6bbbd2f964a52007172ce3,Cape Town,Kuils River
69,7500,Saratoga Spur,9952,Breakfast Spot,-33.90485846156931,18.588347575011024,4e09f6ceaeb74c399121300d,Cape Town,Kuils River
70,7000,Wimpy,9217,Restaurant,-33.8664499,18.571867,4dc047ae043706a03212384b,Cape Town,Kuils River
71,7500,Shell,9620,Gas Station,-33.87025072,18.56865972,4cb19546babebfb7119da3ab,Cape Town,Kuils River
72,,Protea Hotel,7876,Hotel,-33.88821453007553,18.600821888849843,4e724680d1647c08d410a282,Cape Town,Kuils River
73,,China Town - Shoprite Park,9815,Shopping Mall,-33.90705362114536,18.59289913643247,4f968fe2e4b0e1b63553153f,Cape Town,Kuils River
74,,Plattekloof Centre,8857,Shopping Mall,-33.87383092947438,18.57889597647934,4bdfd9cce75c0f472078cc03,Cape Town,Kuils River
75,,The Hollow Tree,6224,Restaurant,-33.85888927151263,18.60294912415545,4e7c91eadab4a8a8e9035239,Cape Town,Kuils River
76,7500,KFC,9244,Fast Food Restaurant,-33.86611573514449,18.57145801490411,529236e811d2203884bc3954,Cape Town,Kuils River
77,,Planet Fitness Plattekloof,8916,Gym,-33.873010875979105,18.577831894532476,4bc0bca1abf49521d8c1bf93,Cape Town,Kuils River
78,7500,Nando's,9659,Portuguese Restaurant,-33.9045883,18.59236506,4e184f0f62e12640d873cc8f,Cape Town,Kuils River
79,,Van Riebeeckshof Center,5317,Shopping Mall,-33.85863628418785,18.613052658268423,4c57f1956201e21e66af9c6f,Cape Town,Kuils River
80,7501,Parow Centre,9264,Shopping Mall,-33.90524331,18.59921562,4e0191c2922ecbc92f4a97c2,Cape Town,Kuils River
81,,McDonald's,9542,Fast Food Restaurant,-33.906776334801904,18.596791172128416,4dca3e7c887769ff3d4a4f7a,Cape Town,Kuils River
82,7500,Century Superspar,10010,Grocery Store,-33.90530829,18.58799458,4d5ffaa19f67f04daf2273fb,Cape Town,Kuils River
83,,McDonald's,9766,Fast Food Restaurant,-33.861315287905725,18.564349426630116,4be54722bcef2d7f379d03e5,Cape Town,Kuils River
